"Longitude (x)","Latitude (y)","Station Name","Climate ID","Date/Time (LST)","Year","Month","Day","Time (LST)","Temp (°C)","Temp Flag","Dew Point Temp (°C)","Dew Point Temp Flag","Rel Hum (%)","Rel Hum Flag","Precip. Amount (mm)","Precip. Amount Flag","Wind Dir (10s deg)","Wind Dir Flag","Wind Spd (km/h)","Wind Spd Flag","Visibility (km)","Visibility Flag","Stn Press (kPa)","Stn Press Flag","Hmdx","Hmdx Flag","Wind Chill","Wind Chill Flag","Weather"
"-123.18","49.19","VANCOUVER INTL A","1108395","2018-08-01 00:00","2018","08","01","00:00","18.5","","14.0","","75","","","","10","","19","","32.2","","101.40","","","","","","NA"
"-123.18","49.19","VANCOUVER INTL A","1108395","2018-08-01 01:00","2018","08","01","01:00","17.9","","14.0","","78","","","","11","","19","","32.2","","101.41","","","","","","Clear"
"-123.18","49.19","VANCOUVER INTL A","1108395","2018-08-01 02:00","2018","08","01","02:00","17.3","","13.8","","80","","","","12","","21","","32.2","","101.44","","","","","","NA"
"-123.18","49.19","VANCOUVER INTL A","1108395","2018-08-01 03:00","2018","08","01","03:00","16.0","","13.5","","85","","","","10","","19","","32.2","","101.47","","","","","","NA"
"-123.18","49.19","VANCOUVER INTL A","1108395","2018-08-01 04:00","2018","08","01","04:00","16.1","","13.5","","84","","","","11","","20","","48.3","","101.50","","","","","","Clear"
"-123.18","49.19","VANCOUVER INTL A","1108395","2018-08-01 05:00","2018","08","01","05:00","15.5","","13.2","","86","","","","11","","28","","48.3","","101.53","","","","","","NA"
"-123.18","49.19","VANCOUVER INTL A","1108395","2018-08-01 06:00","2018","08","01","06:00","15.7","","13.0","","84","","","","12","","25","","48.3","","101.59","","","","","","NA"
"-123.18","49.19","VANCOUVER INTL A","1108395","2018-08-01 07:00","2018","08","01","07:00","16.1","","13.2","","83","","","","13","","22","","32.2","","101.63","","","","","","Mostly Cloudy"
"-123.18","49.19","VANCOUVER INTL A","1108395","2018-08-01 08:00","2018","08","01","08:00","16.6","","13.2","","80","","","","12","","19","","32.2","","101.67","","","","","","NA"
"-123.18","49.19","VANCOUVER INTL A","1108395","2018-08-01 09:00","2018","08","01","09:00","17.3","","13.1","","76","","","","14","","21","","32.2","","101.66","","","","","","NA"
"-123.18","49.19","VANCOUVER INTL A","1108395","2018-08-01 10:00","2018","08","01","10:00","18.1","","13.3","","73","","","","13","","22","","24.1","","101.67","","","","","","Cloudy"
"-123.18","49.19","VANCOUVER INTL A","1108395","2018-08-01 11:00","2018","08","01","11:00","18.0","","13.3","","74","","","","14","","19","","24.1","","101.66","","","","","","NA"
"-123.18","49.19","VANCOUVER INTL A","1108395","2018-08-01 12:00","2018","08","01","12:00","18.9","","13.3","","69","","","","13","","17","","24.1","","101.63","","","","","","NA"
"-123.18","49.19","VANCOUVER INTL A","1108395","2018-08-01 13:00","2018","08","01","13:00","20.7","","13.5","","63","","","","14","","20","","32.2","","101.58","","","","","","Mostly Cloudy"
"-123.18","49.19","VANCOUVER INTL A","1108395","2018-08-01 14:00","2018","08","01","14:00","21.4","","13.5","","60","","","","14","","16","","48.3","","101.55","","","","","","NA"
"-123.18","49.19","VANCOUVER INTL A","1108395","2018-08-01 15:00","2018","08","01","15:00","22.1","","13.5","","58","","","","13","","13","","48.3","","101.50","","25","","","","NA"
"-123.18","49.19","VANCOUVER INTL A","1108395","2018-08-01 16:00","2018","08","01","16:00","21.6","","13.6","","60","","","","14","","18","","48.3","","101.45","","25","","","","Clear"
"-123.18","49.19","VANCOUVER INTL A","1108395","2018-08-01 17:00","2018","08","01","17:00","21.4","","13.6","","61","","","","13","","17","","48.3","","101.40","","25","","","","NA"
"-123.18","49.19","VANCOUVER INTL A","1108395","2018-08-01 18:00","2018","08","01","18:00","20.3","","13.5","","64","","","","13","","19","","32.2","","101.36","","","","","","NA"
"-123.18","49.19","VANCOUVER INTL A","1108395","2018-08-01 19:00","2018","08","01","19:00","19.4","","13.4","","68","","","","11","","16","","32.2","","101.33","","","","","","Clear"
"-123.18","49.19","VANCOUVER INTL A","1108395","2018-08-01 20:00","2018","08","01","20:00","17.8","","13.4","","75","","","","11","","18","","32.2","","101.34","","","","","","NA"
"-123.18","49.19","VANCOUVER INTL A","1108395","2018-08-01 21:00","2018","08","01","21:00","17.2","","13.4","","78","","","","10","","18","","32.2","","101.35","","","","","","NA"
"-123.18","49.19","VANCOUVER INTL A","1108395","2018-08-01 22:00","2018","08","01","22:00","17.1","","13.2","","77","","","","10","","19","","32.2","","101.36","","","","","","Clear"
"-123.18","49.19","VANCOUVER INTL A","1108395","2018-08-01 23:00","2018","08","01","23:00","17.1","","13.1","","77","","","","12","","19","","32.2","","101.36","","","","","","NA"
"-123.18","49.19","VANCOUVER INTL A","1108395","2018-08-02 00:00","2018","08","02","00:00","16.4","","12.9","","79","","","","13","","17","","32.2","","101.39","","","","","","NA"
"-123.18","49.19","VANCOUVER INTL A","1108395","2018-08-02 01:00","2018","08","02","01:00","15.7","","12.9","","83","","","","11","","16","","32.2","","101.39","","","","","","Clear"
"-123.18","49.19","VANCOUVER INTL A","1108395","2018-08-02 02:00","2018","08","02","02:00","14.8","","12.7","","87","","","","12","","16","","32.2","","101.42","","","","","","NA"
"-123.18","49.19","VANCOUVER INTL A","1108395","2018-08-02 03:00","2018","08","02","03:00","14.6","","12.5","","87","","","","11","","19","","32.2","","101.43","","","","","","NA"
"-123.18","49.19","VANCOUVER INTL A","1108395","2018-08-02 04:00","2018","08","02","04:00","13.8","","12.2","","90","","","","10","","18","","32.2","","101.43","","","","","","Mainly Clear"
"-123.18","49.19","VANCOUVER INTL A","1108395","2018-08-02 05:00","2018","08","02","05:00","13.9","","12.1","","89","","","","10","","20","","32.2","","101.46","","","","","","NA"
"-123.18","49.19","VANCOUVER INTL A","1108395","2018-08-02 06:00","2018","08","02","06:00","14.9","","12.4","","85","","","","10","","22","","48.3","","101.51","","","","","","NA"
"-123.18","49.19","VANCOUVER INTL A","1108395","2018-08-02 07:00","2018","08","02","07:00","15.8","","12.6","","81","","","","10","","24","","32.2","","101.55","","","","","","Mainly Clear"
"-123.18","49.19","VANCOUVER INTL A","1108395","2018-08-02 08:00","2018","08","02","08:00","16.4","","12.4","","77","","","","11","","27","","32.2","","101.62","","","","","","NA"
"-123.18","49.19","VANCOUVER INTL A","1108395","2018-08-02 09:00","2018","08","02","09:00","16.9","","12.4","","75","","","","10","","25","","32.2","","101.65","","","","","","NA"
"-123.18","49.19","VANCOUVER INTL A","1108395","2018-08-02 10:00","2018","08","02","10:00","19.6","","12.2","","62","","","","13","","23","","32.2","","101.67","","","","","","Mostly Cloudy"
"-123.18","49.19","VANCOUVER INTL A","1108395","2018-08-02 11:00","2018","08","02","11:00","20.5","","11.7","","57","","","","13","","19","","48.3","","101.70","","","","","","NA"
"-123.18","49.19","VANCOUVER INTL A","1108395","2018-08-02 12:00","2018","08","02","12:00","20.7","","11.8","","56","","","","14","","21","","48.3","","101.69","","","","","","NA"
"-123.18","49.19","VANCOUVER INTL A","1108395","2018-08-02 13:00","2018","08","02","13:00","21.3","","12.2","","56","","","","15","","16","","48.3","","101.70","","","","","","Mainly Clear"
"-123.18","49.19","VANCOUVER INTL A","1108395","2018-08-02 14:00","2018","08","02","14:00","21.3","","11.9","","55","","","","15","","17","","48.3","","101.68","","","","","","NA"
"-123.18","49.19","VANCOUVER INTL A","1108395","2018-08-02 15:00","2018","08","02","15:00","22.2","","11.9","","52","","","","14","","19","","48.3","","101.66","","","","","","NA"
"-123.18","49.19","VANCOUVER INTL A","1108395","2018-08-02 16:00","2018","08","02","16:00","21.0","","12.6","","58","","","","14","","19","","48.3","","101.65","","","","","","Mostly Cloudy"
"-123.18","49.19","VANCOUVER INTL A","1108395","2018-08-02 17:00","2018","08","02","17:00","21.1","","12.0","","56","","","","14","","24","","48.3","","101.63","","","","","","NA"
"-123.18","49.19","VANCOUVER INTL A","1108395","2018-08-02 18:00","2018","08","02","18:00","19.9","","12.3","","61","","","","15","","19","","32.2","","101.62","","","","","","NA"
"-123.18","49.19","VANCOUVER INTL A","1108395","2018-08-02 19:00","2018","08","02","19:00","18.5","","12.7","","69","","","","13","","16","","32.2","","101.59","","","","","","Mostly Cloudy"
"-123.18","49.19","VANCOUVER INTL A","1108395","2018-08-02 20:00","2018","08","02","20:00","17.8","","12.0","","69","","","","13","","19","","32.2","","101.60","","","","","","NA"
"-123.18","49.19","VANCOUVER INTL A","1108395","2018-08-02 21:00","2018","08","02","21:00","16.9","","11.7","","71","","","","11","","12","","32.2","","101.64","","","","","","NA"
"-123.18","49.19","VANCOUVER INTL A","1108395","2018-08-02 22:00","2018","08","02","22:00","16.7","","12.4","","75","","","","9","","11","","32.2","","101.65","","","","","","Mostly Cloudy"
"-123.18","49.19","VANCOUVER INTL A","1108395","2018-08-02 23:00","2018","08","02","23:00","16.6","","12.9","","78","","","","10","","16","","32.2","","101.62","","","","","","NA"
"-123.18","49.19","VANCOUVER INTL A","1108395","2018-08-03 00:00","2018","08","03","00:00","16.7","","12.9","","78","","","","9","","8","","32.2","","101.63","","","","","","NA"
"-123.18","49.19","VANCOUVER INTL A","1108395","2018-08-03 01:00","2018","08","03","01:00","16.3","","12.5","","78","","","","11","","15","","32.2","","101.64","","","","","","Cloudy"
"-123.18","49.19","VANCOUVER INTL A","1108395","2018-08-03 02:00","2018","08","03","02:00","16.1","","12.4","","78","","","","13","","11","","32.2","","101.64","","","","","","NA"
"-123.18","49.19","VANCOUVER INTL A","1108395","2018-08-03 03:00","2018","08","03","03:00","15.3","","12.1","","81","","","","14","","8","","32.2","","101.65","","","","","","NA"
"-123.18","49.19","VANCOUVER INTL A","1108395","2018-08-03 04:00","2018","08","03","04:00","15.5","","12.3","","81","","","","13","","12","","32.2","","101.66","","","","","","Mostly Cloudy"
"-123.18","49.19","VANCOUVER INTL A","1108395","2018-08-03 05:00","2018","08","03","05:00","15.2","","12.1","","81","","","","9","","17","","32.2","","101.66","","","","","","NA"
"-123.18","49.19","VANCOUVER INTL A","1108395","2018-08-03 06:00","2018","08","03","06:00","15.2","","12.1","","81","","","","16","","9","","48.3","","101.74","","","","","","NA"
"-123.18","49.19","VANCOUVER INTL A","1108395","2018-08-03 07:00","2018","08","03","07:00","15.1","","11.9","","81","","","","17","","9","","48.3","","101.77","","","","","","Cloudy"
"-123.18","49.19","VANCOUVER INTL A","1108395","2018-08-03 08:00","2018","08","03","08:00","15.8","","11.7","","76","","","","8","","10","","48.3","","101.79","","","","","","NA"
"-123.18","49.19","VANCOUVER INTL A","1108395","2018-08-03 09:00","2018","08","03","09:00","17.3","","12.1","","71","","","","9","","14","","48.3","","101.84","","","","","","NA"
"-123.18","49.19","VANCOUVER INTL A","1108395","2018-08-03 10:00","2018","08","03","10:00","18.3","","12.2","","67","","","","12","","10","","48.3","","101.89","","","","","","Cloudy"
"-123.18","49.19","VANCOUVER INTL A","1108395","2018-08-03 11:00","2018","08","03","11:00","18.6","","12.3","","66","","","","11","","6","","48.3","","101.93","","","","","","NA"
"-123.18","49.19","VANCOUVER INTL A","1108395","2018-08-03 12:00","2018","08","03","12:00","20.8","","12.8","","60","","","","15","","12","","48.3","","101.93","","","","","","NA"
"-123.18","49.19","VANCOUVER INTL A","1108395","2018-08-03 13:00","2018","08","03","13:00","22.3","","12.3","","53","","","","10","","11","","48.3","","101.92","","25","","","","Mostly Cloudy"
"-123.18","49.19","VANCOUVER INTL A","1108395","2018-08-03 14:00","2018","08","03","14:00","22.1","","13.5","","58","","","","17","","14","","48.3","","101.90","","25","","","","NA"
"-123.18","49.19","VANCOUVER INTL A","1108395","2018-08-03 15:00","2018","08","03","15:00","23.1","","15.7","","63","","","","19","","12","","48.3","","101.88","","28","","","","NA"
"-123.18","49.19","VANCOUVER INTL A","1108395","2018-08-03 16:00","2018","08","03","16:00","22.3","","13.4","","57","","","","20","","18","","48.3","","101.86","","25","","","","Mostly Cloudy"
"-123.18","49.19","VANCOUVER INTL A","1108395","2018-08-03 17:00","2018","08","03","17:00","21.9","","13.7","","59","","","","21","","18","","48.3","","101.83","","25","","","","NA"
"-123.18","49.19","VANCOUVER INTL A","1108395","2018-08-03 18:00","2018","08","03","18:00","21.4","","12.9","","58","","","","17","","15","","32.2","","101.81","","","","","","NA"
"-123.18","49.19","VANCOUVER INTL A","1108395","2018-08-03 19:00","2018","08","03","19:00","20.5","","12.9","","61","","","","16","","13","","32.2","","101.81","","","","","","Mainly Clear"
"-123.18","49.19","VANCOUVER INTL A","1108395","2018-08-03 20:00","2018","08","03","20:00","18.9","","12.5","","66","","","","14","","13","","32.2","","101.83","","","","","","NA"
"-123.18","49.19","VANCOUVER INTL A","1108395","2018-08-03 21:00","2018","08","03","21:00","18.0","","12.2","","68","","","","10","","10","","32.2","","101.85","","","","","","NA"
"-123.18","49.19","VANCOUVER INTL A","1108395","2018-08-03 22:00","2018","08","03","22:00","17.3","","13.0","","76","","","","10","","14","","32.2","","101.81","","","","","","Clear"
"-123.18","49.19","VANCOUVER INTL A","1108395","2018-08-03 23:00","2018","08","03","23:00","16.3","","13.1","","81","","","","10","","14","","32.2","","101.79","","","","","","NA"
"-123.18","49.19","VANCOUVER INTL A","1108395","2018-08-04 00:00","2018","08","04","00:00","15.4","","12.5","","82","","","","10","","11","","32.2","","101.79","","","","","","NA"
"-123.18","49.19","VANCOUVER INTL A","1108395","2018-08-04 01:00","2018","08","04","01:00","15.5","","12.2","","81","","","","10","","16","","32.2","","101.78","","","","","","Clear"
"-123.18","49.19","VANCOUVER INTL A","1108395","2018-08-04 02:00","2018","08","04","02:00","15.0","","11.8","","81","","","","10","","13","","32.2","","101.75","","","","","","NA"
"-123.18","49.19","VANCOUVER INTL A","1108395","2018-08-04 03:00","2018","08","04","03:00","14.7","","11.9","","83","","","","10","","10","","32.2","","101.76","","","","","","NA"
"-123.18","49.19","VANCOUVER INTL A","1108395","2018-08-04 04:00","2018","08","04","04:00","14.1","","11.8","","86","","","","10","","9","","32.2","","101.75","","","","","","Clear"
"-123.18","49.19","VANCOUVER INTL A","1108395","2018-08-04 05:00","2018","08","04","05:00","14.8","","11.7","","82","","","","11","","5","","32.2","","101.74","","","","","","NA"
"-123.18","49.19","VANCOUVER INTL A","1108395","2018-08-04 06:00","2018","08","04","06:00","15.5","","12.8","","84","","","","14","","7","","48.3","","101.76","","","","","","NA"
"-123.18","49.19","VANCOUVER INTL A","1108395","2018-08-04 07:00","2018","08","04","07:00","16.8","","13.5","","81","","","","9","","7","","48.3","","101.76","","","","","","Mostly Cloudy"
"-123.18","49.19","VANCOUVER INTL A","1108395","2018-08-04 08:00","2018","08","04","08:00","18.2","","13.8","","75","","","","17","","8","","48.3","","101.74","","","","","","NA"
"-123.18","49.19","VANCOUVER INTL A","1108395","2018-08-04 09:00","2018","08","04","09:00","18.7","","14.7","","78","","","","22","","14","","48.3","","101.72","","","","","","NA"
"-123.18","49.19","VANCOUVER INTL A","1108395","2018-08-04 10:00","2018","08","04","10:00","18.9","","13.9","","72","","","","21","","16","","48.3","","101.69","","","","","","Mainly Clear"
"-123.18","49.19","VANCOUVER INTL A","1108395","2018-08-04 11:00","2018","08","04","11:00","18.9","","14.6","","76","","","","23","","15","","48.3","","101.66","","","","","","NA"
"-123.18","49.19","VANCOUVER INTL A","1108395","2018-08-04 12:00","2018","08","04","12:00","19.9","","14.8","","72","","","","23","","15","","48.3","","101.61","","","","","","NA"
"-123.18","49.19","VANCOUVER INTL A","1108395","2018-08-04 13:00","2018","08","04","13:00","21.3","","15.4","","69","","","","24","","13","","48.3","","101.58","","26","","","","Mainly Clear"
"-123.18","49.19","VANCOUVER INTL A","1108395","2018-08-04 14:00","2018","08","04","14:00","21.4","","14.3","","63","","","","23","","14","","48.3","","101.52","","25","","","","NA"
"-123.18","49.19","VANCOUVER INTL A","1108395","2018-08-04 15:00","2018","08","04","15:00","22.1","","14.7","","62","","","","24","","13","","48.3","","101.44","","26","","","","NA"
"-123.18","49.19","VANCOUVER INTL A","1108395","2018-08-04 16:00","2018","08","04","16:00","21.8","","14.7","","63","","","","23","","12","","48.3","","101.37","","26","","","","Mainly Clear"
"-123.18","49.19","VANCOUVER INTL A","1108395","2018-08-04 17:00","2018","08","04","17:00","21.9","","15.1","","65","","","","22","","16","","48.3","","101.31","","26","","","","NA"
"-123.18","49.19","VANCOUVER INTL A","1108395","2018-08-04 18:00","2018","08","04","18:00","21.8","","14.7","","64","","","","22","","11","","48.3","","101.27","","26","","","","NA"
"-123.18","49.19","VANCOUVER INTL A","1108395","2018-08-04 19:00","2018","08","04","19:00","21.4","","14.9","","66","","","","19","","8","","32.2","","101.30","","25","","","","Mainly Clear"
"-123.18","49.19","VANCOUVER INTL A","1108395","2018-08-04 20:00","2018","08","04","20:00","20.4","","13.0","","62","","","","15","","10","","48.3","","101.35","","","","","","NA"
"-123.18","49.19","VANCOUVER INTL A","1108395","2018-08-04 21:00","2018","08","04","21:00","19.4","","13.7","","70","","","","9","","8","","32.2","","101.41","","","","","","NA"
"-123.18","49.19","VANCOUVER INTL A","1108395","2018-08-04 22:00","2018","08","04","22:00","18.3","","13.9","","75","","","","9","","9","","32.2","","101.42","","","","","","Mainly Clear"
"-123.18","49.19","VANCOUVER INTL A","1108395","2018-08-04 23:00","2018","08","04","23:00","17.7","","13.2","","75","","","","10","","14","","32.2","","101.44","","","","","","NA"
"-123.18","49.19","VANCOUVER INTL A","1108395","2018-08-05 00:00","2018","08","05","00:00","16.9","","13.3","","79","","","","10","","15","","32.2","","101.47","","","","","","NA"
"-123.18","49.19","VANCOUVER INTL A","1108395","2018-08-05 01:00","2018","08","05","01:00","17.1","","12.9","","76","","","","10","","11","","32.2","","101.46","","","","","","Clear"
"-123.18","49.19","VANCOUVER INTL A","1108395","2018-08-05 02:00","2018","08","05","02:00","17.1","","13.1","","77","","","","9","","8","","32.2","","101.49","","","","","","NA"
"-123.18","49.19","VANCOUVER INTL A","1108395","2018-08-05 03:00","2018","08","05","03:00","16.7","","13.2","","80","","","","12","","7","","32.2","","101.51","","","","","","NA"
"-123.18","49.19","VANCOUVER INTL A","1108395","2018-08-05 04:00","2018","08","05","04:00","16.0","","13.2","","84","","","","14","","3","","32.2","","101.54","","","","","","Mostly Cloudy"
"-123.18","49.19","VANCOUVER INTL A","1108395","2018-08-05 05:00","2018","08","05","05:00","16.1","","13.2","","83","","","","12","","5","","32.2","","101.57","","","","","","NA"
"-123.18","49.19","VANCOUVER INTL A","1108395","2018-08-05 06:00","2018","08","05","06:00","17.2","","14.0","","81","","","","9","","10","","48.3","","101.59","","","","","","NA"
"-123.18","49.19","VANCOUVER INTL A","1108395","2018-08-05 07:00","2018","08","05","07:00","18.5","","14.9","","79","","","","12","","9","","48.3","","101.62","","","","","","Mostly Cloudy"
"-123.18","49.19","VANCOUVER INTL A","1108395","2018-08-05 08:00","2018","08","05","08:00","20.7","","14.5","","67","","","","15","","9","","48.3","","101.67","","","","","","NA"
"-123.18","49.19","VANCOUVER INTL A","1108395","2018-08-05 09:00","2018","08","05","09:00","21.8","","14.7","","63","","","","16","","8","","48.3","","101.67","","26","","","","NA"
"-123.18","49.19","VANCOUVER INTL A","1108395","2018-08-05 10:00","2018","08","05","10:00","21.9","","16.0","","69","","","","24","","13","","48.3","","101.68","","27","","","","Mostly Cloudy"
"-123.18","49.19","VANCOUVER INTL A","1108395","2018-08-05 11:00","2018","08","05","11:00","21.0","","16.1","","73","","","","24","","13","","48.3","","101.67","","26","","","","NA"
"-123.18","49.19","VANCOUVER INTL A","1108395","2018-08-05 12:00","2018","08","05","12:00","22.3","","15.4","","65","","","","24","","12","","48.3","","101.66","","27","","","","NA"
"-123.18","49.19","VANCOUVER INTL A","1108395","2018-08-05 13:00","2018","08","05","13:00","21.9","","15.6","","67","","","","23","","13","","48.3","","101.62","","26","","","","Mostly Cloudy"
"-123.18","49.19","VANCOUVER INTL A","1108395","2018-08-05 14:00","2018","08","05","14:00","23.4","","16.3","","64","","","","23","","10","","48.3","","101.58","","28","","","","NA"
"-123.18","49.19","VANCOUVER INTL A","1108395","2018-08-05 15:00","2018","08","05","15:00","25.1","","15.2","","53","","","","26","","8","","48.3","","101.52","","29","","","","NA"
"-123.18","49.19","VANCOUVER INTL A","1108395","2018-08-05 16:00","2018","08","05","16:00","24.4","","17.0","","63","","","","23","","13","","48.3","","101.49","","30","","","","Mainly Clear"
"-123.18","49.19","VANCOUVER INTL A","1108395","2018-08-05 17:00","2018","08","05","17:00","23.6","","16.7","","65","","","","24","","8","","48.3","","101.45","","29","","","","NA"
"-123.18","49.19","VANCOUVER INTL A","1108395","2018-08-05 18:00","2018","08","05","18:00","23.3","","17.2","","68","","","","24","","11","","48.3","","101.44","","29","","","","NA"
"-123.18","49.19","VANCOUVER INTL A","1108395","2018-08-05 19:00","2018","08","05","19:00","21.6","","17.1","","76","","","","23","","8","","32.2","","101.45","","27","","","","Mainly Clear"
"-123.18","49.19","VANCOUVER INTL A","1108395","2018-08-05 20:00","2018","08","05","20:00","20.8","","15.9","","73","","","","19","","6","","48.3","","101.49","","25","","","","NA"
"-123.18","49.19","VANCOUVER INTL A","1108395","2018-08-05 21:00","2018","08","05","21:00","19.9","","16.3","","79","","","","1","","5","","32.2","","101.53","","","","","","NA"
"-123.18","49.19","VANCOUVER INTL A","1108395","2018-08-05 22:00","2018","08","05","22:00","21.1","","15.1","","68","","","","13","","8","","32.2","","101.55","","25","","","","Mostly Cloudy"
"-123.18","49.19","VANCOUVER INTL A","1108395","2018-08-05 23:00","2018","08","05","23:00","19.4","","14.6","","73","","","","10","","7","","32.2","","101.58","","","","","","NA"
"-123.18","49.19","VANCOUVER INTL A","1108395","2018-08-06 00:00","2018","08","06","00:00","17.5","","14.8","","84","","","","10","","14","","32.2","","101.61","","","","","","NA"
"-123.18","49.19","VANCOUVER INTL A","1108395","2018-08-06 01:00","2018","08","06","01:00","16.8","","13.7","","82","","","","10","","11","","32.2","","101.60","","","","","","Mainly Clear"
"-123.18","49.19","VANCOUVER INTL A","1108395","2018-08-06 02:00","2018","08","06","02:00","17.3","","13.6","","78","","","","12","","8","","32.2","","101.63","","","","","","NA"
"-123.18","49.19","VANCOUVER INTL A","1108395","2018-08-06 03:00","2018","08","06","03:00","17.2","","15.1","","87","","","","17","","5","","32.2","","101.68","","","","","","NA"
"-123.18","49.19","VANCOUVER INTL A","1108395","2018-08-06 04:00","2018","08","06","04:00","16.7","","14.8","","88","","","","9","","8","","32.2","","101.72","","","","","","Mainly Clear"
"-123.18","49.19","VANCOUVER INTL A","1108395","2018-08-06 05:00","2018","08","06","05:00","15.8","","14.1","","90","","","","11","","8","","32.2","","101.75","","","","","","NA"
"-123.18","49.19","VANCOUVER INTL A","1108395","2018-08-06 06:00","2018","08","06","06:00","17.7","","15.1","","84","","","","9","","10","","48.3","","101.80","","","","","","NA"
"-123.18","49.19","VANCOUVER INTL A","1108395","2018-08-06 07:00","2018","08","06","07:00","19.5","","14.8","","74","","","","9","","6","","48.3","","101.85","","","","","","Mainly Clear"
"-123.18","49.19","VANCOUVER INTL A","1108395","2018-08-06 08:00","2018","08","06","08:00","21.0","","14.5","","66","","","","13","","7","","48.3","","101.90","","25","","","","NA"
"-123.18","49.19","VANCOUVER INTL A","1108395","2018-08-06 09:00","2018","08","06","09:00","23.1","","14.3","","57","","","","16","","5","","48.3","","101.92","","27","","","","NA"
"-123.18","49.19","VANCOUVER INTL A","1108395","2018-08-06 10:00","2018","08","06","10:00","23.6","","16.9","","66","","","","21","","16","","48.3","","101.94","","29","","","","Mainly Clear"
"-123.18","49.19","VANCOUVER INTL A","1108395","2018-08-06 11:00","2018","08","06","11:00","24.8","","17.3","","63","","","","24","","14","","48.3","","101.94","","30","","","","NA"
"-123.18","49.19","VANCOUVER INTL A","1108395","2018-08-06 12:00","2018","08","06","12:00","23.0","","15.9","","64","","","","22","","17","","48.3","","101.91","","28","","","","NA"
"-123.18","49.19","VANCOUVER INTL A","1108395","2018-08-06 13:00","2018","08","06","13:00","24.5","","15.8","","58","","","","24","","12","","48.3","","101.87","","29","","","","Clear"
"-123.18","49.19","VANCOUVER INTL A","1108395","2018-08-06 14:00","2018","08","06","14:00","24.1","","16.7","","63","","","","23","","13","","48.3","","101.83","","29","","","","NA"
"-123.18","49.19","VANCOUVER INTL A","1108395","2018-08-06 15:00","2018","08","06","15:00","23.9","","16.8","","64","","","","22","","13","","48.3","","101.77","","29","","","","NA"
"-123.18","49.19","VANCOUVER INTL A","1108395","2018-08-06 16:00","2018","08","06","16:00","23.9","","16.9","","65","","","","22","","15","","48.3","","101.75","","29","","","","Clear"
"-123.18","49.19","VANCOUVER INTL A","1108395","2018-08-06 17:00","2018","08","06","17:00","25.8","","14.0","","48","","","","22","","10","","48.3","","101.71","","29","","","","NA"
"-123.18","49.19","VANCOUVER INTL A","1108395","2018-08-06 18:00","2018","08","06","18:00","24.5","","16.1","","59","","","","24","","9","","48.3","","101.66","","29","","","","NA"
"-123.18","49.19","VANCOUVER INTL A","1108395","2018-08-06 19:00","2018","08","06","19:00","23.0","","16.1","","65","","","","23","","5","","48.3","","101.64","","28","","","","Mainly Clear"
"-123.18","49.19","VANCOUVER INTL A","1108395","2018-08-06 20:00","2018","08","06","20:00","23.1","","14.6","","58","","","","36","","5","","48.3","","101.64","","27","","","","NA"
"-123.18","49.19","VANCOUVER INTL A","1108395","2018-08-06 21:00","2018","08","06","21:00","21.6","","15.4","","67","","","","11","","8","","48.3","","101.66","","26","","","","NA"
"-123.18","49.19","VANCOUVER INTL A","1108395","2018-08-06 22:00","2018","08","06","22:00","19.6","","15.1","","75","","","","10","","10","","32.2","","101.66","","","","","","Mainly Clear"
"-123.18","49.19","VANCOUVER INTL A","1108395","2018-08-06 23:00","2018","08","06","23:00","18.9","","14.5","","75","","","","9","","9","","32.2","","101.65","","","","","","NA"
"-123.18","49.19","VANCOUVER INTL A","1108395","2018-08-07 00:00","2018","08","07","00:00","18.6","","15.3","","81","","","","13","","11","","32.2","","101.68","","","","","","NA"
"-123.18","49.19","VANCOUVER INTL A","1108395","2018-08-07 01:00","2018","08","07","01:00","17.9","","14.6","","81","","","","14","","6","","32.2","","101.70","","","","","","Mainly Clear"
"-123.18","49.19","VANCOUVER INTL A","1108395","2018-08-07 02:00","2018","08","07","02:00","17.1","","14.6","","85","","","","","","0","","32.2","","101.71","","","","","","NA"
"-123.18","49.19","VANCOUVER INTL A","1108395","2018-08-07 03:00","2018","08","07","03:00","16.6","","14.2","","86","","","","13","","4","","32.2","","101.72","","","","","","NA"
"-123.18","49.19","VANCOUVER INTL A","1108395","2018-08-07 04:00","2018","08","07","04:00","16.2","","13.9","","86","","","","13","","7","","48.3","","101.70","","","","","","Clear"
"-123.18","49.19","VANCOUVER INTL A","1108395","2018-08-07 05:00","2018","08","07","05:00","15.5","","12.9","","84","","","","11","","4","","48.3","","101.74","","","","","","NA"
"-123.18","49.19","VANCOUVER INTL A","1108395","2018-08-07 06:00","2018","08","07","06:00","17.7","","15.0","","84","","","","13","","10","","48.3","","101.77","","","","","","NA"
"-123.18","49.19","VANCOUVER INTL A","1108395","2018-08-07 07:00","2018","08","07","07:00","18.9","","14.5","","75","","","","15","","11","","48.3","","101.80","","","","","","Clear"
"-123.18","49.19","VANCOUVER INTL A","1108395","2018-08-07 08:00","2018","08","07","08:00","20.5","","14.1","","66","","","","12","","10","","48.3","","101.80","","","","","","NA"
"-123.18","49.19","VANCOUVER INTL A","1108395","2018-08-07 09:00","2018","08","07","09:00","22.4","","13.3","","56","","","","18","","9","","48.3","","101.76","","25","","","","NA"
"-123.18","49.19","VANCOUVER INTL A","1108395","2018-08-07 10:00","2018","08","07","10:00","22.7","","16.0","","65","","","","22","","14","","48.3","","101.71","","27","","","","Clear"
"-123.18","49.19","VANCOUVER INTL A","1108395","2018-08-07 11:00","2018","08","07","11:00","23.7","","16.2","","62","","","","23","","17","","48.3","","101.67","","28","","","","NA"
"-123.18","49.19","VANCOUVER INTL A","1108395","2018-08-07 12:00","2018","08","07","12:00","23.2","","16.0","","63","","","","23","","12","","48.3","","101.61","","28","","","","NA"
"-123.18","49.19","VANCOUVER INTL A","1108395","2018-08-07 13:00","2018","08","07","13:00","23.0","","15.6","","63","","","","23","","12","","48.3","","101.56","","27","","","","Clear"
"-123.18","49.19","VANCOUVER INTL A","1108395","2018-08-07 14:00","2018","08","07","14:00","24.6","","16.0","","59","","","","24","","12","","48.3","","101.50","","29","","","","NA"
"-123.18","49.19","VANCOUVER INTL A","1108395","2018-08-07 15:00","2018","08","07","15:00","25.3","","16.2","","56","","","","27","","10","","48.3","","101.40","","30","","","","NA"
"-123.18","49.19","VANCOUVER INTL A","1108395","2018-08-07 16:00","2018","08","07","16:00","24.8","","15.5","","56","","","","25","","10","","48.3","","101.32","","29","","","","Clear"
"-123.18","49.19","VANCOUVER INTL A","1108395","2018-08-07 17:00","2018","08","07","17:00","24.4","","16.1","","59","","","","24","","12","","48.3","","101.27","","29","","","","NA"
"-123.18","49.19","VANCOUVER INTL A","1108395","2018-08-07 18:00","2018","08","07","18:00","24.7","","16.3","","59","","","","29","","7","","48.3","","101.19","","30","","","","NA"
"-123.18","49.19","VANCOUVER INTL A","1108395","2018-08-07 19:00","2018","08","07","19:00","22.8","","17.7","","73","","","","27","","9","","48.3","","101.16","","29","","","","Mainly Clear"
"-123.18","49.19","VANCOUVER INTL A","1108395","2018-08-07 20:00","2018","08","07","20:00","22.1","","18.4","","80","","","","27","","8","","48.3","","101.16","","28","","","","NA"
"-123.18","49.19","VANCOUVER INTL A","1108395","2018-08-07 21:00","2018","08","07","21:00","21.4","","18.9","","85","","","","21","","5","","32.2","","101.19","","28","","","","NA"
"-123.18","49.19","VANCOUVER INTL A","1108395","2018-08-07 22:00","2018","08","07","22:00","21.3","","17.3","","78","","","","16","","8","","32.2","","101.19","","27","","","","Clear"
"-123.18","49.19","VANCOUVER INTL A","1108395","2018-08-07 23:00","2018","08","07","23:00","20.0","","16.3","","79","","","","10","","5","","32.2","","101.19","","25","","","","NA"
"-123.18","49.19","VANCOUVER INTL A","1108395","2018-08-08 00:00","2018","08","08","00:00","19.4","","16.0","","81","","","","8","","7","","32.2","","101.18","","","","","","NA"
"-123.18","49.19","VANCOUVER INTL A","1108395","2018-08-08 01:00","2018","08","08","01:00","19.6","","16.2","","80","","","","11","","7","","32.2","","101.19","","","","","","Clear"
"-123.18","49.19","VANCOUVER INTL A","1108395","2018-08-08 02:00","2018","08","08","02:00","18.1","","15.1","","82","","","","10","","7","","32.2","","101.22","","","","","","NA"
"-123.18","49.19","VANCOUVER INTL A","1108395","2018-08-08 03:00","2018","08","08","03:00","18.7","","14.4","","76","","","","6","","9","","32.2","","101.21","","","","","","NA"
"-123.18","49.19","VANCOUVER INTL A","1108395","2018-08-08 04:00","2018","08","08","04:00","17.7","","14.6","","82","","","","16","","5","","48.3","","101.19","","","","","","Clear"
"-123.18","49.19","VANCOUVER INTL A","1108395","2018-08-08 05:00","2018","08","08","05:00","16.9","","14.5","","86","","","","19","","5","","48.3","","101.23","","","","","","NA"
"-123.18","49.19","VANCOUVER INTL A","1108395","2018-08-08 06:00","2018","08","08","06:00","18.9","","15.3","","79","","","","2","","3","","48.3","","101.26","","","","","","NA"
"-123.18","49.19","VANCOUVER INTL A","1108395","2018-08-08 07:00","2018","08","08","07:00","22.0","","15.8","","67","","","","15","","8","","48.3","","101.29","","26","","","","Mostly Cloudy"
"-123.18","49.19","VANCOUVER INTL A","1108395","2018-08-08 08:00","2018","08","08","08:00","23.4","","16.9","","67","","","","32","","4","","48.3","","101.31","","29","","","","NA"
"-123.18","49.19","VANCOUVER INTL A","1108395","2018-08-08 09:00","2018","08","08","09:00","25.0","","16.9","","60","","","","21","","9","","48.3","","101.29","","30","","","","NA"
"-123.18","49.19","VANCOUVER INTL A","1108395","2018-08-08 10:00","2018","08","08","10:00","25.9","","18.6","","63","","","","25","","14","","48.3","","101.27","","32","","","","Clear"
"-123.18","49.19","VANCOUVER INTL A","1108395","2018-08-08 11:00","2018","08","08","11:00","25.9","","18.9","","65","","","","28","","18","","48.3","","101.28","","33","","","","NA"
"-123.18","49.19","VANCOUVER INTL A","1108395","2018-08-08 12:00","2018","08","08","12:00","26.1","","17.2","","58","","","","28","","12","","48.3","","101.24","","32","","","","NA"
"-123.18","49.19","VANCOUVER INTL A","1108395","2018-08-08 13:00","2018","08","08","13:00","26.5","","15.0","","49","","","","25","","14","","48.3","","101.23","","30","","","","Clear"
"-123.18","49.19","VANCOUVER INTL A","1108395","2018-08-08 14:00","2018","08","08","14:00","28.5","","15.9","","46","","","","29","","12","","48.3","","101.18","","33","","","","NA"
"-123.18","49.19","VANCOUVER INTL A","1108395","2018-08-08 15:00","2018","08","08","15:00","27.9","","16.4","","49","","","","30","","9","","48.3","","101.11","","33","","","","NA"
"-123.18","49.19","VANCOUVER INTL A","1108395","2018-08-08 16:00","2018","08","08","16:00","27.9","","17.2","","52","","","","28","","10","","48.3","","101.06","","33","","","","Mainly Clear"
"-123.18","49.19","VANCOUVER INTL A","1108395","2018-08-08 17:00","2018","08","08","17:00","26.4","","16.4","","54","","","","28","","13","","48.3","","101.02","","31","","","","NA"
"-123.18","49.19","VANCOUVER INTL A","1108395","2018-08-08 18:00","2018","08","08","18:00","25.5","","17.2","","60","","","","30","","11","","48.3","","100.98","","31","","","","NA"
"-123.18","49.19","VANCOUVER INTL A","1108395","2018-08-08 19:00","2018","08","08","19:00","23.9","","19.1","","74","","","","30","","5","","48.3","","100.98","","31","","","","Clear"
"-123.18","49.19","VANCOUVER INTL A","1108395","2018-08-08 20:00","2018","08","08","20:00","22.2","","19.2","","83","","","","21","","8","","48.3","","101.00","","29","","","","NA"
"-123.18","49.19","VANCOUVER INTL A","1108395","2018-08-08 21:00","2018","08","08","21:00","22.0","","18.4","","80","","","","19","","10","","32.2","","101.06","","28","","","","NA"
"-123.18","49.19","VANCOUVER INTL A","1108395","2018-08-08 22:00","2018","08","08","22:00","22.0","","17.3","","74","","","","10","","8","","32.2","","101.11","","27","","","","Clear"
"-123.18","49.19","VANCOUVER INTL A","1108395","2018-08-08 23:00","2018","08","08","23:00","20.9","","18.1","","84","","","","9","","18","","32.2","","101.16","","27","","","","NA"
"-123.18","49.19","VANCOUVER INTL A","1108395","2018-08-09 00:00","2018","08","09","00:00","20.6","","15.8","","74","","","","9","","11","","32.2","","101.19","","25","","","","NA"
"-123.18","49.19","VANCOUVER INTL A","1108395","2018-08-09 01:00","2018","08","09","01:00","19.0","","15.7","","81","","","","10","","12","","32.2","","101.22","","","","","","Clear"
"-123.18","49.19","VANCOUVER INTL A","1108395","2018-08-09 02:00","2018","08","09","02:00","19.2","","16.3","","83","","","","10","","8","","32.2","","101.26","","","","","","NA"
"-123.18","49.19","VANCOUVER INTL A","1108395","2018-08-09 03:00","2018","08","09","03:00","18.4","","16.0","","85","","","","10","","9","","32.2","","101.29","","","","","","NA"
"-123.18","49.19","VANCOUVER INTL A","1108395","2018-08-09 04:00","2018","08","09","04:00","17.6","","14.7","","83","","","","8","","9","","48.3","","101.32","","","","","","Mainly Clear"
"-123.18","49.19","VANCOUVER INTL A","1108395","2018-08-09 05:00","2018","08","09","05:00","16.8","","14.7","","87","","","","10","","10","","48.3","","101.39","","","","","","NA"
"-123.18","49.19","VANCOUVER INTL A","1108395","2018-08-09 06:00","2018","08","09","06:00","17.9","","14.6","","81","","","","10","","17","","48.3","","101.43","","","","","","NA"
"-123.18","49.19","VANCOUVER INTL A","1108395","2018-08-09 07:00","2018","08","09","07:00","20.2","","14.2","","68","","","","11","","17","","48.3","","101.48","","","","","","Clear"
"-123.18","49.19","VANCOUVER INTL A","1108395","2018-08-09 08:00","2018","08","09","08:00","22.5","","13.3","","55","","","","10","","18","","48.3","","101.52","","25","","","","NA"
"-123.18","49.19","VANCOUVER INTL A","1108395","2018-08-09 09:00","2018","08","09","09:00","25.0","","13.7","","49","","","","11","","17","","48.3","","101.51","","28","","","","NA"
"-123.18","49.19","VANCOUVER INTL A","1108395","2018-08-09 10:00","2018","08","09","10:00","26.9","","13.6","","43","","","","12","","17","","48.3","","101.51","","30","","","","Mainly Clear"
"-123.18","49.19","VANCOUVER INTL A","1108395","2018-08-09 11:00","2018","08","09","11:00","27.6","","13.7","","42","","","","15","","13","","48.3","","101.51","","31","","","","NA"
"-123.18","49.19","VANCOUVER INTL A","1108395","2018-08-09 12:00","2018","08","09","12:00","27.9","","17.1","","51","","","","20","","17","","48.3","","101.47","","33","","","","NA"
"-123.18","49.19","VANCOUVER INTL A","1108395","2018-08-09 13:00","2018","08","09","13:00","26.9","","17.5","","56","","","","22","","17","","48.3","","101.45","","33","","","","Mainly Clear"
"-123.18","49.19","VANCOUVER INTL A","1108395","2018-08-09 14:00","2018","08","09","14:00","26.4","","17.4","","57","","","","22","","17","","48.3","","101.41","","32","","","","NA"
"-123.18","49.19","VANCOUVER INTL A","1108395","2018-08-09 15:00","2018","08","09","15:00","26.3","","14.8","","48","","","","25","","9","","48.3","","101.38","","30","","","","NA"
"-123.18","49.19","VANCOUVER INTL A","1108395","2018-08-09 16:00","2018","08","09","16:00","27.1","","15.9","","50","","","","24","","8","","48.3","","101.30","","32","","","","Clear"
"-123.18","49.19","VANCOUVER INTL A","1108395","2018-08-09 17:00","2018","08","09","17:00","27.4","","13.7","","42","","","","24","","9","","48.3","","101.25","","31","","","","NA"
"-123.18","49.19","VANCOUVER INTL A","1108395","2018-08-09 18:00","2018","08","09","18:00","27.0","","13.7","","43","","","","23","","4","","48.3","","101.18","","30","","","","NA"
"-123.18","49.19","VANCOUVER INTL A","1108395","2018-08-09 19:00","2018","08","09","19:00","25.0","","14.4","","51","","","","","","0","","32.2","","101.17","","29","","","","Clear"
"-123.18","49.19","VANCOUVER INTL A","1108395","2018-08-09 20:00","2018","08","09","20:00","24.2","","14.4","","54","","","","1","","7","","32.2","","101.18","","28","","","","NA"
"-123.18","49.19","VANCOUVER INTL A","1108395","2018-08-09 21:00","2018","08","09","21:00","24.1","","13.5","","51","","","","2","","9","","32.2","","101.16","","27","","","","NA"
"-123.18","49.19","VANCOUVER INTL A","1108395","2018-08-09 22:00","2018","08","09","22:00","21.6","","15.9","","70","","","","14","","9","","32.2","","101.17","","26","","","","Clear"
"-123.18","49.19","VANCOUVER INTL A","1108395","2018-08-09 23:00","2018","08","09","23:00","20.9","","14.5","","67","","","","","","0","","32.2","","101.18","","25","","","","NA"
"-123.18","49.19","VANCOUVER INTL A","1108395","2018-08-10 00:00","2018","08","10","00:00","18.2","","16.1","","87","","","","27","","3","","32.2","","101.17","","","","","","NA"
"-123.18","49.19","VANCOUVER INTL A","1108395","2018-08-10 01:00","2018","08","10","01:00","18.1","","15.8","","86","","","","","","0","","32.2","","101.17","","","","","","Clear"
"-123.18","49.19","VANCOUVER INTL A","1108395","2018-08-10 02:00","2018","08","10","02:00","17.1","","14.5","","85","","","","35","","5","","32.2","","101.19","","","","","","NA"
"-123.18","49.19","VANCOUVER INTL A","1108395","2018-08-10 03:00","2018","08","10","03:00","18.1","","15.2","","82","","","","22","","3","","32.2","","101.16","","","","","","NA"
"-123.18","49.19","VANCOUVER INTL A","1108395","2018-08-10 04:00","2018","08","10","04:00","18.5","","17.5","","94","","","","21","","5","","32.2","","101.17","","","","","","Clear"
"-123.18","49.19","VANCOUVER INTL A","1108395","2018-08-10 05:00","2018","08","10","05:00","17.6","","16.4","","93","","","","14","","4","","32.2","","101.17","","","","","","NA"
"-123.18","49.19","VANCOUVER INTL A","1108395","2018-08-10 06:00","2018","08","10","06:00","18.4","","15.9","","85","","","","9","","8","","48.3","","101.21","","","","","","NA"
"-123.18","49.19","VANCOUVER INTL A","1108395","2018-08-10 07:00","2018","08","10","07:00","21.0","","17.1","","78","","","","4","","4","","48.3","","101.17","","26","","","","Clear"
"-123.18","49.19","VANCOUVER INTL A","1108395","2018-08-10 08:00","2018","08","10","08:00","22.5","","19.2","","82","","","","27","","14","","48.3","","101.16","","29","","","","NA"
"-123.18","49.19","VANCOUVER INTL A","1108395","2018-08-10 09:00","2018","08","10","09:00","23.2","","19.1","","77","","","","29","","18","","48.3","","101.19","","30","","","","NA"
"-123.18","49.19","VANCOUVER INTL A","1108395","2018-08-10 10:00","2018","08","10","10:00","24.6","","19.1","","71","","","","29","","13","","32.2","","101.18","","31","","","","Mainly Clear"
"-123.18","49.19","VANCOUVER INTL A","1108395","2018-08-10 11:00","2018","08","10","11:00","24.6","","18.6","","69","","","","25","","8","","32.2","","101.19","","31","","","","NA"
"-123.18","49.19","VANCOUVER INTL A","1108395","2018-08-10 12:00","2018","08","10","12:00","26.0","","18.5","","63","","","","21","","17","","32.2","","101.20","","32","","","","NA"
"-123.18","49.19","VANCOUVER INTL A","1108395","2018-08-10 13:00","2018","08","10","13:00","28.3","","18.4","","54","","","","11","","14","","32.2","","101.19","","35","","","","Mainly Clear"
"-123.18","49.19","VANCOUVER INTL A","1108395","2018-08-10 14:00","2018","08","10","14:00","28.2","","16.0","","47","","","","15","","12","","48.3","","101.18","","33","","","","NA"
"-123.18","49.19","VANCOUVER INTL A","1108395","2018-08-10 15:00","2018","08","10","15:00","28.1","","15.2","","45","","","","13","","17","","48.3","","101.16","","32","","","","NA"
"-123.18","49.19","VANCOUVER INTL A","1108395","2018-08-10 16:00","2018","08","10","16:00","28.8","","13.8","","39","","","","12","","20","","48.3","","101.11","","32","","","","Mostly Cloudy"
"-123.18","49.19","VANCOUVER INTL A","1108395","2018-08-10 17:00","2018","08","10","17:00","28.0","","14.0","","42","","","","11","","20","","48.3","","101.08","","31","","","","NA"
"-123.18","49.19","VANCOUVER INTL A","1108395","2018-08-10 18:00","2018","08","10","18:00","25.8","","14.7","","50","","","","12","","24","","32.2","","101.07","","30","","","","NA"
"-123.18","49.19","VANCOUVER INTL A","1108395","2018-08-10 19:00","2018","08","10","19:00","23.6","","12.1","","48","","","","12","","22","","32.2","","101.07","","26","","","","Mainly Clear"
"-123.18","49.19","VANCOUVER INTL A","1108395","2018-08-10 20:00","2018","08","10","20:00","20.9","","12.8","","59","","","","10","","27","","32.2","","101.13","","","","","","NA"
"-123.18","49.19","VANCOUVER INTL A","1108395","2018-08-10 21:00","2018","08","10","21:00","21.4","","12.6","","57","","","","11","","31","","32.2","","101.19","","","","","","NA"
"-123.18","49.19","VANCOUVER INTL A","1108395","2018-08-10 22:00","2018","08","10","22:00","20.6","","13.7","","64","","","","11","","25","","32.2","","101.22","","","","","","Mainly Clear"
"-123.18","49.19","VANCOUVER INTL A","1108395","2018-08-10 23:00","2018","08","10","23:00","19.4","","14.0","","70","","","","12","","20","","32.2","","101.25","","","","","","NA"
"-123.18","49.19","VANCOUVER INTL A","1108395","2018-08-11 00:00","2018","08","11","00:00","18.3","","14.0","","76","","","","13","","23","","32.2","","101.26","","","","","","NA"
"-123.18","49.19","VANCOUVER INTL A","1108395","2018-08-11 01:00","2018","08","11","01:00","17.6","","13.5","","76","","","","12","","24","","32.2","","101.31","","","","","","Mainly Clear"
"-123.18","49.19","VANCOUVER INTL A","1108395","2018-08-11 02:00","2018","08","11","02:00","17.1","","13.6","","80","","","","9","","27","","32.2","","101.32","","","","","","NA"
"-123.18","49.19","VANCOUVER INTL A","1108395","2018-08-11 03:00","2018","08","11","03:00","16.8","","13.6","","82","","","","10","","26","","32.2","","101.38","","","","","","NA"
"-123.18","49.19","VANCOUVER INTL A","1108395","2018-08-11 04:00","2018","08","11","04:00","16.2","","13.8","","86","","","","10","","26","","32.2","","101.41","","","","","","Mainly Clear"
"-123.18","49.19","VANCOUVER INTL A","1108395","2018-08-11 05:00","2018","08","11","05:00","16.4","","13.9","","85","","","","11","","22","","32.2","","101.49","","","","","","NA"
"-123.18","49.19","VANCOUVER INTL A","1108395","2018-08-11 06:00","2018","08","11","06:00","16.5","","14.3","","87","","","","10","","23","","32.2","","101.53","","","","","","NA"
"-123.18","49.19","VANCOUVER INTL A","1108395","2018-08-11 07:00","2018","08","11","07:00","17.5","","14.5","","82","","","","10","","22","","32.2","","101.56","","","","","","Mostly Cloudy"
"-123.18","49.19","VANCOUVER INTL A","1108395","2018-08-11 08:00","2018","08","11","08:00","18.6","","13.8","","73","","","","11","","27","","32.2","","101.56","","","","","","NA"
"-123.18","49.19","VANCOUVER INTL A","1108395","2018-08-11 09:00","2018","08","11","09:00","19.3","","14.4","","73","","","","14","","23","","32.2","","101.59","","","","","","NA"
"-123.18","49.19","VANCOUVER INTL A","1108395","2018-08-11 10:00","2018","08","11","10:00","19.6","","14.3","","72","","","","12","","25","","40.2","","101.61","","","","","","Cloudy"
"-123.18","49.19","VANCOUVER INTL A","1108395","2018-08-11 11:00","2018","08","11","11:00","20.2","","13.9","","67","","","","11","","21","","40.2","","101.59","","","","","","NA"
"-123.18","49.19","VANCOUVER INTL A","1108395","2018-08-11 12:00","2018","08","11","12:00","22.0","","13.9","","60","","","","13","","19","","40.2","","101.58","","25","","","","NA"
"-123.18","49.19","VANCOUVER INTL A","1108395","2018-08-11 13:00","2018","08","11","13:00","20.0","","13.8","","67","","","","16","","28","","40.2","","101.62","","","","","","Cloudy"
"-123.18","49.19","VANCOUVER INTL A","1108395","2018-08-11 14:00","2018","08","11","14:00","20.4","","14.0","","66","","","","17","","21","","40.2","","101.61","","","","","","NA"
"-123.18","49.19","VANCOUVER INTL A","1108395","2018-08-11 15:00","2018","08","11","15:00","20.6","","14.2","","66","","","","18","","23","","40.2","","101.56","","","","","","NA"
"-123.18","49.19","VANCOUVER INTL A","1108395","2018-08-11 16:00","2018","08","11","16:00","21.3","","14.4","","64","","","","19","","21","","40.2","","101.52","","25","","","","Mostly Cloudy"
"-123.18","49.19","VANCOUVER INTL A","1108395","2018-08-11 17:00","2018","08","11","17:00","19.6","","14.9","","74","","","","23","","14","","48.3","","101.57","","","","","","NA"
"-123.18","49.19","VANCOUVER INTL A","1108395","2018-08-11 18:00","2018","08","11","18:00","19.6","","14.9","","74","","","","19","","13","","32.2","","101.59","","","","","","NA"
"-123.18","49.19","VANCOUVER INTL A","1108395","2018-08-11 19:00","2018","08","11","19:00","18.1","","15.1","","83","","","","17","","16","","24.1","","101.65","","","","","","Rain Showers"
"-123.18","49.19","VANCOUVER INTL A","1108395","2018-08-11 20:00","2018","08","11","20:00","16.9","","15.6","","92","","","","13","","17","","32.2","","101.67","","","","","","Rain Showers"
"-123.18","49.19","VANCOUVER INTL A","1108395","2018-08-11 21:00","2018","08","11","21:00","16.9","","15.5","","92","","","","7","","14","","32.2","","101.72","","","","","","NA"
"-123.18","49.19","VANCOUVER INTL A","1108395","2018-08-11 22:00","2018","08","11","22:00","16.6","","15.1","","91","","","","10","","20","","32.2","","101.73","","","","","","Cloudy"
"-123.18","49.19","VANCOUVER INTL A","1108395","2018-08-11 23:00","2018","08","11","23:00","16.1","","14.8","","92","","","","10","","16","","32.2","","101.75","","","","","","NA"
"-123.18","49.19","VANCOUVER INTL A","1108395","2018-08-12 00:00","2018","08","12","00:00","16.1","","14.8","","92","","","","10","","16","","32.2","","101.76","","","","","","NA"
"-123.18","49.19","VANCOUVER INTL A","1108395","2018-08-12 01:00","2018","08","12","01:00","16.4","","15.0","","92","","","","8","","8","","32.2","","101.78","","","","","","Mostly Cloudy"
"-123.18","49.19","VANCOUVER INTL A","1108395","2018-08-12 02:00","2018","08","12","02:00","16.1","","14.7","","91","","","","9","","11","","32.2","","101.80","","","","","","NA"
"-123.18","49.19","VANCOUVER INTL A","1108395","2018-08-12 03:00","2018","08","12","03:00","15.8","","14.5","","92","","","","10","","14","","32.2","","101.82","","","","","","NA"
"-123.18","49.19","VANCOUVER INTL A","1108395","2018-08-12 04:00","2018","08","12","04:00","15.8","","14.3","","90","","","","9","","11","","32.2","","101.88","","","","","","Cloudy"
"-123.18","49.19","VANCOUVER INTL A","1108395","2018-08-12 05:00","2018","08","12","05:00","15.8","","14.1","","89","","","","9","","13","","32.2","","101.94","","","","","","NA"
"-123.18","49.19","VANCOUVER INTL A","1108395","2018-08-12 06:00","2018","08","12","06:00","15.8","","14.2","","90","","","","8","","12","","24.1","","101.97","","","","","","NA"
"-123.18","49.19","VANCOUVER INTL A","1108395","2018-08-12 07:00","2018","08","12","07:00","15.9","","14.1","","89","","","","9","","14","","24.1","","102.03","","","","","","Cloudy"
"-123.18","49.19","VANCOUVER INTL A","1108395","2018-08-12 08:00","2018","08","12","08:00","16.1","","14.2","","88","","","","10","","16","","24.1","","102.07","","","","","","NA"
"-123.18","49.19","VANCOUVER INTL A","1108395","2018-08-12 09:00","2018","08","12","09:00","15.9","","13.9","","88","","","","10","","19","","24.1","","102.12","","","","","","NA"
"-123.18","49.19","VANCOUVER INTL A","1108395","2018-08-12 10:00","2018","08","12","10:00","16.4","","13.6","","83","","","","12","","16","","24.1","","102.16","","","","","","Cloudy"
"-123.18","49.19","VANCOUVER INTL A","1108395","2018-08-12 11:00","2018","08","12","11:00","17.1","","14.2","","83","","","","11","","14","","24.1","","102.19","","","","","","Rain"
"-123.18","49.19","VANCOUVER INTL A","1108395","2018-08-12 12:00","2018","08","12","12:00","18.6","","14.5","","76","","","","10","","13","","24.1","","102.19","","","","","","NA"
"-123.18","49.19","VANCOUVER INTL A","1108395","2018-08-12 13:00","2018","08","12","13:00","20.0","","14.8","","72","","","","7","","9","","32.2","","102.17","","","","","","Cloudy"
"-123.18","49.19","VANCOUVER INTL A","1108395","2018-08-12 14:00","2018","08","12","14:00","20.9","","14.9","","68","","","","14","","6","","32.2","","102.13","","25","","","","NA"
"-123.18","49.19","VANCOUVER INTL A","1108395","2018-08-12 15:00","2018","08","12","15:00","20.0","","16.2","","79","","","","25","","15","","40.2","","102.08","","25","","","","NA"
"-123.18","49.19","VANCOUVER INTL A","1108395","2018-08-12 16:00","2018","08","12","16:00","20.0","","15.3","","74","","","","23","","14","","32.2","","102.06","","","","","","Mainly Clear"
"-123.18","49.19","VANCOUVER INTL A","1108395","2018-08-12 17:00","2018","08","12","17:00","19.7","","15.1","","75","","","","27","","10","","32.2","","102.00","","","","","","NA"
"-123.18","49.19","VANCOUVER INTL A","1108395","2018-08-12 18:00","2018","08","12","18:00","19.1","","15.5","","80","","","","27","","9","","24.1","","101.98","","","","","","NA"
"-123.18","49.19","VANCOUVER INTL A","1108395","2018-08-12 19:00","2018","08","12","19:00","17.4","","14.6","","83","","","","27","","7","","24.1","","101.95","","","","","","Mostly Cloudy"
"-123.18","49.19","VANCOUVER INTL A","1108395","2018-08-12 20:00","2018","08","12","20:00","16.1","","15.1","","93","","","","31","","8","","24.1","","101.98","","","","","","NA"
"-123.18","49.19","VANCOUVER INTL A","1108395","2018-08-12 21:00","2018","08","12","21:00","15.9","","15.0","","94","","","","32","","6","","24.1","","101.97","","","","","","NA"
"-123.18","49.19","VANCOUVER INTL A","1108395","2018-08-12 22:00","2018","08","12","22:00","15.8","","14.3","","91","","","","34","","5","","24.1","","101.97","","","","","","Mostly Cloudy"
"-123.18","49.19","VANCOUVER INTL A","1108395","2018-08-12 23:00","2018","08","12","23:00","15.3","","13.8","","91","","","","35","","5","","24.1","","101.97","","","","","","NA"
"-123.18","49.19","VANCOUVER INTL A","1108395","2018-08-13 00:00","2018","08","13","00:00","15.5","","14.5","","94","","","","29","","4","","24.1","","101.99","","","","","","NA"
"-123.18","49.19","VANCOUVER INTL A","1108395","2018-08-13 01:00","2018","08","13","01:00","16.3","","15.1","","93","","","","5","","3","","24.1","","101.99","","","","","","Mostly Cloudy"
"-123.18","49.19","VANCOUVER INTL A","1108395","2018-08-13 02:00","2018","08","13","02:00","14.1","","13.6","","97","","","","","","0","","24.1","","101.99","","","","","","NA"
"-123.18","49.19","VANCOUVER INTL A","1108395","2018-08-13 03:00","2018","08","13","03:00","15.8","","15.2","","96","","","","","","0","","24.1","","101.99","","","","","","NA"
"-123.18","49.19","VANCOUVER INTL A","1108395","2018-08-13 04:00","2018","08","13","04:00","13.5","","12.8","","96","","","","","","0","","24.1","","101.98","","","","","","Mostly Cloudy"
"-123.18","49.19","VANCOUVER INTL A","1108395","2018-08-13 05:00","2018","08","13","05:00","14.1","","13.5","","96","","","","","","0","","19.3","","101.98","","","","","","NA"
"-123.18","49.19","VANCOUVER INTL A","1108395","2018-08-13 06:00","2018","08","13","06:00","13.9","","13.2","","96","","","","","","0","","16.1","","101.99","","","","","","NA"
"-123.18","49.19","VANCOUVER INTL A","1108395","2018-08-13 07:00","2018","08","13","07:00","16.9","","15.1","","89","","","","10","","3","","12.9","","101.99","","","","","","Mostly Cloudy"
"-123.18","49.19","VANCOUVER INTL A","1108395","2018-08-13 08:00","2018","08","13","08:00","18.2","","16.2","","88","","","","29","","12","","16.1","","101.98","","","","","","NA"
"-123.18","49.19","VANCOUVER INTL A","1108395","2018-08-13 09:00","2018","08","13","09:00","19.3","","16.1","","81","","","","30","","19","","19.3","","101.94","","","","","","NA"
"-123.18","49.19","VANCOUVER INTL A","1108395","2018-08-13 10:00","2018","08","13","10:00","20.0","","16.4","","80","","","","30","","24","","19.3","","101.92","","25","","","","Mostly Cloudy"
"-123.18","49.19","VANCOUVER INTL A","1108395","2018-08-13 11:00","2018","08","13","11:00","20.4","","16.7","","79","","","","29","","24","","24.1","","101.89","","25","","","","NA"
"-123.18","49.19","VANCOUVER INTL A","1108395","2018-08-13 12:00","2018","08","13","12:00","20.9","","17.1","","78","","","","28","","26","","19.3","","101.85","","26","","","","NA"
"-123.18","49.19","VANCOUVER INTL A","1108395","2018-08-13 13:00","2018","08","13","13:00","21.5","","17.1","","76","","","","29","","23","","19.3","","101.81","","27","","","","Mainly Clear"
"-123.18","49.19","VANCOUVER INTL A","1108395","2018-08-13 14:00","2018","08","13","14:00","21.6","","17.1","","75","","","","30","","21","","24.1","","101.75","","27","","","","NA"
"-123.18","49.19","VANCOUVER INTL A","1108395","2018-08-13 15:00","2018","08","13","15:00","21.9","","17.1","","74","","","","30","","18","","24.1","","101.69","","27","","","","NA"
"-123.18","49.19","VANCOUVER INTL A","1108395","2018-08-13 16:00","2018","08","13","16:00","21.2","","17.2","","78","","","","30","","22","","24.1","","101.62","","27","","","","Mainly Clear"
"-123.18","49.19","VANCOUVER INTL A","1108395","2018-08-13 17:00","2018","08","13","17:00","20.9","","16.9","","78","","","","30","","18","","24.1","","101.58","","26","","","","NA"
"-123.18","49.19","VANCOUVER INTL A","1108395","2018-08-13 18:00","2018","08","13","18:00","20.1","","16.7","","81","","","","30","","19","","12.9","","101.52","","25","","","","NA"
"-123.18","49.19","VANCOUVER INTL A","1108395","2018-08-13 19:00","2018","08","13","19:00","19.0","","17.1","","88","","","","31","","14","","12.9","","101.48","","","","","","Mainly Clear"
"-123.18","49.19","VANCOUVER INTL A","1108395","2018-08-13 20:00","2018","08","13","20:00","18.7","","16.9","","89","","","","32","","14","","11.3","","101.48","","","","","","NA"
"-123.18","49.19","VANCOUVER INTL A","1108395","2018-08-13 21:00","2018","08","13","21:00","18.7","","17.3","","92","","","","31","","14","","11.3","","101.46","","","","","","NA"
"-123.18","49.19","VANCOUVER INTL A","1108395","2018-08-13 22:00","2018","08","13","22:00","18.8","","17.4","","91","","","","30","","16","","9.7","","101.46","","","","","","Haze"
"-123.18","49.19","VANCOUVER INTL A","1108395","2018-08-13 23:00","2018","08","13","23:00","17.8","","17.1","","96","","","","32","","4","","9.7","","101.45","","","","","","Haze"
"-123.18","49.19","VANCOUVER INTL A","1108395","2018-08-14 00:00","2018","08","14","00:00","17.2","","16.1","","93","","","","36","","8","","9.7","","101.43","","","","","","Haze"
"-123.18","49.19","VANCOUVER INTL A","1108395","2018-08-14 01:00","2018","08","14","01:00","16.9","","15.5","","91","","","","32","","9","","9.7","","101.46","","","","","","Haze"
"-123.18","49.19","VANCOUVER INTL A","1108395","2018-08-14 02:00","2018","08","14","02:00","16.0","","14.9","","93","","","","34","","4","","9.7","","101.45","","","","","","Haze"
"-123.18","49.19","VANCOUVER INTL A","1108395","2018-08-14 03:00","2018","08","14","03:00","17.2","","15.8","","92","","","","33","","6","","9.7","","101.43","","","","","","Haze"
"-123.18","49.19","VANCOUVER INTL A","1108395","2018-08-14 04:00","2018","08","14","04:00","16.4","","15.5","","94","","","","32","","4","","9.7","","101.42","","","","","","Haze"
"-123.18","49.19","VANCOUVER INTL A","1108395","2018-08-14 05:00","2018","08","14","05:00","16.0","","14.8","","93","","","","1","","4","","9.7","","101.40","","","","","","Smoke"
"-123.18","49.19","VANCOUVER INTL A","1108395","2018-08-14 06:00","2018","08","14","06:00","15.3","","14.9","","97","","","","32","","3","","9.7","","101.43","","","","","","Smoke"
"-123.18","49.19","VANCOUVER INTL A","1108395","2018-08-14 07:00","2018","08","14","07:00","18.5","","16.7","","89","","","","","","0","","9.7","","101.45","","","","","","Smoke"
"-123.18","49.19","VANCOUVER INTL A","1108395","2018-08-14 08:00","2018","08","14","08:00","19.4","","17.2","","87","","","","31","","8","","9.7","","101.44","","","","","","Smoke"
"-123.18","49.19","VANCOUVER INTL A","1108395","2018-08-14 09:00","2018","08","14","09:00","20.4","","17.3","","82","","","","31","","17","","9.7","","101.44","","26","","","","Smoke"
"-123.18","49.19","VANCOUVER INTL A","1108395","2018-08-14 10:00","2018","08","14","10:00","21.6","","17.7","","78","","","","29","","17","","9.7","","101.42","","27","","","","Smoke"
"-123.18","49.19","VANCOUVER INTL A","1108395","2018-08-14 11:00","2018","08","14","11:00","22.1","","17.1","","73","","","","29","","20","","12.9","","101.38","","27","","","","NA"
"-123.18","49.19","VANCOUVER INTL A","1108395","2018-08-14 12:00","2018","08","14","12:00","22.1","","17.7","","76","","","","28","","19","","16.1","","101.33","","28","","","","NA"
"-123.18","49.19","VANCOUVER INTL A","1108395","2018-08-14 13:00","2018","08","14","13:00","23.2","","18.0","","72","","","","29","","16","","16.1","","101.29","","29","","","","Clear"
"-123.18","49.19","VANCOUVER INTL A","1108395","2018-08-14 14:00","2018","08","14","14:00","23.4","","18.1","","71","","","","30","","14","","12.9","","101.21","","29","","","","NA"
"-123.18","49.19","VANCOUVER INTL A","1108395","2018-08-14 15:00","2018","08","14","15:00","23.4","","17.1","","68","","","","29","","21","","12.9","","101.16","","29","","","","NA"
"-123.18","49.19","VANCOUVER INTL A","1108395","2018-08-14 16:00","2018","08","14","16:00","22.9","","17.4","","71","","","","30","","18","","12.9","","101.09","","28","","","","Mainly Clear"
"-123.18","49.19","VANCOUVER INTL A","1108395","2018-08-14 17:00","2018","08","14","17:00","22.1","","17.9","","77","","","","29","","12","","12.9","","101.04","","28","","","","NA"
"-123.18","49.19","VANCOUVER INTL A","1108395","2018-08-14 18:00","2018","08","14","18:00","20.9","","17.5","","80","","","","28","","9","","12.9","","100.98","","27","","","","NA"
"-123.18","49.19","VANCOUVER INTL A","1108395","2018-08-14 19:00","2018","08","14","19:00","19.4","","17.1","","87","","","","29","","5","","11.3","","100.94","","","","","","Mainly Clear"
"-123.18","49.19","VANCOUVER INTL A","1108395","2018-08-14 20:00","2018","08","14","20:00","19.1","","17.7","","92","","","","21","","7","","9.7","","100.96","","","","","","Smoke"
"-123.18","49.19","VANCOUVER INTL A","1108395","2018-08-14 21:00","2018","08","14","21:00","19.0","","17.2","","89","","","","18","","8","","9.7","","100.99","","","","","","Smoke"
"-123.18","49.19","VANCOUVER INTL A","1108395","2018-08-14 22:00","2018","08","14","22:00","19.0","","17.6","","91","","","","22","","9","","9.7","","100.98","","","","","","Smoke"
"-123.18","49.19","VANCOUVER INTL A","1108395","2018-08-14 23:00","2018","08","14","23:00","18.5","","16.7","","89","","","","13","","4","","9.7","","100.99","","","","","","Smoke"
"-123.18","49.19","VANCOUVER INTL A","1108395","2018-08-15 00:00","2018","08","15","00:00","16.7","","14.8","","88","","","","7","","7","","9.7","","101.02","","","","","","Smoke"
"-123.18","49.19","VANCOUVER INTL A","1108395","2018-08-15 01:00","2018","08","15","01:00","16.5","","15.6","","94","","","","2","","7","","9.7","","101.04","","","","","","Smoke"
"-123.18","49.19","VANCOUVER INTL A","1108395","2018-08-15 02:00","2018","08","15","02:00","17.0","","16.5","","96","","","","4","","5","","9.7","","101.09","","","","","","Fog,Smoke"
"-123.18","49.19","VANCOUVER INTL A","1108395","2018-08-15 03:00","2018","08","15","03:00","16.1","","15.7","","98","","","","34","","6","","9.7","","101.11","","","","","","Smoke"
"-123.18","49.19","VANCOUVER INTL A","1108395","2018-08-15 04:00","2018","08","15","04:00","16.5","","15.3","","92","","","","34","","8","","9.7","","101.13","","","","","","Smoke"
"-123.18","49.19","VANCOUVER INTL A","1108395","2018-08-15 05:00","2018","08","15","05:00","16.2","","14.8","","91","","","","","","0","","12.9","","101.17","","","","","","NA"
"-123.18","49.19","VANCOUVER INTL A","1108395","2018-08-15 06:00","2018","08","15","06:00","16.3","","15.3","","94","","","","1","","6","","12.9","","101.21","","","","","","NA"
"-123.18","49.19","VANCOUVER INTL A","1108395","2018-08-15 07:00","2018","08","15","07:00","19.0","","16.9","","88","","","","33","","3","","12.9","","101.27","","","","","","Mainly Clear"
"-123.18","49.19","VANCOUVER INTL A","1108395","2018-08-15 08:00","2018","08","15","08:00","20.0","","17.0","","83","","","","27","","10","","12.9","","101.31","","25","","","","NA"
"-123.18","49.19","VANCOUVER INTL A","1108395","2018-08-15 09:00","2018","08","15","09:00","20.9","","17.1","","78","","","","29","","10","","12.9","","101.30","","26","","","","NA"
"-123.18","49.19","VANCOUVER INTL A","1108395","2018-08-15 10:00","2018","08","15","10:00","22.0","","17.2","","74","","","","29","","12","","12.9","","101.29","","27","","","","Mainly Clear"
"-123.18","49.19","VANCOUVER INTL A","1108395","2018-08-15 11:00","2018","08","15","11:00","21.6","","17.1","","75","","","","28","","14","","19.3","","101.30","","27","","","","NA"
"-123.18","49.19","VANCOUVER INTL A","1108395","2018-08-15 12:00","2018","08","15","12:00","22.3","","17.0","","72","","","","29","","13","","19.3","","101.28","","28","","","","NA"
"-123.18","49.19","VANCOUVER INTL A","1108395","2018-08-15 13:00","2018","08","15","13:00","22.8","","16.6","","68","","","","27","","7","","24.1","","101.26","","28","","","","Mainly Clear"
"-123.18","49.19","VANCOUVER INTL A","1108395","2018-08-15 14:00","2018","08","15","14:00","22.6","","16.4","","68","","","","25","","11","","24.1","","101.22","","27","","","","NA"
"-123.18","49.19","VANCOUVER INTL A","1108395","2018-08-15 15:00","2018","08","15","15:00","23.0","","16.8","","68","","","","23","","11","","24.1","","101.19","","28","","","","NA"
"-123.18","49.19","VANCOUVER INTL A","1108395","2018-08-15 16:00","2018","08","15","16:00","23.5","","16.2","","63","","","","24","","5","","24.1","","101.13","","28","","","","Mainly Clear"
"-123.18","49.19","VANCOUVER INTL A","1108395","2018-08-15 17:00","2018","08","15","17:00","23.2","","15.8","","63","","","","29","","9","","24.1","","101.12","","28","","","","NA"
"-123.18","49.19","VANCOUVER INTL A","1108395","2018-08-15 18:00","2018","08","15","18:00","21.8","","16.3","","71","","","","28","","4","","16.1","","101.09","","27","","","","NA"
"-123.18","49.19","VANCOUVER INTL A","1108395","2018-08-15 19:00","2018","08","15","19:00","19.6","","16.6","","82","","","","31","","4","","16.1","","101.07","","","","","","Mostly Cloudy"
"-123.18","49.19","VANCOUVER INTL A","1108395","2018-08-15 20:00","2018","08","15","20:00","18.1","","16.6","","91","","","","31","","4","","12.9","","101.11","","","","","","NA"
"-123.18","49.19","VANCOUVER INTL A","1108395","2018-08-15 21:00","2018","08","15","21:00","19.8","","17.4","","86","","","","15","","6","","12.9","","101.15","","","","","","NA"
"-123.18","49.19","VANCOUVER INTL A","1108395","2018-08-15 22:00","2018","08","15","22:00","17.4","","16.5","","94","","","","","","0","","12.9","","101.18","","","","","","Mainly Clear"
"-123.18","49.19","VANCOUVER INTL A","1108395","2018-08-15 23:00","2018","08","15","23:00","16.8","","15.7","","93","","","","33","","5","","12.9","","101.22","","","","","","NA"
"-123.18","49.19","VANCOUVER INTL A","1108395","2018-08-16 00:00","2018","08","16","00:00","16.8","","15.6","","93","","","","16","","10","","16.1","","101.27","","","","","","NA"
"-123.18","49.19","VANCOUVER INTL A","1108395","2018-08-16 01:00","2018","08","16","01:00","15.7","","14.3","","91","","","","14","","9","","16.1","","101.34","","","","","","Mostly Cloudy"
"-123.18","49.19","VANCOUVER INTL A","1108395","2018-08-16 02:00","2018","08","16","02:00","16.0","","13.2","","83","","","","13","","8","","12.9","","101.39","","","","","","NA"
"-123.18","49.19","VANCOUVER INTL A","1108395","2018-08-16 03:00","2018","08","16","03:00","14.2","","12.4","","88","","","","9","","9","","12.9","","101.44","","","","","","NA"
"-123.18","49.19","VANCOUVER INTL A","1108395","2018-08-16 04:00","2018","08","16","04:00","13.4","","11.7","","89","","","","10","","12","","12.9","","101.47","","","","","","Mostly Cloudy"
"-123.18","49.19","VANCOUVER INTL A","1108395","2018-08-16 05:00","2018","08","16","05:00","13.2","","11.6","","90","","","","10","","11","","12.9","","101.51","","","","","","NA"
"-123.18","49.19","VANCOUVER INTL A","1108395","2018-08-16 06:00","2018","08","16","06:00","14.3","","12.6","","89","","","","11","","18","","16.1","","101.59","","","","","","NA"
"-123.18","49.19","VANCOUVER INTL A","1108395","2018-08-16 07:00","2018","08","16","07:00","15.0","","12.8","","86","","","","13","","15","","19.3","","101.67","","","","","","Mainly Clear"
"-123.18","49.19","VANCOUVER INTL A","1108395","2018-08-16 08:00","2018","08","16","08:00","16.2","","13.1","","82","","","","10","","15","","19.3","","101.71","","","","","","NA"
"-123.18","49.19","VANCOUVER INTL A","1108395","2018-08-16 09:00","2018","08","16","09:00","18.3","","13.8","","75","","","","12","","10","","19.3","","101.74","","","","","","NA"
"-123.18","49.19","VANCOUVER INTL A","1108395","2018-08-16 10:00","2018","08","16","10:00","19.3","","13.4","","68","","","","11","","6","","19.3","","101.74","","","","","","Mainly Clear"
"-123.18","49.19","VANCOUVER INTL A","1108395","2018-08-16 11:00","2018","08","16","11:00","20.5","","14.4","","68","","","","18","","9","","19.3","","101.75","","","","","","NA"
"-123.18","49.19","VANCOUVER INTL A","1108395","2018-08-16 12:00","2018","08","16","12:00","20.1","","15.8","","76","","","","22","","16","","24.1","","101.73","","25","","","","NA"
"-123.18","49.19","VANCOUVER INTL A","1108395","2018-08-16 13:00","2018","08","16","13:00","20.3","","16.1","","77","","","","22","","21","","24.1","","101.72","","25","","","","Mainly Clear"
"-123.18","49.19","VANCOUVER INTL A","1108395","2018-08-16 14:00","2018","08","16","14:00","22.3","","17.2","","73","","","","21","","20","","24.1","","101.72","","28","","","","NA"
"-123.18","49.19","VANCOUVER INTL A","1108395","2018-08-16 15:00","2018","08","16","15:00","22.8","","17.0","","69","","","","21","","16","","24.1","","101.70","","28","","","","NA"
"-123.18","49.19","VANCOUVER INTL A","1108395","2018-08-16 16:00","2018","08","16","16:00","22.8","","16.1","","66","","","","23","","13","","24.1","","101.67","","27","","","","Clear"
"-123.18","49.19","VANCOUVER INTL A","1108395","2018-08-16 17:00","2018","08","16","17:00","22.6","","15.6","","64","","","","22","","13","","32.2","","101.65","","27","","","","NA"
"-123.18","49.19","VANCOUVER INTL A","1108395","2018-08-16 18:00","2018","08","16","18:00","21.1","","16.2","","73","","","","23","","12","","24.1","","101.65","","26","","","","NA"
"-123.18","49.19","VANCOUVER INTL A","1108395","2018-08-16 19:00","2018","08","16","19:00","19.7","","15.5","","76","","","","21","","8","","24.1","","101.66","","","","","","Clear"
"-123.18","49.19","VANCOUVER INTL A","1108395","2018-08-16 20:00","2018","08","16","20:00","19.0","","13.5","","70","","","","13","","12","","24.1","","101.72","","","","","","NA"
"-123.18","49.19","VANCOUVER INTL A","1108395","2018-08-16 21:00","2018","08","16","21:00","17.1","","13.6","","80","","","","9","","13","","24.1","","101.78","","","","","","NA"
"-123.18","49.19","VANCOUVER INTL A","1108395","2018-08-16 22:00","2018","08","16","22:00","16.6","","13.1","","80","","","","10","","13","","24.1","","101.83","","","","","","Clear"
"-123.18","49.19","VANCOUVER INTL A","1108395","2018-08-16 23:00","2018","08","16","23:00","15.7","","13.4","","86","","","","13","","14","","24.1","","101.89","","","","","","NA"
"-123.18","49.19","VANCOUVER INTL A","1108395","2018-08-17 00:00","2018","08","17","00:00","14.5","","12.1","","85","","","","12","","11","","24.1","","101.92","","","","","","NA"
"-123.18","49.19","VANCOUVER INTL A","1108395","2018-08-17 01:00","2018","08","17","01:00","13.9","","12.1","","89","","","","9","","14","","24.1","","101.95","","","","","","Clear"
"-123.18","49.19","VANCOUVER INTL A","1108395","2018-08-17 02:00","2018","08","17","02:00","13.4","","11.6","","89","","","","13","","11","","24.1","","102.00","","","","","","NA"
"-123.18","49.19","VANCOUVER INTL A","1108395","2018-08-17 03:00","2018","08","17","03:00","13.6","","12.2","","92","","","","12","","12","","24.1","","102.02","","","","","","NA"
"-123.18","49.19","VANCOUVER INTL A","1108395","2018-08-17 04:00","2018","08","17","04:00","13.0","","11.7","","92","","","","12","","8","","19.3","","102.06","","","","","","Clear"
"-123.18","49.19","VANCOUVER INTL A","1108395","2018-08-17 05:00","2018","08","17","05:00","12.7","","11.7","","94","","","","11","","5","","12.9","","102.08","","","","","","NA"
"-123.18","49.19","VANCOUVER INTL A","1108395","2018-08-17 06:00","2018","08","17","06:00","13.3","","11.9","","91","","","","10","","8","","12.9","","102.14","","","","","","NA"
"-123.18","49.19","VANCOUVER INTL A","1108395","2018-08-17 07:00","2018","08","17","07:00","14.7","","12.5","","86","","","","13","","8","","16.1","","102.22","","","","","","Mainly Clear"
"-123.18","49.19","VANCOUVER INTL A","1108395","2018-08-17 08:00","2018","08","17","08:00","15.7","","12.6","","82","","","","11","","5","","19.3","","102.25","","","","","","NA"
"-123.18","49.19","VANCOUVER INTL A","1108395","2018-08-17 09:00","2018","08","17","09:00","16.5","","12.7","","78","","","","15","","12","","19.3","","102.28","","","","","","NA"
"-123.18","49.19","VANCOUVER INTL A","1108395","2018-08-17 10:00","2018","08","17","10:00","17.7","","12.8","","73","","","","11","","9","","19.3","","102.29","","","","","","Mainly Clear"
"-123.18","49.19","VANCOUVER INTL A","1108395","2018-08-17 11:00","2018","08","17","11:00","19.4","","13.7","","69","","","","12","","10","","19.3","","102.30","","","","","","NA"
"-123.18","49.19","VANCOUVER INTL A","1108395","2018-08-17 12:00","2018","08","17","12:00","19.7","","13.7","","68","","","","23","","4","","24.1","","102.28","","","","","","NA"
"-123.18","49.19","VANCOUVER INTL A","1108395","2018-08-17 13:00","2018","08","17","13:00","20.1","","14.4","","69","","","","22","","5","","24.1","","102.25","","","","","","Mainly Clear"
"-123.18","49.19","VANCOUVER INTL A","1108395","2018-08-17 14:00","2018","08","17","14:00","19.9","","14.8","","72","","","","23","","15","","24.1","","102.25","","","","","","NA"
"-123.18","49.19","VANCOUVER INTL A","1108395","2018-08-17 15:00","2018","08","17","15:00","20.4","","14.8","","70","","","","22","","17","","24.1","","102.22","","","","","","NA"
"-123.18","49.19","VANCOUVER INTL A","1108395","2018-08-17 16:00","2018","08","17","16:00","20.8","","12.7","","60","","","","23","","15","","24.1","","102.17","","","","","","Clear"
"-123.18","49.19","VANCOUVER INTL A","1108395","2018-08-17 17:00","2018","08","17","17:00","20.9","","13.5","","62","","","","22","","15","","48.3","","102.16","","","","","","NA"
"-123.18","49.19","VANCOUVER INTL A","1108395","2018-08-17 18:00","2018","08","17","18:00","20.4","","13.1","","63","","","","19","","14","","32.2","","102.12","","","","","","NA"
"-123.18","49.19","VANCOUVER INTL A","1108395","2018-08-17 19:00","2018","08","17","19:00","18.9","","13.9","","73","","","","19","","13","","32.2","","102.12","","","","","","Mainly Clear"
"-123.18","49.19","VANCOUVER INTL A","1108395","2018-08-17 20:00","2018","08","17","20:00","18.2","","12.8","","70","","","","13","","10","","32.2","","102.17","","","","","","NA"
"-123.18","49.19","VANCOUVER INTL A","1108395","2018-08-17 21:00","2018","08","17","21:00","16.6","","13.9","","84","","","","9","","16","","32.2","","102.22","","","","","","NA"
"-123.18","49.19","VANCOUVER INTL A","1108395","2018-08-17 22:00","2018","08","17","22:00","16.4","","13.3","","82","","","","10","","12","","32.2","","102.23","","","","","","Mainly Clear"
"-123.18","49.19","VANCOUVER INTL A","1108395","2018-08-17 23:00","2018","08","17","23:00"
"-123.18","49.19","VANCOUVER INTL A","1108395","2018-08-18 00:00","2018","08","18","00:00","15.7","","12.8","","83","","","","10","","13","","32.2","","102.27","","","","","","NA"
"-123.18","49.19","VANCOUVER INTL A","1108395","2018-08-18 01:00","2018","08","18","01:00","15.2","","12.2","","82","","","","10","","9","","32.2","","102.25","","","","","","Clear"
"-123.18","49.19","VANCOUVER INTL A","1108395","2018-08-18 02:00","2018","08","18","02:00","15.1","","12.4","","84","","","","13","","7","","32.2","","102.27","","","","","","NA"
"-123.18","49.19","VANCOUVER INTL A","1108395","2018-08-18 03:00","2018","08","18","03:00","14.3","","11.6","","84","","","","9","","12","","32.2","","102.25","","","","","","NA"
"-123.18","49.19","VANCOUVER INTL A","1108395","2018-08-18 04:00","2018","08","18","04:00","13.9","","11.6","","86","","","","8","","8","","32.2","","102.28","","","","","","Clear"
"-123.18","49.19","VANCOUVER INTL A","1108395","2018-08-18 05:00","2018","08","18","05:00","12.4","","11.1","","92","","","","26","","3","","24.1","","102.32","","","","","","NA"
"-123.18","49.19","VANCOUVER INTL A","1108395","2018-08-18 06:00","2018","08","18","06:00","14.5","","12.8","","90","","","","18","","5","","24.1","","102.34","","","","","","NA"
"-123.18","49.19","VANCOUVER INTL A","1108395","2018-08-18 07:00","2018","08","18","07:00","16.6","","13.8","","84","","","","21","","5","","24.1","","102.37","","","","","","Mostly Cloudy"
"-123.18","49.19","VANCOUVER INTL A","1108395","2018-08-18 08:00","2018","08","18","08:00","17.7","","14.8","","83","","","","21","","4","","24.1","","102.37","","","","","","NA"
"-123.18","49.19","VANCOUVER INTL A","1108395","2018-08-18 09:00","2018","08","18","09:00","19.1","","15.3","","78","","","","30","","7","","24.1","","102.33","","","","","","NA"
"-123.18","49.19","VANCOUVER INTL A","1108395","2018-08-18 10:00","2018","08","18","10:00","19.4","","15.1","","76","","","","30","","21","","24.1","","102.31","","","","","","Mainly Clear"
"-123.18","49.19","VANCOUVER INTL A","1108395","2018-08-18 11:00","2018","08","18","11:00","19.9","","15.4","","75","","","","29","","22","","32.2","","102.28","","","","","","NA"
"-123.18","49.19","VANCOUVER INTL A","1108395","2018-08-18 12:00","2018","08","18","12:00","19.4","","15.1","","76","","","","30","","21","","40.2","","102.24","","","","","","NA"
"-123.18","49.19","VANCOUVER INTL A","1108395","2018-08-18 13:00","2018","08","18","13:00","19.9","","15.3","","74","","","","28","","21","","40.2","","102.19","","","","","","Cloudy"
"-123.18","49.19","VANCOUVER INTL A","1108395","2018-08-18 14:00","2018","08","18","14:00","19.9","","15.7","","76","","","","28","","16","","40.2","","102.12","","","","","","NA"
"-123.18","49.19","VANCOUVER INTL A","1108395","2018-08-18 15:00","2018","08","18","15:00","20.2","","15.6","","75","","","","29","","13","","40.2","","102.06","","25","","","","NA"
"-123.18","49.19","VANCOUVER INTL A","1108395","2018-08-18 16:00","2018","08","18","16:00","20.2","","15.5","","74","","","","29","","10","","40.2","","102.00","","","","","","Cloudy"
"-123.18","49.19","VANCOUVER INTL A","1108395","2018-08-18 17:00","2018","08","18","17:00","19.9","","15.0","","73","","","","","","0","","40.2","","101.96","","","","","","NA"
"-123.18","49.19","VANCOUVER INTL A","1108395","2018-08-18 18:00","2018","08","18","18:00","18.9","","14.8","","77","","","","18","","7","","32.2","","101.92","","","","","","NA"
"-123.18","49.19","VANCOUVER INTL A","1108395","2018-08-18 19:00","2018","08","18","19:00","19.1","","14.7","","75","","","","20","","7","","24.1","","101.90","","","","","","Mostly Cloudy"
"-123.18","49.19","VANCOUVER INTL A","1108395","2018-08-18 20:00","2018","08","18","20:00","18.6","","14.0","","74","","","","14","","6","","24.1","","101.91","","","","","","NA"
"-123.18","49.19","VANCOUVER INTL A","1108395","2018-08-18 21:00","2018","08","18","21:00","18.2","","13.7","","75","","","","14","","3","","24.1","","101.92","","","","","","NA"
"-123.18","49.19","VANCOUVER INTL A","1108395","2018-08-18 22:00","2018","08","18","22:00","17.0","","13.1","","78","","","","","","0","","24.1","","101.92","","","","","","Mostly Cloudy"
"-123.18","49.19","VANCOUVER INTL A","1108395","2018-08-18 23:00","2018","08","18","23:00","15.3","","13.5","","89","","","","35","","5","","24.1","","101.92","","","","","","NA"
"-123.18","49.19","VANCOUVER INTL A","1108395","2018-08-19 00:00","2018","08","19","00:00","15.5","","13.4","","87","","","","35","","4","","24.1","","101.90","","","","","","NA"
"-123.18","49.19","VANCOUVER INTL A","1108395","2018-08-19 01:00","2018","08","19","01:00","15.3","","14.1","","92","","","","28","","4","","24.1","","101.89","","","","","","Cloudy"
"-123.18","49.19","VANCOUVER INTL A","1108395","2018-08-19 02:00","2018","08","19","02:00","16.0","","14.9","","93","","","","30","","6","","24.1","","101.88","","","","","","NA"
"-123.18","49.19","VANCOUVER INTL A","1108395","2018-08-19 03:00","2018","08","19","03:00","15.9","","15.1","","95","","","","","","0","","24.1","","101.86","","","","","","NA"
"-123.18","49.19","VANCOUVER INTL A","1108395","2018-08-19 04:00","2018","08","19","04:00","14.4","","12.7","","89","","","","","","0","","24.1","","101.85","","","","","","Mostly Cloudy"
"-123.18","49.19","VANCOUVER INTL A","1108395","2018-08-19 05:00","2018","08","19","05:00","14.8","","14.0","","95","","","","36","","5","","16.1","","101.86","","","","","","NA"
"-123.18","49.19","VANCOUVER INTL A","1108395","2018-08-19 06:00","2018","08","19","06:00","16.3","","15.7","","97","","","","31","","13","","24.1","","101.89","","","","","","NA"
"-123.18","49.19","VANCOUVER INTL A","1108395","2018-08-19 07:00","2018","08","19","07:00","17.1","","15.8","","92","","","","30","","19","","24.1","","101.91","","","","","","Cloudy"
"-123.18","49.19","VANCOUVER INTL A","1108395","2018-08-19 08:00","2018","08","19","08:00","17.6","","15.6","","88","","","","30","","22","","19.3","","101.89","","","","","","NA"
"-123.18","49.19","VANCOUVER INTL A","1108395","2018-08-19 09:00","2018","08","19","09:00","18.2","","15.5","","84","","","","31","","23","","19.3","","101.90","","","","","","NA"
"-123.18","49.19","VANCOUVER INTL A","1108395","2018-08-19 10:00","2018","08","19","10:00","18.7","","15.1","","80","","","","30","","23","","19.3","","101.89","","","","","","Mostly Cloudy"
"-123.18","49.19","VANCOUVER INTL A","1108395","2018-08-19 11:00","2018","08","19","11:00","19.3","","15.6","","79","","","","29","","18","","19.3","","101.86","","","","","","NA"
"-123.18","49.19","VANCOUVER INTL A","1108395","2018-08-19 12:00","2018","08","19","12:00","19.7","","16.0","","79","","","","29","","18","","19.3","","101.81","","","","","","NA"
"-123.18","49.19","VANCOUVER INTL A","1108395","2018-08-19 13:00","2018","08","19","13:00","19.6","","15.7","","78","","","","30","","23","","19.3","","101.75","","","","","","Mostly Cloudy"
"-123.18","49.19","VANCOUVER INTL A","1108395","2018-08-19 14:00","2018","08","19","14:00","19.8","","15.6","","76","","","","30","","21","","19.3","","101.69","","","","","","NA"
"-123.18","49.19","VANCOUVER INTL A","1108395","2018-08-19 15:00","2018","08","19","15:00","20.1","","16.0","","77","","","","30","","15","","16.1","","101.63","","25","","","","NA"
"-123.18","49.19","VANCOUVER INTL A","1108395","2018-08-19 16:00","2018","08","19","16:00","19.7","","15.8","","78","","","","31","","14","","16.1","","101.57","","","","","","Cloudy"
"-123.18","49.19","VANCOUVER INTL A","1108395","2018-08-19 17:00","2018","08","19","17:00","19.3","","16.0","","81","","","","31","","11","","16.1","","101.54","","","","","","NA"
"-123.18","49.19","VANCOUVER INTL A","1108395","2018-08-19 18:00","2018","08","19","18:00","19.0","","15.6","","80","","","","30","","14","","16.1","","101.52","","","","","","NA"
"-123.18","49.19","VANCOUVER INTL A","1108395","2018-08-19 19:00","2018","08","19","19:00","18.2","","14.8","","80","","","","30","","10","","12.9","","101.53","","","","","","Cloudy"
"-123.18","49.19","VANCOUVER INTL A","1108395","2018-08-19 20:00","2018","08","19","20:00","17.0","","15.0","","88","","","","27","","4","","12.9","","101.58","","","","","","NA"
"-123.18","49.19","VANCOUVER INTL A","1108395","2018-08-19 21:00","2018","08","19","21:00","17.5","","16.0","","91","","","","22","","4","","9.7","","101.60","","","","","","Smoke"
"-123.18","49.19","VANCOUVER INTL A","1108395","2018-08-19 22:00","2018","08","19","22:00","16.4","","15.5","","94","","","","29","","5","","9.7","","101.60","","","","","","Smoke"
"-123.18","49.19","VANCOUVER INTL A","1108395","2018-08-19 23:00","2018","08","19","23:00","16.5","","15.4","","93","","","","3","","4","","8.1","","101.65","","","","","","Smoke"
"-123.18","49.19","VANCOUVER INTL A","1108395","2018-08-20 00:00","2018","08","20","00:00","15.8","","14.3","","91","","","","8","","4","","9.7","","101.67","","","","","","Smoke"
"-123.18","49.19","VANCOUVER INTL A","1108395","2018-08-20 01:00","2018","08","20","01:00","16.0","","14.9","","93","","","","1","","4","","9.7","","101.68","","","","","","Smoke"
"-123.18","49.19","VANCOUVER INTL A","1108395","2018-08-20 02:00","2018","08","20","02:00","14.3","","13.6","","95","","","","32","","3","","9.7","","101.68","","","","","","Smoke"
"-123.18","49.19","VANCOUVER INTL A","1108395","2018-08-20 03:00","2018","08","20","03:00","14.6","","14.1","","97","","","","31","","8","","9.7","","101.71","","","","","","Smoke"
"-123.18","49.19","VANCOUVER INTL A","1108395","2018-08-20 04:00","2018","08","20","04:00","15.0","","14.8","","99","","","","30","","11","","9.7","","101.70","","","","","","Smoke"
"-123.18","49.19","VANCOUVER INTL A","1108395","2018-08-20 05:00","2018","08","20","05:00","16.3","","15.7","","96","","","","30","","18","","4.0","","101.71","","","","","","Smoke"
"-123.18","49.19","VANCOUVER INTL A","1108395","2018-08-20 06:00","2018","08","20","06:00","16.3","","15.4","","94","","","","30","","19","","6.4","","101.72","","","","","","Smoke"
"-123.18","49.19","VANCOUVER INTL A","1108395","2018-08-20 07:00","2018","08","20","07:00","16.8","","15.7","","93","","","","30","","14","","6.4","","101.79","","","","","","Smoke"
"-123.18","49.19","VANCOUVER INTL A","1108395","2018-08-20 08:00","2018","08","20","08:00","17.7","","16.3","","92","","","","30","","17","","6.4","","101.79","","","","","","Smoke"
"-123.18","49.19","VANCOUVER INTL A","1108395","2018-08-20 09:00","2018","08","20","09:00","18.6","","16.2","","85","","","","30","","26","","6.4","","101.76","","","","","","Smoke"
"-123.18","49.19","VANCOUVER INTL A","1108395","2018-08-20 10:00","2018","08","20","10:00","20.3","","15.8","","75","","","","30","","23","","6.4","","101.78","","25","","","","Smoke"
"-123.18","49.19","VANCOUVER INTL A","1108395","2018-08-20 11:00","2018","08","20","11:00","21.2","","16.1","","73","","","","30","","24","","6.4","","101.74","","26","","","","Smoke"
"-123.18","49.19","VANCOUVER INTL A","1108395","2018-08-20 12:00","2018","08","20","12:00","21.6","","16.1","","70","","","","31","","23","","6.4","","101.66","","26","","","","Smoke"
"-123.18","49.19","VANCOUVER INTL A","1108395","2018-08-20 13:00","2018","08","20","13:00","22.3","","16.7","","70","","","","31","","24","","6.4","","101.63","","27","","","","Smoke"
"-123.18","49.19","VANCOUVER INTL A","1108395","2018-08-20 14:00","2018","08","20","14:00","22.5","","16.4","","68","","","","30","","29","","6.4","","101.57","","27","","","","Smoke"
"-123.18","49.19","VANCOUVER INTL A","1108395","2018-08-20 15:00","2018","08","20","15:00","22.6","","16.5","","68","","","","31","","26","","6.4","","101.50","","28","","","","Smoke"
"-123.18","49.19","VANCOUVER INTL A","1108395","2018-08-20 16:00","2018","08","20","16:00","22.1","","15.7","","67","","","","31","","30","","4.8","","101.48","","27","","","","Smoke"
"-123.18","49.19","VANCOUVER INTL A","1108395","2018-08-20 17:00","2018","08","20","17:00","21.2","","15.5","","69","","","","31","","30","","4.8","","101.45","","25","","","","Smoke"
"-123.18","49.19","VANCOUVER INTL A","1108395","2018-08-20 18:00","2018","08","20","18:00","20.5","","15.2","","71","","","","29","","19","","4.8","","101.46","","25","","","","Smoke"
"-123.18","49.19","VANCOUVER INTL A","1108395","2018-08-20 19:00","2018","08","20","19:00","20.0","","15.0","","73","","","","27","","22","","4.0","","101.47","","","","","","Smoke"
"-123.18","49.19","VANCOUVER INTL A","1108395","2018-08-20 20:00","2018","08","20","20:00","18.2","","15.1","","82","","","","31","","16","","3.2","","101.51","","","","","","Smoke"
"-123.18","49.19","VANCOUVER INTL A","1108395","2018-08-20 21:00","2018","08","20","21:00","16.9","","14.9","","88","","","","32","","10","","3.2","","101.54","","","","","","Smoke"
"-123.18","49.19","VANCOUVER INTL A","1108395","2018-08-20 22:00","2018","08","20","22:00","16.7","","14.8","","88","","","","30","","13","","4.0","","101.56","","","","","","Smoke"
"-123.18","49.19","VANCOUVER INTL A","1108395","2018-08-20 23:00","2018","08","20","23:00","17.0","","15.1","","89","","","","30","","3","","4.0","","101.61","","","","","","Smoke"
"-123.18","49.19","VANCOUVER INTL A","1108395","2018-08-21 00:00","2018","08","21","00:00","17.5","","15.3","","87","","","","25","","4","","4.8","","101.63","","","","","","Smoke"
"-123.18","49.19","VANCOUVER INTL A","1108395","2018-08-21 01:00","2018","08","21","01:00","15.9","","11.1","","73","","","","33","","14","","4.8","","101.67","","","","","","Smoke"
"-123.18","49.19","VANCOUVER INTL A","1108395","2018-08-21 02:00","2018","08","21","02:00","18.0","","13.3","","74","","","","28","","8","","4.8","","101.67","","","","","","Smoke"
"-123.18","49.19","VANCOUVER INTL A","1108395","2018-08-21 03:00","2018","08","21","03:00","14.5","","11.8","","84","","","","10","","11","","4.8","","101.70","","","","","","Smoke"
"-123.18","49.19","VANCOUVER INTL A","1108395","2018-08-21 04:00","2018","08","21","04:00","14.7","","11.7","","82","","","","4","","4","","6.4","","101.74","","","","","","Smoke"
"-123.18","49.19","VANCOUVER INTL A","1108395","2018-08-21 05:00","2018","08","21","05:00","14.4","","12.2","","87","","","","8","","8","","4.8","","101.76","","","","","","Smoke"
"-123.18","49.19","VANCOUVER INTL A","1108395","2018-08-21 06:00","2018","08","21","06:00","15.7","","12.8","","83","","","","9","","5","","4.8","","101.80","","","","","","Smoke"
"-123.18","49.19","VANCOUVER INTL A","1108395","2018-08-21 07:00","2018","08","21","07:00","18.0","","14.5","","80","","","","12","","7","","4.8","","101.82","","","","","","Smoke"
"-123.18","49.19","VANCOUVER INTL A","1108395","2018-08-21 08:00","2018","08","21","08:00","20.1","","14.3","","69","","","","11","","5","","4.8","","101.84","","","","","","Smoke"
"-123.18","49.19","VANCOUVER INTL A","1108395","2018-08-21 09:00","2018","08","21","09:00","23.6","","13.8","","54","","","","10","","8","","4.8","","101.83","","27","","","","Smoke"
"-123.18","49.19","VANCOUVER INTL A","1108395","2018-08-21 10:00","2018","08","21","10:00","21.9","","15.8","","68","","","","24","","13","","4.8","","101.82","","26","","","","Smoke"
"-123.18","49.19","VANCOUVER INTL A","1108395","2018-08-21 11:00","2018","08","21","11:00","22.8","","15.9","","65","","","","25","","10","","4.8","","101.80","","27","","","","Smoke"
"-123.18","49.19","VANCOUVER INTL A","1108395","2018-08-21 12:00","2018","08","21","12:00","24.9","","14.7","","52","","","","26","","13","","6.4","","101.75","","29","","","","Smoke"
"-123.18","49.19","VANCOUVER INTL A","1108395","2018-08-21 13:00","2018","08","21","13:00","24.7","","13.6","","50","","","","28","","8","","8.1","","101.71","","28","","","","Smoke"
"-123.18","49.19","VANCOUVER INTL A","1108395","2018-08-21 14:00","2018","08","21","14:00","25.7","","11.6","","41","","","","27","","9","","8.1","","101.64","","28","","","","Smoke"
"-123.18","49.19","VANCOUVER INTL A","1108395","2018-08-21 15:00","2018","08","21","15:00","26.7","","11.0","","37","","","","28","","9","","8.1","","101.55","","28","","","","Smoke"
"-123.18","49.19","VANCOUVER INTL A","1108395","2018-08-21 16:00","2018","08","21","16:00","26.7","","12.0","","39","","","","24","","8","","8.1","","101.50","","29","","","","Smoke"
"-123.18","49.19","VANCOUVER INTL A","1108395","2018-08-21 17:00","2018","08","21","17:00","25.1","","13.2","","47","","","","30","","8","","8.1","","101.45","","28","","","","Smoke"
"-123.18","49.19","VANCOUVER INTL A","1108395","2018-08-21 18:00","2018","08","21","18:00","22.6","","13.3","","55","","","","28","","7","","8.1","","101.41","","26","","","","Smoke"
"-123.18","49.19","VANCOUVER INTL A","1108395","2018-08-21 19:00","2018","08","21","19:00","21.2","","14.2","","64","","","","20","","4","","8.1","","101.38","","25","","","","Smoke"
"-123.18","49.19","VANCOUVER INTL A","1108395","2018-08-21 20:00","2018","08","21","20:00","19.7","","16.2","","80","","","","19","","7","","6.4","","101.40","","","","","","Smoke"
"-123.18","49.19","VANCOUVER INTL A","1108395","2018-08-21 21:00","2018","08","21","21:00","17.2","","15.0","","86","","","","1","","4","","4.8","","101.39","","","","","","Smoke"
"-123.18","49.19","VANCOUVER INTL A","1108395","2018-08-21 22:00","2018","08","21","22:00","16.7","","14.3","","85","","","","35","","7","","6.4","","101.37","","","","","","Smoke"
"-123.18","49.19","VANCOUVER INTL A","1108395","2018-08-21 23:00","2018","08","21","23:00","18.2","","14.0","","77","","","","16","","9","","6.4","","101.39","","","","","","Smoke"
"-123.18","49.19","VANCOUVER INTL A","1108395","2018-08-22 00:00","2018","08","22","00:00","16.2","","12.8","","80","","","","","","0","","4.0","","101.39","","","","","","Smoke"
"-123.18","49.19","VANCOUVER INTL A","1108395","2018-08-22 01:00","2018","08","22","01:00","15.8","","13.0","","83","","","","","","0","","4.8","","101.37","","","","","","Smoke"
"-123.18","49.19","VANCOUVER INTL A","1108395","2018-08-22 02:00","2018","08","22","02:00","15.3","","12.1","","81","","","","","","0","","4.8","","101.35","","","","","","Smoke"
"-123.18","49.19","VANCOUVER INTL A","1108395","2018-08-22 03:00","2018","08","22","03:00","15.9","","12.7","","81","","","","11","","8","","4.8","","101.34","","","","","","Smoke"
"-123.18","49.19","VANCOUVER INTL A","1108395","2018-08-22 04:00","2018","08","22","04:00","14.3","","11.8","","85","","","","4","","5","","4.0","","101.31","","","","","","Smoke"
"-123.18","49.19","VANCOUVER INTL A","1108395","2018-08-22 05:00","2018","08","22","05:00","14.2","","11.8","","86","","","","1","","4","","4.8","","101.31","","","","","","Smoke"
"-123.18","49.19","VANCOUVER INTL A","1108395","2018-08-22 06:00","2018","08","22","06:00","15.4","","11.8","","79","","","","","","0","","4.8","","101.33","","","","","","Smoke"
"-123.18","49.19","VANCOUVER INTL A","1108395","2018-08-22 07:00","2018","08","22","07:00","17.1","","14.3","","84","","","","12","","3","","4.8","","101.36","","","","","","Smoke"
"-123.18","49.19","VANCOUVER INTL A","1108395","2018-08-22 08:00","2018","08","22","08:00","19.7","","15.4","","76","","","","","","0","","4.8","","101.35","","","","","","Smoke"
"-123.18","49.19","VANCOUVER INTL A","1108395","2018-08-22 09:00","2018","08","22","09:00","20.5","","15.5","","73","","","","22","","6","","4.8","","101.35","","25","","","","Smoke"
"-123.18","49.19","VANCOUVER INTL A","1108395","2018-08-22 10:00","2018","08","22","10:00","21.0","","15.1","","68","","","","24","","10","","6.4","","101.33","","25","","","","Smoke"
"-123.18","49.19","VANCOUVER INTL A","1108395","2018-08-22 11:00","2018","08","22","11:00","21.1","","15.8","","71","","","","24","","10","","6.4","","101.28","","26","","","","Smoke"
"-123.18","49.19","VANCOUVER INTL A","1108395","2018-08-22 12:00","2018","08","22","12:00","22.2","","15.5","","65","","","","26","","11","","4.8","","101.27","","26","","","","Smoke"
"-123.18","49.19","VANCOUVER INTL A","1108395","2018-08-22 13:00","2018","08","22","13:00","22.1","","15.4","","65","","","","30","","13","","4.8","","101.24","","26","","","","Smoke"
"-123.18","49.19","VANCOUVER INTL A","1108395","2018-08-22 14:00","2018","08","22","14:00","22.3","","14.4","","61","","","","28","","7","","4.0","","101.20","","26","","","","Smoke"
"-123.18","49.19","VANCOUVER INTL A","1108395","2018-08-22 15:00","2018","08","22","15:00","20.9","","15.5","","71","","","","24","","10","","4.0","","101.17","","25","","","","Smoke"
"-123.18","49.19","VANCOUVER INTL A","1108395","2018-08-22 16:00","2018","08","22","16:00","20.7","","14.2","","66","","","","24","","5","","3.6","","101.11","","","","","","Smoke"
"-123.18","49.19","VANCOUVER INTL A","1108395","2018-08-22 17:00","2018","08","22","17:00","20.7","","14.8","","69","","","","30","","5","","3.6","","101.08","","25","","","","Smoke"
"-123.18","49.19","VANCOUVER INTL A","1108395","2018-08-22 18:00","2018","08","22","18:00","19.1","","15.7","","81","","","","31","","5","","3.6","","101.06","","","","","","Smoke"
"-123.18","49.19","VANCOUVER INTL A","1108395","2018-08-22 19:00","2018","08","22","19:00","18.4","","15.5","","83","","","","28","","3","","3.6","","101.01","","","","","","Smoke"
"-123.18","49.19","VANCOUVER INTL A","1108395","2018-08-22 20:00","2018","08","22","20:00","16.9","","15.3","","90","","","","","","0","","3.6","","101.04","","","","","","Smoke"
"-123.18","49.19","VANCOUVER INTL A","1108395","2018-08-22 21:00","2018","08","22","21:00","16.8","","16.1","","96","","","","","","0","","3.6","","101.07","","","","","","Smoke"
"-123.18","49.19","VANCOUVER INTL A","1108395","2018-08-22 22:00","2018","08","22","22:00","16.7","","15.4","","92","","","","13","","9","","4.0","","101.09","","","","","","Smoke"
"-123.18","49.19","VANCOUVER INTL A","1108395","2018-08-22 23:00","2018","08","22","23:00","15.6","","13.3","","86","","","","10","","7","","4.0","","101.11","","","","","","Smoke"
"-123.18","49.19","VANCOUVER INTL A","1108395","2018-08-23 00:00","2018","08","23","00:00","15.5","","13.9","","90","","","","13","","7","","4.0","","101.21","","","","","","Smoke"
"-123.18","49.19","VANCOUVER INTL A","1108395","2018-08-23 01:00","2018","08","23","01:00","14.3","","12.9","","91","","","","9","","18","","3.6","","101.22","","","","","","Smoke"
"-123.18","49.19","VANCOUVER INTL A","1108395","2018-08-23 02:00","2018","08","23","02:00","14.4","","12.8","","90","","","","9","","20","","4.8","","101.24","","","","","","Smoke"
"-123.18","49.19","VANCOUVER INTL A","1108395","2018-08-23 03:00","2018","08","23","03:00","13.8","","12.6","","93","","","","9","","19","","9.7","","101.28","","","","","","Smoke"
"-123.18","49.19","VANCOUVER INTL A","1108395","2018-08-23 04:00","2018","08","23","04:00","13.7","","12.4","","92","","","","9","","18","","8.1","","101.33","","","","","","Smoke"
"-123.18","49.19","VANCOUVER INTL A","1108395","2018-08-23 05:00","2018","08","23","05:00","13.7","","11.7","","88","","","","9","","15","","8.1","","101.36","","","","","","Smoke"
"-123.18","49.19","VANCOUVER INTL A","1108395","2018-08-23 06:00","2018","08","23","06:00","14.3","","12.1","","86","","","","8","","17","","11.3","","101.42","","","","","","NA"
"-123.18","49.19","VANCOUVER INTL A","1108395","2018-08-23 07:00","2018","08","23","07:00","15.2","","12.9","","86","","","","8","","23","","9.7","","101.46","","","","","","Smoke"
"-123.18","49.19","VANCOUVER INTL A","1108395","2018-08-23 08:00","2018","08","23","08:00","15.5","","13.0","","85","","","","9","","21","","12.9","","101.51","","","","","","NA"
"-123.18","49.19","VANCOUVER INTL A","1108395","2018-08-23 09:00","2018","08","23","09:00","15.8","","13.2","","85","","","","9","","23","","12.9","","101.52","","","","","","NA"
"-123.18","49.19","VANCOUVER INTL A","1108395","2018-08-23 10:00","2018","08","23","10:00","17.1","","13.6","","80","","","","10","","16","","16.1","","101.58","","","","","","Cloudy"
"-123.18","49.19","VANCOUVER INTL A","1108395","2018-08-23 11:00","2018","08","23","11:00","17.9","","13.3","","74","","","","7","","14","","19.3","","101.59","","","","","","NA"
"-123.18","49.19","VANCOUVER INTL A","1108395","2018-08-23 12:00","2018","08","23","12:00","18.1","","13.6","","75","","","","22","","16","","24.1","","101.60","","","","","","NA"
"-123.18","49.19","VANCOUVER INTL A","1108395","2018-08-23 13:00","2018","08","23","13:00","18.6","","13.7","","73","","","","20","","17","","24.1","","101.60","","","","","","Cloudy"
"-123.18","49.19","VANCOUVER INTL A","1108395","2018-08-23 14:00","2018","08","23","14:00","19.1","","13.9","","72","","","","21","","18","","24.1","","101.61","","","","","","NA"
"-123.18","49.19","VANCOUVER INTL A","1108395","2018-08-23 15:00","2018","08","23","15:00","19.7","","13.3","","66","","","","21","","22","","24.1","","101.55","","","","","","NA"
"-123.18","49.19","VANCOUVER INTL A","1108395","2018-08-23 16:00","2018","08","23","16:00","19.4","","13.0","","66","","","","22","","16","","16.1","","101.53","","","","","","Mostly Cloudy"
"-123.18","49.19","VANCOUVER INTL A","1108395","2018-08-23 17:00","2018","08","23","17:00","18.4","","12.8","","70","","","","20","","11","","16.1","","101.50","","","","","","NA"
"-123.18","49.19","VANCOUVER INTL A","1108395","2018-08-23 18:00","2018","08","23","18:00","18.2","","11.9","","66","","","","22","","8","","16.1","","101.46","","","","","","NA"
"-123.18","49.19","VANCOUVER INTL A","1108395","2018-08-23 19:00","2018","08","23","19:00","16.6","","12.8","","78","","","","19","","10","","16.1","","101.47","","","","","","Mainly Clear"
"-123.18","49.19","VANCOUVER INTL A","1108395","2018-08-23 20:00","2018","08","23","20:00","16.4","","13.0","","80","","","","15","","8","","12.9","","101.51","","","","","","NA"
"-123.18","49.19","VANCOUVER INTL A","1108395","2018-08-23 21:00","2018","08","23","21:00","16.0","","12.8","","81","","","","14","","7","","12.9","","101.52","","","","","","NA"
"-123.18","49.19","VANCOUVER INTL A","1108395","2018-08-23 22:00","2018","08","23","22:00","16.1","","12.7","","80","","","","16","","7","","12.9","","101.50","","","","","","Mostly Cloudy"
"-123.18","49.19","VANCOUVER INTL A","1108395","2018-08-23 23:00","2018","08","23","23:00","16.3","","12.8","","80","","","","14","","4","","12.9","","101.51","","","","","","NA"
"-123.18","49.19","VANCOUVER INTL A","1108395","2018-08-24 00:00","2018","08","24","00:00","14.2","","12.1","","87","","","","9","","7","","12.9","","101.53","","","","","","NA"
"-123.18","49.19","VANCOUVER INTL A","1108395","2018-08-24 01:00","2018","08","24","01:00","13.9","","12.1","","89","","","","10","","10","","16.1","","101.53","","","","","","Mainly Clear"
"-123.18","49.19","VANCOUVER INTL A","1108395","2018-08-24 02:00","2018","08","24","02:00","13.8","","12.2","","90","","","","10","","9","","16.1","","101.53","","","","","","NA"
"-123.18","49.19","VANCOUVER INTL A","1108395","2018-08-24 03:00","2018","08","24","03:00","13.0","","11.7","","92","","","","9","","10","","16.1","","101.54","","","","","","NA"
"-123.18","49.19","VANCOUVER INTL A","1108395","2018-08-24 04:00","2018","08","24","04:00","13.5","","12.1","","91","","","","9","","11","","16.1","","101.56","","","","","","Mostly Cloudy"
"-123.18","49.19","VANCOUVER INTL A","1108395","2018-08-24 05:00","2018","08","24","05:00","13.4","","12.2","","92","","","","11","","10","","16.1","","101.57","","","","","","NA"
"-123.18","49.19","VANCOUVER INTL A","1108395","2018-08-24 06:00","2018","08","24","06:00","13.8","","12.4","","91","","","","9","","11","","8.1","","101.63","","","","","","Smoke"
"-123.18","49.19","VANCOUVER INTL A","1108395","2018-08-24 07:00","2018","08","24","07:00","15.2","","13.0","","87","","","","9","","8","","4.8","","101.69","","","","","","Smoke"
"-123.18","49.19","VANCOUVER INTL A","1108395","2018-08-24 08:00","2018","08","24","08:00","15.7","","12.6","","81","","","","","","0","","12.9","","101.73","","","","","","NA"
"-123.18","49.19","VANCOUVER INTL A","1108395","2018-08-24 09:00","2018","08","24","09:00","16.6","","12.6","","77","","","","29","","7","","16.1","","101.74","","","","","","NA"
"-123.18","49.19","VANCOUVER INTL A","1108395","2018-08-24 10:00","2018","08","24","10:00","17.9","","12.4","","70","","","","25","","14","","24.1","","101.78","","","","","","Mostly Cloudy"
"-123.18","49.19","VANCOUVER INTL A","1108395","2018-08-24 11:00","2018","08","24","11:00","18.7","","12.5","","67","","","","23","","10","","24.1","","101.79","","","","","","NA"
"-123.18","49.19","VANCOUVER INTL A","1108395","2018-08-24 12:00","2018","08","24","12:00","19.0","","12.0","","63","","","","25","","13","","24.1","","101.81","","","","","","NA"
"-123.18","49.19","VANCOUVER INTL A","1108395","2018-08-24 13:00","2018","08","24","13:00","19.0","","10.9","","59","","","","25","","11","","24.1","","101.80","","","","","","Mainly Clear"
"-123.18","49.19","VANCOUVER INTL A","1108395","2018-08-24 14:00","2018","08","24","14:00","19.4","","11.8","","61","","","","23","","14","","32.2","","101.79","","","","","","NA"
"-123.18","49.19","VANCOUVER INTL A","1108395","2018-08-24 15:00","2018","08","24","15:00","19.3","","11.7","","61","","","","21","","16","","32.2","","101.75","","","","","","NA"
"-123.18","49.19","VANCOUVER INTL A","1108395","2018-08-24 16:00","2018","08","24","16:00","18.9","","12.2","","65","","","","22","","14","","48.3","","101.73","","","","","","Mainly Clear"
"-123.18","49.19","VANCOUVER INTL A","1108395","2018-08-24 17:00","2018","08","24","17:00","18.7","","12.4","","67","","","","22","","12","","48.3","","101.72","","","","","","NA"
"-123.18","49.19","VANCOUVER INTL A","1108395","2018-08-24 18:00","2018","08","24","18:00","18.5","","11.6","","64","","","","19","","10","","32.2","","101.71","","","","","","NA"
"-123.18","49.19","VANCOUVER INTL A","1108395","2018-08-24 19:00","2018","08","24","19:00","17.8","","11.3","","65","","","","17","","9","","32.2","","101.72","","","","","","Mostly Cloudy"
"-123.18","49.19","VANCOUVER INTL A","1108395","2018-08-24 20:00","2018","08","24","20:00","17.1","","11.7","","70","","","","12","","4","","32.2","","101.77","","","","","","NA"
"-123.18","49.19","VANCOUVER INTL A","1108395","2018-08-24 21:00","2018","08","24","21:00","16.3","","10.6","","68","","","","10","","8","","32.2","","101.76","","","","","","NA"
"-123.18","49.19","VANCOUVER INTL A","1108395","2018-08-24 22:00","2018","08","24","22:00","15.8","","10.5","","70","","","","9","","8","","32.2","","101.74","","","","","","Mainly Clear"
"-123.18","49.19","VANCOUVER INTL A","1108395","2018-08-24 23:00","2018","08","24","23:00","14.3","","10.3","","77","","","","11","","9","","32.2","","101.72","","","","","","NA"
"-123.18","49.19","VANCOUVER INTL A","1108395","2018-08-25 00:00","2018","08","25","00:00","15.2","","10.6","","73","","","","7","","10","","32.2","","101.74","","","","","","NA"
"-123.18","49.19","VANCOUVER INTL A","1108395","2018-08-25 01:00","2018","08","25","01:00","14.4","","10.3","","76","","","","8","","7","","32.2","","101.72","","","","","","Cloudy"
"-123.18","49.19","VANCOUVER INTL A","1108395","2018-08-25 02:00","2018","08","25","02:00","14.2","","10.3","","77","","","","9","","8","","32.2","","101.69","","","","","","NA"
"-123.18","49.19","VANCOUVER INTL A","1108395","2018-08-25 03:00","2018","08","25","03:00","13.7","","10.5","","81","","","","10","","15","","32.2","","101.67","","","","","","NA"
"-123.18","49.19","VANCOUVER INTL A","1108395","2018-08-25 04:00","2018","08","25","04:00","13.2","","10.7","","85","","","","10","","16","","24.1","","101.61","","","","","","Cloudy"
"-123.18","49.19","VANCOUVER INTL A","1108395","2018-08-25 05:00","2018","08","25","05:00","13.5","","10.8","","84","","","","10","","11","","16.1","","101.62","","","","","","NA"
"-123.18","49.19","VANCOUVER INTL A","1108395","2018-08-25 06:00","2018","08","25","06:00","14.2","","11.5","","83","","","","11","","13","","24.1","","101.65","","","","","","NA"
"-123.18","49.19","VANCOUVER INTL A","1108395","2018-08-25 07:00","2018","08","25","07:00","14.0","","12.3","","90","","","","10","","14","","16.1","","101.66","","","","","","Rain"
"-123.18","49.19","VANCOUVER INTL A","1108395","2018-08-25 08:00","2018","08","25","08:00","13.9","","12.7","","93","","","","12","","16","","8.1","","101.66","","","","","","Rain,Fog"
"-123.18","49.19","VANCOUVER INTL A","1108395","2018-08-25 09:00","2018","08","25","09:00","14.5","","13.5","","94","","","","10","","15","","6.4","","101.65","","","","","","Rain,Fog"
"-123.18","49.19","VANCOUVER INTL A","1108395","2018-08-25 10:00","2018","08","25","10:00","14.3","","13.4","","94","","","","10","","14","","6.4","","101.67","","","","","","Rain,Fog"
"-123.18","49.19","VANCOUVER INTL A","1108395","2018-08-25 11:00","2018","08","25","11:00","14.2","","13.2","","94","","","","10","","14","","6.4","","101.66","","","","","","Rain,Fog"
"-123.18","49.19","VANCOUVER INTL A","1108395","2018-08-25 12:00","2018","08","25","12:00","13.8","","13.2","","96","","","","10","","16","","3.2","","101.67","","","","","","Rain,Fog"
"-123.18","49.19","VANCOUVER INTL A","1108395","2018-08-25 13:00","2018","08","25","13:00","13.8","","13.2","","96","","","","11","","14","","2.4","","101.70","","","","","","Rain,Fog"
"-123.18","49.19","VANCOUVER INTL A","1108395","2018-08-25 14:00","2018","08","25","14:00","14.0","","13.3","","96","","","","12","","10","","2.4","","101.71","","","","","","Rain,Fog"
"-123.18","49.19","VANCOUVER INTL A","1108395","2018-08-25 15:00","2018","08","25","15:00","14.3","","13.1","","92","","","","11","","12","","9.7","","101.69","","","","","","Fog"
"-123.18","49.19","VANCOUVER INTL A","1108395","2018-08-25 16:00","2018","08","25","16:00","14.8","","13.1","","89","","","","11","","11","","12.9","","101.70","","","","","","Cloudy"
"-123.18","49.19","VANCOUVER INTL A","1108395","2018-08-25 17:00","2018","08","25","17:00","14.8","","12.5","","86","","","","10","","10","","12.9","","101.72","","","","","","NA"
"-123.18","49.19","VANCOUVER INTL A","1108395","2018-08-25 18:00","2018","08","25","18:00","14.9","","12.4","","85","","","","10","","13","","12.9","","101.70","","","","","","NA"
"-123.18","49.19","VANCOUVER INTL A","1108395","2018-08-25 19:00","2018","08","25","19:00","14.4","","12.3","","87","","","","11","","9","","12.9","","101.72","","","","","","Cloudy"
"-123.18","49.19","VANCOUVER INTL A","1108395","2018-08-25 20:00","2018","08","25","20:00","14.5","","12.1","","86","","","","9","","10","","12.9","","101.76","","","","","","NA"
"-123.18","49.19","VANCOUVER INTL A","1108395","2018-08-25 21:00","2018","08","25","21:00","14.4","","12.3","","87","","","","10","","11","","12.9","","101.76","","","","","","NA"
"-123.18","49.19","VANCOUVER INTL A","1108395","2018-08-25 22:00","2018","08","25","22:00","14.5","","12.1","","85","","","","10","","7","","12.9","","101.74","","","","","","Cloudy"
"-123.18","49.19","VANCOUVER INTL A","1108395","2018-08-25 23:00","2018","08","25","23:00","14.3","","11.8","","85","","","","9","","10","","12.9","","101.73","","","","","","NA"
"-123.18","49.19","VANCOUVER INTL A","1108395","2018-08-26 00:00","2018","08","26","00:00","14.3","","12.1","","87","","","","10","","5","","12.9","","101.72","","","","","","NA"
"-123.18","49.19","VANCOUVER INTL A","1108395","2018-08-26 01:00","2018","08","26","01:00","13.7","","12.1","","90","","","","10","","9","","12.9","","101.68","","","","","","Cloudy"
"-123.18","49.19","VANCOUVER INTL A","1108395","2018-08-26 02:00","2018","08","26","02:00","14.0","","12.3","","89","","","","13","","8","","12.9","","101.65","","","","","","NA"
"-123.18","49.19","VANCOUVER INTL A","1108395","2018-08-26 03:00","2018","08","26","03:00","14.1","","12.2","","88","","","","12","","9","","12.9","","101.61","","","","","","NA"
"-123.18","49.19","VANCOUVER INTL A","1108395","2018-08-26 04:00","2018","08","26","04:00","13.9","","12.2","","89","","","","9","","8","","12.9","","101.58","","","","","","Cloudy"
"-123.18","49.19","VANCOUVER INTL A","1108395","2018-08-26 05:00","2018","08","26","05:00","13.9","","12.6","","91","","","","11","","9","","12.9","","101.54","","","","","","Rain Showers"
"-123.18","49.19","VANCOUVER INTL A","1108395","2018-08-26 06:00","2018","08","26","06:00","13.9","","13.0","","94","","","","9","","8","","6.4","","101.52","","","","","","Rain,Fog"
"-123.18","49.19","VANCOUVER INTL A","1108395","2018-08-26 07:00","2018","08","26","07:00","14.4","","13.4","","94","","","","12","","7","","8.1","","101.52","","","","","","Rain,Fog"
"-123.18","49.19","VANCOUVER INTL A","1108395","2018-08-26 08:00","2018","08","26","08:00","14.8","","13.8","","93","","","","13","","6","","12.9","","101.50","","","","","","NA"
"-123.18","49.19","VANCOUVER INTL A","1108395","2018-08-26 09:00","2018","08","26","09:00","15.4","","13.9","","91","","","","11","","7","","12.9","","101.48","","","","","","NA"
"-123.18","49.19","VANCOUVER INTL A","1108395","2018-08-26 10:00","2018","08","26","10:00","16.0","","14.1","","88","","","","16","","8","","16.1","","101.46","","","","","","Cloudy"
"-123.18","49.19","VANCOUVER INTL A","1108395","2018-08-26 11:00","2018","08","26","11:00","16.1","","14.2","","88","","","","15","","12","","24.1","","101.41","","","","","","NA"
"-123.18","49.19","VANCOUVER INTL A","1108395","2018-08-26 12:00","2018","08","26","12:00","17.5","","12.5","","72","","","","21","","10","","24.1","","101.39","","","","","","NA"
"-123.18","49.19","VANCOUVER INTL A","1108395","2018-08-26 13:00","2018","08","26","13:00","16.7","","11.6","","72","","","","20","","7","","24.1","","101.38","","","","","","Cloudy"
"-123.18","49.19","VANCOUVER INTL A","1108395","2018-08-26 14:00","2018","08","26","14:00","17.6","","12.9","","74","","","","19","","7","","24.1","","101.35","","","","","","NA"
"-123.18","49.19","VANCOUVER INTL A","1108395","2018-08-26 15:00","2018","08","26","15:00","18.0","","13.6","","75","","","","15","","8","","24.1","","101.32","","","","","","NA"
"-123.18","49.19","VANCOUVER INTL A","1108395","2018-08-26 16:00","2018","08","26","16:00","16.9","","12.9","","77","","","","13","","17","","24.1","","101.31","","","","","","Cloudy"
"-123.18","49.19","VANCOUVER INTL A","1108395","2018-08-26 17:00","2018","08","26","17:00","17.6","","12.3","","71","","","","12","","14","","24.1","","101.30","","","","","","NA"
"-123.18","49.19","VANCOUVER INTL A","1108395","2018-08-26 18:00","2018","08","26","18:00","17.0","","12.0","","72","","","","14","","13","","32.2","","101.27","","","","","","NA"
"-123.18","49.19","VANCOUVER INTL A","1108395","2018-08-26 19:00","2018","08","26","19:00","15.9","","12.4","","80","","","","10","","11","","32.2","","101.32","","","","","","Mostly Cloudy"
"-123.18","49.19","VANCOUVER INTL A","1108395","2018-08-26 20:00","2018","08","26","20:00","15.9","","12.2","","79","","","","11","","9","","24.1","","101.36","","","","","","NA"
"-123.18","49.19","VANCOUVER INTL A","1108395","2018-08-26 21:00","2018","08","26","21:00","14.3","","11.9","","85","","","","10","","11","","24.1","","101.41","","","","","","NA"
"-123.18","49.19","VANCOUVER INTL A","1108395","2018-08-26 22:00","2018","08","26","22:00","14.5","","12.6","","88","","","","9","","9","","24.1","","101.46","","","","","","Mainly Clear"
"-123.18","49.19","VANCOUVER INTL A","1108395","2018-08-26 23:00","2018","08","26","23:00","13.3","","11.8","","91","","","","2","","4","","24.1","","101.50","","","","","","NA"
"-123.18","49.19","VANCOUVER INTL A","1108395","2018-08-27 00:00","2018","08","27","00:00","13.2","","12.4","","95","","","","","","0","","24.1","","101.56","","","","","","NA"
"-123.18","49.19","VANCOUVER INTL A","1108395","2018-08-27 01:00","2018","08","27","01:00","12.7","","12.3","","97","","","","","","0","","24.1","","101.60","","","","","","Mainly Clear"
"-123.18","49.19","VANCOUVER INTL A","1108395","2018-08-27 02:00","2018","08","27","02:00","11.9","","10.9","","93","","","","8","","8","","19.3","","101.61","","","","","","NA"
"-123.18","49.19","VANCOUVER INTL A","1108395","2018-08-27 03:00","2018","08","27","03:00","13.8","","12.8","","94","","","","11","","5","","19.3","","101.68","","","","","","NA"
"-123.18","49.19","VANCOUVER INTL A","1108395","2018-08-27 04:00","2018","08","27","04:00","13.0","","12.3","","95","","","","18","","5","","19.3","","101.71","","","","","","Mainly Clear"
"-123.18","49.19","VANCOUVER INTL A","1108395","2018-08-27 05:00","2018","08","27","05:00","11.1","","9.8","","91","","","","9","","9","","32.2","","101.75","","","","","","NA"
"-123.18","49.19","VANCOUVER INTL A","1108395","2018-08-27 06:00","2018","08","27","06:00","13.3","","11.4","","88","","","","8","","7","","48.3","","101.83","","","","","","NA"
"-123.18","49.19","VANCOUVER INTL A","1108395","2018-08-27 07:00","2018","08","27","07:00","13.8","","12.5","","92","","","","10","","14","","48.3","","101.89","","","","","","Cloudy"
"-123.18","49.19","VANCOUVER INTL A","1108395","2018-08-27 08:00","2018","08","27","08:00","15.6","","12.7","","83","","","","","","0","","48.3","","101.93","","","","","","NA"
"-123.18","49.19","VANCOUVER INTL A","1108395","2018-08-27 09:00","2018","08","27","09:00","16.6","","13.2","","80","","","","25","","8","","48.3","","101.96","","","","","","NA"
"-123.18","49.19","VANCOUVER INTL A","1108395","2018-08-27 10:00","2018","08","27","10:00","17.1","","13.4","","79","","","","25","","10","","48.3","","102.02","","","","","","Mostly Cloudy"
"-123.18","49.19","VANCOUVER INTL A","1108395","2018-08-27 11:00","2018","08","27","11:00","17.6","","12.8","","73","","","","25","","10","","48.3","","102.01","","","","","","NA"
"-123.18","49.19","VANCOUVER INTL A","1108395","2018-08-27 12:00","2018","08","27","12:00","19.4","","12.1","","62","","","","24","","10","","48.3","","101.99","","","","","","NA"
"-123.18","49.19","VANCOUVER INTL A","1108395","2018-08-27 13:00","2018","08","27","13:00","20.6","","13.7","","64","","","","22","","11","","48.3","","101.93","","","","","","Clear"
"-123.18","49.19","VANCOUVER INTL A","1108395","2018-08-27 14:00","2018","08","27","14:00","19.9","","13.8","","67","","","","23","","8","","48.3","","101.92","","","","","","NA"
"-123.18","49.19","VANCOUVER INTL A","1108395","2018-08-27 15:00","2018","08","27","15:00","20.4","","14.0","","66","","","","25","","8","","48.3","","101.85","","","","","","NA"
"-123.18","49.19","VANCOUVER INTL A","1108395","2018-08-27 16:00","2018","08","27","16:00","19.5","","14.2","","71","","","","23","","11","","48.3","","101.80","","","","","","Mainly Clear"
"-123.18","49.19","VANCOUVER INTL A","1108395","2018-08-27 17:00","2018","08","27","17:00","19.5","","13.9","","70","","","","22","","14","","48.3","","101.77","","","","","","NA"
"-123.18","49.19","VANCOUVER INTL A","1108395","2018-08-27 18:00","2018","08","27","18:00","19.1","","13.9","","72","","","","21","","8","","48.3","","101.74","","","","","","NA"
"-123.18","49.19","VANCOUVER INTL A","1108395","2018-08-27 19:00","2018","08","27","19:00","15.8","","13.5","","86","","","","32","","3","","48.3","","101.73","","","","","","Mainly Clear"
"-123.18","49.19","VANCOUVER INTL A","1108395","2018-08-27 20:00","2018","08","27","20:00","17.6","","12.7","","73","","","","","","0","","32.2","","101.76","","","","","","NA"
"-123.18","49.19","VANCOUVER INTL A","1108395","2018-08-27 21:00","2018","08","27","21:00","17.1","","11.3","","68","","","","5","","9","","32.2","","101.77","","","","","","NA"
"-123.18","49.19","VANCOUVER INTL A","1108395","2018-08-27 22:00","2018","08","27","22:00","15.8","","11.1","","73","","","","10","","10","","32.2","","101.76","","","","","","Mainly Clear"
"-123.18","49.19","VANCOUVER INTL A","1108395","2018-08-27 23:00","2018","08","27","23:00","15.2","","10.8","","75","","","","10","","10","","32.2","","101.77","","","","","","NA"
"-123.18","49.19","VANCOUVER INTL A","1108395","2018-08-28 00:00","2018","08","28","00:00","15.4","","10.1","","70","","","","8","","9","","32.2","","101.79","","","","","","NA"
"-123.18","49.19","VANCOUVER INTL A","1108395","2018-08-28 01:00","2018","08","28","01:00","14.1","","11.2","","83","","","","12","","7","","32.2","","101.82","","","","","","Clear"
"-123.18","49.19","VANCOUVER INTL A","1108395","2018-08-28 02:00","2018","08","28","02:00","10.9","","8.8","","87","","","","33","","5","","32.2","","101.81","","","","","","NA"
"-123.18","49.19","VANCOUVER INTL A","1108395","2018-08-28 03:00","2018","08","28","03:00","11.7","","9.2","","85","","","","1","","7","","32.2","","101.82","","","","","","NA"
"-123.18","49.19","VANCOUVER INTL A","1108395","2018-08-28 04:00","2018","08","28","04:00","12.5","","8.3","","75","","","","7","","7","","32.2","","101.81","","","","","","Clear"
"-123.18","49.19","VANCOUVER INTL A","1108395","2018-08-28 05:00","2018","08","28","05:00","12.9","","9.1","","78","","","","2","","4","","32.2","","101.82","","","","","","NA"
"-123.18","49.19","VANCOUVER INTL A","1108395","2018-08-28 06:00","2018","08","28","06:00","12.1","","9.2","","82","","","","5","","3","","48.3","","101.84","","","","","","NA"
"-123.18","49.19","VANCOUVER INTL A","1108395","2018-08-28 07:00","2018","08","28","07:00","14.7","","11.7","","82","","","","15","","6","","48.3","","101.87","","","","","","Mainly Clear"
"-123.18","49.19","VANCOUVER INTL A","1108395","2018-08-28 08:00","2018","08","28","08:00","16.8","","10.2","","65","","","","10","","5","","48.3","","101.87","","","","","","NA"
"-123.18","49.19","VANCOUVER INTL A","1108395","2018-08-28 09:00","2018","08","28","09:00","19.0","","10.6","","58","","","","8","","6","","48.3","","101.88","","","","","","NA"
"-123.18","49.19","VANCOUVER INTL A","1108395","2018-08-28 10:00","2018","08","28","10:00","19.6","","12.8","","64","","","","29","","15","","48.3","","101.86","","","","","","Mainly Clear"
"-123.18","49.19","VANCOUVER INTL A","1108395","2018-08-28 11:00","2018","08","28","11:00","20.0","","12.4","","61","","","","28","","13","","48.3","","101.82","","","","","","NA"
"-123.18","49.19","VANCOUVER INTL A","1108395","2018-08-28 12:00","2018","08","28","12:00","20.3","","13.2","","63","","","","29","","9","","48.3","","101.77","","","","","","NA"
"-123.18","49.19","VANCOUVER INTL A","1108395","2018-08-28 13:00","2018","08","28","13:00","20.9","","13.7","","63","","","","25","","14","","48.3","","101.72","","","","","","Mainly Clear"
"-123.18","49.19","VANCOUVER INTL A","1108395","2018-08-28 14:00","2018","08","28","14:00","20.9","","13.2","","61","","","","25","","14","","48.3","","101.65","","","","","","NA"
"-123.18","49.19","VANCOUVER INTL A","1108395","2018-08-28 15:00","2018","08","28","15:00","20.2","","13.2","","64","","","","25","","14","","48.3","","101.60","","","","","","NA"
"-123.18","49.19","VANCOUVER INTL A","1108395","2018-08-28 16:00","2018","08","28","16:00","21.0","","12.2","","57","","","","24","","9","","48.3","","101.54","","","","","","Mostly Cloudy"
"-123.18","49.19","VANCOUVER INTL A","1108395","2018-08-28 17:00","2018","08","28","17:00","21.0","","12.1","","56","","","","30","","8","","48.3","","101.49","","","","","","NA"
"-123.18","49.19","VANCOUVER INTL A","1108395","2018-08-28 18:00","2018","08","28","18:00","19.1","","13.0","","68","","","","29","","8","","48.3","","101.44","","","","","","NA"
"-123.18","49.19","VANCOUVER INTL A","1108395","2018-08-28 19:00","2018","08","28","19:00","16.3","","13.6","","84","","","","29","","9","","32.2","","101.40","","","","","","Mostly Cloudy"
"-123.18","49.19","VANCOUVER INTL A","1108395","2018-08-28 20:00","2018","08","28","20:00","15.9","","14.0","","88","","","","31","","7","","32.2","","101.41","","","","","","NA"
"-123.18","49.19","VANCOUVER INTL A","1108395","2018-08-28 21:00","2018","08","28","21:00","16.4","","14.5","","88","","","","34","","4","","32.2","","101.35","","","","","","NA"
"-123.18","49.19","VANCOUVER INTL A","1108395","2018-08-28 22:00","2018","08","28","22:00","16.4","","13.4","","82","","","","34","","6","","32.2","","101.34","","","","","","Mainly Clear"
"-123.18","49.19","VANCOUVER INTL A","1108395","2018-08-28 23:00","2018","08","28","23:00","15.1","","13.2","","88","","","","32","","4","","32.2","","101.29","","","","","","NA"
"-123.18","49.19","VANCOUVER INTL A","1108395","2018-08-29 00:00","2018","08","29","00:00","16.7","","14.6","","87","","","","2","","5","","32.2","","101.25","","","","","","NA"
"-123.18","49.19","VANCOUVER INTL A","1108395","2018-08-29 01:00","2018","08","29","01:00","15.5","","13.2","","86","","","","2","","3","","32.2","","101.22","","","","","","Mostly Cloudy"
"-123.18","49.19","VANCOUVER INTL A","1108395","2018-08-29 02:00","2018","08","29","02:00","16.1","","15.2","","95","","","","14","","4","","32.2","","101.18","","","","","","NA"
"-123.18","49.19","VANCOUVER INTL A","1108395","2018-08-29 03:00","2018","08","29","03:00","14.8","","14.1","","96","","","","12","","6","","32.2","","101.15","","","","","","NA"
"-123.18","49.19","VANCOUVER INTL A","1108395","2018-08-29 04:00","2018","08","29","04:00","15.7","","13.0","","84","","","","9","","5","","32.2","","101.14","","","","","","Cloudy"
"-123.18","49.19","VANCOUVER INTL A","1108395","2018-08-29 05:00","2018","08","29","05:00","14.8","","13.3","","91","","","","10","","12","","32.2","","101.08","","","","","","NA"
"-123.18","49.19","VANCOUVER INTL A","1108395","2018-08-29 06:00","2018","08","29","06:00","15.0","","13.9","","93","","","","14","","9","","32.2","","101.10","","","","","","NA"
"-123.18","49.19","VANCOUVER INTL A","1108395","2018-08-29 07:00","2018","08","29","07:00","15.4","","13.9","","91","","","","9","","14","","32.2","","101.08","","","","","","Rain"
"-123.18","49.19","VANCOUVER INTL A","1108395","2018-08-29 08:00","2018","08","29","08:00","14.9","","13.9","","94","","","","10","","14","","24.1","","101.08","","","","","","Rain"
"-123.18","49.19","VANCOUVER INTL A","1108395","2018-08-29 09:00","2018","08","29","09:00","16.2","","14.7","","90","","","","10","","15","","12.9","","101.11","","","","","","NA"
"-123.18","49.19","VANCOUVER INTL A","1108395","2018-08-29 10:00","2018","08","29","10:00","15.8","","14.1","","89","","","","8","","13","","11.3","","101.07","","","","","","Rain Showers"
"-123.18","49.19","VANCOUVER INTL A","1108395","2018-08-29 11:00","2018","08","29","11:00","17.5","","14.5","","83","","","","11","","14","","12.9","","101.08","","","","","","NA"
"-123.18","49.19","VANCOUVER INTL A","1108395","2018-08-29 12:00","2018","08","29","12:00","19.6","","15.2","","76","","","","10","","11","","24.1","","101.06","","","","","","NA"
"-123.18","49.19","VANCOUVER INTL A","1108395","2018-08-29 13:00","2018","08","29","13:00","21.4","","14.2","","63","","","","11","","10","","24.1","","101.06","","25","","","","Cloudy"
"-123.18","49.19","VANCOUVER INTL A","1108395","2018-08-29 14:00","2018","08","29","14:00","20.4","","14.1","","67","","","","10","","14","","24.1","","101.08","","","","","","NA"
"-123.18","49.19","VANCOUVER INTL A","1108395","2018-08-29 15:00","2018","08","29","15:00","21.6","","13.5","","59","","","","13","","3","","24.1","","101.08","","25","","","","NA"
"-123.18","49.19","VANCOUVER INTL A","1108395","2018-08-29 16:00","2018","08","29","16:00","20.7","","15.3","","71","","","","28","","13","","24.1","","101.08","","25","","","","Mostly Cloudy"
"-123.18","49.19","VANCOUVER INTL A","1108395","2018-08-29 17:00","2018","08","29","17:00","19.0","","14.7","","76","","","","25","","14","","32.2","","101.09","","","","","","NA"
"-123.18","49.19","VANCOUVER INTL A","1108395","2018-08-29 18:00","2018","08","29","18:00","18.2","","13.5","","74","","","","25","","11","","32.2","","101.10","","","","","","NA"
"-123.18","49.19","VANCOUVER INTL A","1108395","2018-08-29 19:00","2018","08","29","19:00","17.4","","14.7","","84","","","","20","","9","","32.2","","101.12","","","","","","Mainly Clear"
"-123.18","49.19","VANCOUVER INTL A","1108395","2018-08-29 20:00","2018","08","29","20:00","17.1","","12.9","","76","","","","15","","4","","32.2","","101.16","","","","","","NA"
"-123.18","49.19","VANCOUVER INTL A","1108395","2018-08-29 21:00","2018","08","29","21:00","16.2","","13.0","","81","","","","10","","17","","32.2","","101.20","","","","","","NA"
"-123.18","49.19","VANCOUVER INTL A","1108395","2018-08-29 22:00","2018","08","29","22:00","15.9","","13.0","","83","","","","11","","17","","32.2","","101.22","","","","","","Mostly Cloudy"
"-123.18","49.19","VANCOUVER INTL A","1108395","2018-08-29 23:00","2018","08","29","23:00","14.9","","12.8","","87","","","","10","","13","","32.2","","101.25","","","","","","NA"
"-123.18","49.19","VANCOUVER INTL A","1108395","2018-08-30 00:00","2018","08","30","00:00","15.1","","12.8","","86","","","","11","","12","","32.2","","101.28","","","","","","NA"
"-123.18","49.19","VANCOUVER INTL A","1108395","2018-08-30 01:00","2018","08","30","01:00","14.3","","12.4","","89","","","","10","","16","","32.2","","101.31","","","","","","Mainly Clear"
"-123.18","49.19","VANCOUVER INTL A","1108395","2018-08-30 02:00","2018","08","30","02:00","14.3","","12.5","","89","","","","11","","13","","32.2","","101.33","","","","","","NA"
"-123.18","49.19","VANCOUVER INTL A","1108395","2018-08-30 03:00","2018","08","30","03:00","14.6","","12.9","","90","","","","9","","16","","32.2","","101.36","","","","","","NA"
"-123.18","49.19","VANCOUVER INTL A","1108395","2018-08-30 04:00","2018","08","30","04:00","14.4","","12.9","","91","","","","11","","21","","32.2","","101.38","","","","","","Mostly Cloudy"
"-123.18","49.19","VANCOUVER INTL A","1108395","2018-08-30 05:00","2018","08","30","05:00","14.5","","12.8","","89","","","","11","","15","","32.2","","101.40","","","","","","NA"
"-123.18","49.19","VANCOUVER INTL A","1108395","2018-08-30 06:00","2018","08","30","06:00","14.2","","12.8","","91","","","","11","","17","","24.1","","101.44","","","","","","NA"
"-123.18","49.19","VANCOUVER INTL A","1108395","2018-08-30 07:00","2018","08","30","07:00","14.6","","12.8","","89","","","","9","","18","","24.1","","101.50","","","","","","Cloudy"
"-123.18","49.19","VANCOUVER INTL A","1108395","2018-08-30 08:00","2018","08","30","08:00","15.5","","13.1","","86","","","","9","","15","","24.1","","101.51","","","","","","NA"
"-123.18","49.19","VANCOUVER INTL A","1108395","2018-08-30 09:00","2018","08","30","09:00","17.2","","13.5","","79","","","","12","","13","","24.1","","101.54","","","","","","NA"
"-123.18","49.19","VANCOUVER INTL A","1108395","2018-08-30 10:00","2018","08","30","10:00","18.5","","13.4","","72","","","","13","","10","","24.1","","101.55","","","","","","Mainly Clear"
"-123.18","49.19","VANCOUVER INTL A","1108395","2018-08-30 11:00","2018","08","30","11:00","19.2","","13.5","","70","","","","18","","5","","24.1","","101.58","","","","","","NA"
"-123.18","49.19","VANCOUVER INTL A","1108395","2018-08-30 12:00","2018","08","30","12:00","19.9","","15.0","","73","","","","22","","13","","32.2","","101.57","","","","","","NA"
"-123.18","49.19","VANCOUVER INTL A","1108395","2018-08-30 13:00","2018","08","30","13:00","20.5","","14.4","","68","","","","15","","12","","48.3","","101.57","","","","","","Mainly Clear"
"-123.18","49.19","VANCOUVER INTL A","1108395","2018-08-30 14:00","2018","08","30","14:00","21.1","","14.4","","65","","","","20","","19","","48.3","","101.58","","25","","","","NA"
"-123.18","49.19","VANCOUVER INTL A","1108395","2018-08-30 15:00","2018","08","30","15:00","19.5","","14.1","","71","","","","20","","12","","48.3","","101.61","","","","","","NA"
"-123.18","49.19","VANCOUVER INTL A","1108395","2018-08-30 16:00","2018","08","30","16:00","20.9","","13.6","","63","","","","21","","11","","48.3","","101.57","","","","","","Mainly Clear"
"-123.18","49.19","VANCOUVER INTL A","1108395","2018-08-30 17:00","2018","08","30","17:00","20.5","","14.3","","67","","","","22","","12","","48.3","","101.55","","","","","","NA"
"-123.18","49.19","VANCOUVER INTL A","1108395","2018-08-30 18:00","2018","08","30","18:00","20.3","","12.5","","60","","","","16","","10","","48.3","","101.54","","","","","","NA"
"-123.18","49.19","VANCOUVER INTL A","1108395","2018-08-30 19:00","2018","08","30","19:00","18.8","","12.9","","68","","","","14","","10","","48.3","","101.54","","","","","","Mainly Clear"
"-123.18","49.19","VANCOUVER INTL A","1108395","2018-08-30 20:00","2018","08","30","20:00","16.8","","12.0","","73","","","","10","","12","","32.2","","101.60","","","","","","NA"
"-123.18","49.19","VANCOUVER INTL A","1108395","2018-08-30 21:00","2018","08","30","21:00","15.4","","12.5","","83","","","","9","","13","","32.2","","101.63","","","","","","NA"
"-123.18","49.19","VANCOUVER INTL A","1108395","2018-08-30 22:00","2018","08","30","22:00","15.2","","12.2","","82","","","","10","","14","","32.2","","101.64","","","","","","Clear"
"-123.18","49.19","VANCOUVER INTL A","1108395","2018-08-30 23:00","2018","08","30","23:00","15.4","","12.6","","83","","","","8","","11","","32.2","","101.65","","","","","","NA"
"-123.18","49.19","VANCOUVER INTL A","1108395","2018-08-31 00:00","2018","08","31","00:00","14.1","","12.0","","87","","","","9","","10","","32.2","","101.68","","","","","","NA"
"-123.18","49.19","VANCOUVER INTL A","1108395","2018-08-31 01:00","2018","08","31","01:00","13.7","","11.7","","88","","","","9","","12","","32.2","","101.70","","","","","","Mainly Clear"
"-123.18","49.19","VANCOUVER INTL A","1108395","2018-08-31 02:00","2018","08","31","02:00","15.1","","12.6","","85","","","","7","","9","","32.2","","101.70","","","","","","NA"
"-123.18","49.19","VANCOUVER INTL A","1108395","2018-08-31 03:00","2018","08","31","03:00","14.9","","12.2","","84","","","","7","","5","","32.2","","101.73","","","","","","NA"
"-123.18","49.19","VANCOUVER INTL A","1108395","2018-08-31 04:00","2018","08","31","04:00","14.0","","11.8","","86","","","","8","","7","","32.2","","101.73","","","","","","Mostly Cloudy"
"-123.18","49.19","VANCOUVER INTL A","1108395","2018-08-31 05:00","2018","08","31","05:00","13.3","","11.8","","90","","","","","","0","","48.3","","101.76","","","","","","NA"
"-123.18","49.19","VANCOUVER INTL A","1108395","2018-08-31 06:00","2018","08","31","06:00","13.8","","11.5","","86","","","","11","","5","","48.3","","101.81","","","","","","NA"
"-123.18","49.19","VANCOUVER INTL A","1108395","2018-08-31 07:00","2018","08","31","07:00","14.9","","12.5","","86","","","","10","","12","","48.3","","101.87","","","","","","Cloudy"
"-123.18","49.19","VANCOUVER INTL A","1108395","2018-08-31 08:00","2018","08","31","08:00","16.4","","13.1","","81","","","","10","","11","","48.3","","101.91","","","","","","NA"
"-123.18","49.19","VANCOUVER INTL A","1108395","2018-08-31 09:00","2018","08","31","09:00","17.9","","13.6","","76","","","","11","","5","","48.3","","101.93","","","","","","NA"
"-123.18","49.19","VANCOUVER INTL A","1108395","2018-08-31 10:00","2018","08","31","10:00","18.3","","12.9","","70","","","","21","","15","","48.3","","101.94","","","","","","Mostly Cloudy"
"-123.18","49.19","VANCOUVER INTL A","1108395","2018-08-31 11:00","2018","08","31","11:00","18.5","","13.4","","72","","","","21","","13","","48.3","","101.98","","","","","","NA"
"-123.18","49.19","VANCOUVER INTL A","1108395","2018-08-31 12:00","2018","08","31","12:00","19.7","","13.2","","66","","","","22","","10","","48.3","","101.92","","","","","","NA"
"-123.18","49.19","VANCOUVER INTL A","1108395","2018-08-31 13:00","2018","08","31","13:00","20.8","","11.4","","55","","","","21","","20","","48.3","","101.92","","","","","","Mostly Cloudy"
"-123.18","49.19","VANCOUVER INTL A","1108395","2018-08-31 14:00","2018","08","31","14:00","21.6","","12.1","","54","","","","12","","23","","48.3","","101.90","","","","","","NA"
"-123.18","49.19","VANCOUVER INTL A","1108395","2018-08-31 15:00","2018","08","31","15:00","20.7","","11.1","","54","","","","13","","23","","48.3","","101.83","","","","","","NA"
"-123.18","49.19","VANCOUVER INTL A","1108395","2018-08-31 16:00","2018","08","31","16:00","19.5","","11.6","","60","","","","11","","19","","48.3","","101.81","","","","","","Mostly Cloudy"
"-123.18","49.19","VANCOUVER INTL A","1108395","2018-08-31 17:00","2018","08","31","17:00","19.1","","11.2","","60","","","","11","","21","","48.3","","101.75","","","","","","NA"
"-123.18","49.19","VANCOUVER INTL A","1108395","2018-08-31 18:00","2018","08","31","18:00","18.5","","11.0","","61","","","","12","","14","","32.2","","101.74","","","","","","NA"
"-123.18","49.19","VANCOUVER INTL A","1108395","2018-08-31 19:00","2018","08","31","19:00","17.3","","10.9","","66","","","","10","","22","","32.2","","101.72","","","","","","Cloudy"
"-123.18","49.19","VANCOUVER INTL A","1108395","2018-08-31 20:00","2018","08","31","20:00","17.0","","10.4","","65","","","","10","","23","","32.2","","101.77","","","","","","NA"
"-123.18","49.19","VANCOUVER INTL A","1108395","2018-08-31 21:00","2018","08","31","21:00","16.1","","10.3","","68","","","","10","","23","","32.2","","101.79","","","","","","NA"
"-123.18","49.19","VANCOUVER INTL A","1108395","2018-08-31 22:00","2018","08","31","22:00","15.4","","10.0","","70","","","","10","","20","","32.2","","101.77","","","","","","Mainly Clear"
"-123.18","49.19","VANCOUVER INTL A","1108395","2018-08-31 23:00","2018","08","31","23:00","14.8","","9.9","","72","","","","10","","21","","32.2","","101.76","","","","","","NA"
