"Longitude (x)","Latitude (y)","Station Name","Climate ID","Date/Time (LST)","Year","Month","Day","Time (LST)","Temp (°C)","Temp Flag","Dew Point Temp (°C)","Dew Point Temp Flag","Rel Hum (%)","Rel Hum Flag","Precip. Amount (mm)","Precip. Amount Flag","Wind Dir (10s deg)","Wind Dir Flag","Wind Spd (km/h)","Wind Spd Flag","Visibility (km)","Visibility Flag","Stn Press (kPa)","Stn Press Flag","Hmdx","Hmdx Flag","Wind Chill","Wind Chill Flag","Weather"
"-123.18","49.19","VANCOUVER INTL A","1108395","2021-09-01 00:00","2021","09","01","00:00","11.5","","9.4","","87","","","","10","","14","","24.1","","101.61","","","","","","NA"
"-123.18","49.19","VANCOUVER INTL A","1108395","2021-09-01 01:00","2021","09","01","01:00","11.1","","9.0","","87","","","","9","","9","","24.1","","101.65","","","","","","Mainly Clear"
"-123.18","49.19","VANCOUVER INTL A","1108395","2021-09-01 02:00","2021","09","01","02:00","11.3","","9.2","","87","","","","9","","9","","24.1","","101.66","","","","","","NA"
"-123.18","49.19","VANCOUVER INTL A","1108395","2021-09-01 03:00","2021","09","01","03:00","11.0","","9.1","","88","","","","8","","8","","24.1","","101.70","","","","","","NA"
"-123.18","49.19","VANCOUVER INTL A","1108395","2021-09-01 04:00","2021","09","01","04:00","9.0","","8.0","","93","","","","11","","3","","24.1","","101.74","","","","","","Clear"
"-123.18","49.19","VANCOUVER INTL A","1108395","2021-09-01 05:00","2021","09","01","05:00","9.6","","8.5","","93","","","","9","","8","","32.2","","101.77","","","","","","NA"
"-123.18","49.19","VANCOUVER INTL A","1108395","2021-09-01 06:00","2021","09","01","06:00","10.5","","8.4","","86","","","","5","","5","","48.3","","101.79","","","","","","NA"
"-123.18","49.19","VANCOUVER INTL A","1108395","2021-09-01 07:00","2021","09","01","07:00","12.3","","9.5","","82","","","","11","","4","","48.3","","101.82","","","","","","Clear"
"-123.18","49.19","VANCOUVER INTL A","1108395","2021-09-01 08:00","2021","09","01","08:00","14.2","","9.2","","72","","","","20","","6","","48.3","","101.82","","","","","","NA"
"-123.18","49.19","VANCOUVER INTL A","1108395","2021-09-01 09:00","2021","09","01","09:00","14.8","","9.6","","71","","","","25","","9","","48.3","","101.83","","","","","","NA"
"-123.18","49.19","VANCOUVER INTL A","1108395","2021-09-01 10:00","2021","09","01","10:00","15.3","","9.8","","69","","","","25","","12","","48.3","","101.83","","","","","","Clear"
"-123.18","49.19","VANCOUVER INTL A","1108395","2021-09-01 11:00","2021","09","01","11:00","15.6","","9.9","","69","","","","24","","13","","48.3","","101.79","","","","","","NA"
"-123.18","49.19","VANCOUVER INTL A","1108395","2021-09-01 12:00","2021","09","01","12:00","16.4","","11.4","","72","","","","27","","13","","48.3","","101.75","","","","","","NA"
"-123.18","49.19","VANCOUVER INTL A","1108395","2021-09-01 13:00","2021","09","01","13:00","17.5","","11.7","","69","","","","26","","15","","48.3","","101.72","","","","","","Clear"
"-123.18","49.19","VANCOUVER INTL A","1108395","2021-09-01 14:00","2021","09","01","14:00","18.6","","11.8","","64","","","","29","","17","","48.3","","101.69","","","","","","NA"
"-123.18","49.19","VANCOUVER INTL A","1108395","2021-09-01 15:00","2021","09","01","15:00","18.5","","12.3","","67","","","","29","","13","","48.3","","101.65","","","","","","NA"
"-123.18","49.19","VANCOUVER INTL A","1108395","2021-09-01 16:00","2021","09","01","16:00","18.1","","12.0","","67","","","","28","","15","","48.3","","101.64","","","","","","Mainly Clear"
"-123.18","49.19","VANCOUVER INTL A","1108395","2021-09-01 17:00","2021","09","01","17:00","17.7","","12.4","","71","","","","29","","16","","48.3","","101.61","","","","","","NA"
"-123.18","49.19","VANCOUVER INTL A","1108395","2021-09-01 18:00","2021","09","01","18:00","16.9","","12.6","","76","","","","29","","13","","48.3","","101.58","","","","","","NA"
"-123.18","49.19","VANCOUVER INTL A","1108395","2021-09-01 19:00","2021","09","01","19:00","15.2","","13.3","","88","","","","30","","12","","48.3","","101.56","","","","","","Clear"
"-123.18","49.19","VANCOUVER INTL A","1108395","2021-09-01 20:00","2021","09","01","20:00","14.5","","13.0","","90","","","","32","","13","","32.2","","101.59","","","","","","NA"
"-123.18","49.19","VANCOUVER INTL A","1108395","2021-09-01 21:00","2021","09","01","21:00","13.3","","12.4","","94","","","","33","","14","","32.2","","101.60","","","","","","NA"
"-123.18","49.19","VANCOUVER INTL A","1108395","2021-09-01 22:00","2021","09","01","22:00","14.2","","12.2","","88","","","","1","","6","","32.2","","101.60","","","","","","Clear"
"-123.18","49.19","VANCOUVER INTL A","1108395","2021-09-01 23:00","2021","09","01","23:00","12.1","","10.8","","92","","","","3","","5","","32.2","","101.61","","","","","","NA"
"-123.18","49.19","VANCOUVER INTL A","1108395","2021-09-02 00:00","2021","09","02","00:00","10.7","","8.8","","88","","","","28","","5","","32.2","","101.67","","","","","","NA"
"-123.18","49.19","VANCOUVER INTL A","1108395","2021-09-02 01:00","2021","09","02","01:00","14.1","","9.9","","76","","","","16","","5","","32.2","","101.70","","","","","","Clear"
"-123.18","49.19","VANCOUVER INTL A","1108395","2021-09-02 02:00","2021","09","02","02:00","12.5","","10.4","","87","","","","35","","8","","32.2","","101.71","","","","","","NA"
"-123.18","49.19","VANCOUVER INTL A","1108395","2021-09-02 03:00","2021","09","02","03:00","11.8","","10.2","","89","","","","35","","13","","32.2","","101.75","","","","","","NA"
"-123.18","49.19","VANCOUVER INTL A","1108395","2021-09-02 04:00","2021","09","02","04:00","12.9","","11.0","","88","","","","34","","13","","32.2","","101.75","","","","","","Mainly Clear"
"-123.18","49.19","VANCOUVER INTL A","1108395","2021-09-02 05:00","2021","09","02","05:00","11.9","","10.1","","88","","","","34","","9","","32.2","","101.80","","","","","","NA"
"-123.18","49.19","VANCOUVER INTL A","1108395","2021-09-02 06:00","2021","09","02","06:00","12.8","","10.2","","85","","","","33","","13","","48.3","","101.83","","","","","","NA"
"-123.18","49.19","VANCOUVER INTL A","1108395","2021-09-02 07:00","2021","09","02","07:00","14.5","","11.1","","80","","","","5","","7","","48.3","","101.88","","","","","","Clear"
"-123.18","49.19","VANCOUVER INTL A","1108395","2021-09-02 08:00","2021","09","02","08:00","16.8","","13.8","","82","","","","31","","16","","48.3","","101.91","","","","","","NA"
"-123.18","49.19","VANCOUVER INTL A","1108395","2021-09-02 09:00","2021","09","02","09:00","18.0","","12.1","","68","","","","31","","15","","48.3","","101.91","","","","","","NA"
"-123.18","49.19","VANCOUVER INTL A","1108395","2021-09-02 10:00","2021","09","02","10:00","18.9","","14.2","","74","","","","30","","15","","48.3","","101.92","","","","","","Clear"
"-123.18","49.19","VANCOUVER INTL A","1108395","2021-09-02 11:00","2021","09","02","11:00","19.4","","13.9","","70","","","","29","","18","","48.3","","101.91","","","","","","NA"
"-123.18","49.19","VANCOUVER INTL A","1108395","2021-09-02 12:00","2021","09","02","12:00","19.6","","13.2","","66","","","","29","","13","","48.3","","101.88","","","","","","NA"
"-123.18","49.19","VANCOUVER INTL A","1108395","2021-09-02 13:00","2021","09","02","13:00","20.4","","11.5","","56","","","","25","","11","","48.3","","101.84","","","","","","Clear"
"-123.18","49.19","VANCOUVER INTL A","1108395","2021-09-02 14:00","2021","09","02","14:00","20.2","","12.4","","60","","","","24","","10","","48.3","","101.79","","","","","","NA"
"-123.18","49.19","VANCOUVER INTL A","1108395","2021-09-02 15:00","2021","09","02","15:00","20.2","","13.0","","63","","","","27","","13","","48.3","","101.76","","","","","","NA"
"-123.18","49.19","VANCOUVER INTL A","1108395","2021-09-02 16:00","2021","09","02","16:00","20.7","","12.8","","60","","","","29","","8","","48.3","","101.73","","","","","","Clear"
"-123.18","49.19","VANCOUVER INTL A","1108395","2021-09-02 17:00","2021","09","02","17:00","20.3","","13.4","","64","","","","28","","7","","48.3","","101.68","","","","","","NA"
"-123.18","49.19","VANCOUVER INTL A","1108395","2021-09-02 18:00","2021","09","02","18:00","18.7","","14.0","","74","","","","29","","7","","48.3","","101.64","","","","","","NA"
"-123.18","49.19","VANCOUVER INTL A","1108395","2021-09-02 19:00","2021","09","02","19:00","16.4","","13.9","","85","","","","28","","6","","48.3","","101.62","","","","","","Mainly Clear"
"-123.18","49.19","VANCOUVER INTL A","1108395","2021-09-02 20:00","2021","09","02","20:00","16.2","","14.2","","88","","","","16","","5","","32.2","","101.64","","","","","","NA"
"-123.18","49.19","VANCOUVER INTL A","1108395","2021-09-02 21:00","2021","09","02","21:00","15.9","","14.2","","89","","","","15","","3","","32.2","","101.66","","","","","","NA"
"-123.18","49.19","VANCOUVER INTL A","1108395","2021-09-02 22:00","2021","09","02","22:00","13.2","","10.7","","85","","","","36","","3","","32.2","","101.68","","","","","","Clear"
"-123.18","49.19","VANCOUVER INTL A","1108395","2021-09-02 23:00","2021","09","02","23:00","15.6","","9.2","","65","","","","7","","8","","32.2","","101.68","","","","","","NA"
"-123.18","49.19","VANCOUVER INTL A","1108395","2021-09-03 00:00","2021","09","03","00:00","14.0","","10.7","","81","","","","7","","10","","32.2","","101.68","","","","","","NA"
"-123.18","49.19","VANCOUVER INTL A","1108395","2021-09-03 01:00","2021","09","03","01:00","15.7","","11.4","","75","","","","8","","13","","32.2","","101.67","","","","","","Clear"
"-123.18","49.19","VANCOUVER INTL A","1108395","2021-09-03 02:00","2021","09","03","02:00","13.1","","9.1","","77","","","","9","","11","","32.2","","101.69","","","","","","NA"
"-123.18","49.19","VANCOUVER INTL A","1108395","2021-09-03 03:00","2021","09","03","03:00","12.2","","8.8","","79","","","","9","","7","","32.2","","101.72","","","","","","NA"
"-123.18","49.19","VANCOUVER INTL A","1108395","2021-09-03 04:00","2021","09","03","04:00","13.5","","8.8","","73","","","","6","","8","","48.3","","101.71","","","","","","Clear"
"-123.18","49.19","VANCOUVER INTL A","1108395","2021-09-03 05:00","2021","09","03","05:00","12.5","","8.9","","79","","","","8","","5","","48.3","","101.70","","","","","","NA"
"-123.18","49.19","VANCOUVER INTL A","1108395","2021-09-03 06:00","2021","09","03","06:00","13.0","","9.2","","77","","","","1","","9","","48.3","","101.74","","","","","","NA"
"-123.18","49.19","VANCOUVER INTL A","1108395","2021-09-03 07:00","2021","09","03","07:00","16.1","","9.4","","64","","","","1","","4","","48.3","","101.76","","","","","","Mainly Clear"
"-123.18","49.19","VANCOUVER INTL A","1108395","2021-09-03 08:00","2021","09","03","08:00","18.6","","9.2","","53","","","","1","","11","","48.3","","101.75","","","","","","NA"
"-123.18","49.19","VANCOUVER INTL A","1108395","2021-09-03 09:00","2021","09","03","09:00","19.5","","9.9","","53","","","","1","","9","","48.3","","101.76","","","","","","NA"
"-123.18","49.19","VANCOUVER INTL A","1108395","2021-09-03 10:00","2021","09","03","10:00","20.6","","8.5","","45","","","","1","","9","","48.3","","101.76","","","","","","Mostly Cloudy"
"-123.18","49.19","VANCOUVER INTL A","1108395","2021-09-03 11:00","2021","09","03","11:00","21.0","","8.1","","42","","","","1","","9","","48.3","","101.76","","","","","","NA"
"-123.18","49.19","VANCOUVER INTL A","1108395","2021-09-03 12:00","2021","09","03","12:00","23.9","","7.7","","34","","","","2","","4","","48.3","","101.75","","","","","","NA"
"-123.18","49.19","VANCOUVER INTL A","1108395","2021-09-03 13:00","2021","09","03","13:00","22.5","","9.7","","43","","","","2","","9","","48.3","","101.73","","","","","","Cloudy"
"-123.18","49.19","VANCOUVER INTL A","1108395","2021-09-03 14:00","2021","09","03","14:00","21.7","","10.4","","48","","","","27","","9","","48.3","","101.71","","","","","","NA"
"-123.18","49.19","VANCOUVER INTL A","1108395","2021-09-03 15:00","2021","09","03","15:00","20.9","","9.0","","45","","","","","","","M","48.3","","101.65","","","","","","NA"
"-123.18","49.19","VANCOUVER INTL A","1108395","2021-09-03 16:00","2021","09","03","16:00","18.6","","13.6","","72","","","","30","","13","","40.2","","101.65","","","","","","Mostly Cloudy"
"-123.18","49.19","VANCOUVER INTL A","1108395","2021-09-03 17:00","2021","09","03","17:00","18.3","","13.1","","71","","","","31","","5","","40.2","","101.62","","","","","","NA"
"-123.18","49.19","VANCOUVER INTL A","1108395","2021-09-03 18:00","2021","09","03","18:00","16.8","","15.0","","89","","","","31","","11","","40.2","","101.58","","","","","","NA"
"-123.18","49.19","VANCOUVER INTL A","1108395","2021-09-03 19:00","2021","09","03","19:00","15.7","","12.7","","82","","","","32","","10","","32.2","","101.53","","","","","","Mostly Cloudy"
"-123.18","49.19","VANCOUVER INTL A","1108395","2021-09-03 20:00","2021","09","03","20:00","16.1","","13.4","","84","","","","36","","3","","32.2","","101.55","","","","","","NA"
"-123.18","49.19","VANCOUVER INTL A","1108395","2021-09-03 21:00","2021","09","03","21:00","15.6","","14.5","","93","","","","21","","4","","32.2","","101.51","","","","","","NA"
"-123.18","49.19","VANCOUVER INTL A","1108395","2021-09-03 22:00","2021","09","03","22:00","14.1","","12.3","","89","","","","2","","8","","32.2","","101.48","","","","","","Clear"
"-123.18","49.19","VANCOUVER INTL A","1108395","2021-09-03 23:00","2021","09","03","23:00","13.5","","11.7","","89","","","","36","","2","","32.2","","101.49","","","","","","NA"
"-123.18","49.19","VANCOUVER INTL A","1108395","2021-09-04 00:00","2021","09","04","00:00","13.1","","11.5","","90","","","","4","","8","","32.2","","101.49","","","","","","NA"
"-123.18","49.19","VANCOUVER INTL A","1108395","2021-09-04 01:00","2021","09","04","01:00","13.9","","10.7","","81","","","","7","","7","","32.2","","101.46","","","","","","Clear"
"-123.18","49.19","VANCOUVER INTL A","1108395","2021-09-04 02:00","2021","09","04","02:00","12.8","","11.2","","90","","","","10","","10","","32.2","","101.43","","","","","","NA"
"-123.18","49.19","VANCOUVER INTL A","1108395","2021-09-04 03:00","2021","09","04","03:00","13.9","","12.3","","90","","","","10","","13","","32.2","","101.41","","","","","","NA"
"-123.18","49.19","VANCOUVER INTL A","1108395","2021-09-04 04:00","2021","09","04","04:00","14.4","","11.8","","84","","","","11","","12","","32.2","","101.40","","","","","","Cloudy"
"-123.18","49.19","VANCOUVER INTL A","1108395","2021-09-04 05:00","2021","09","04","05:00","14.3","","11.9","","85","","","","9","","14","","32.2","","101.36","","","","","","NA"
"-123.18","49.19","VANCOUVER INTL A","1108395","2021-09-04 06:00","2021","09","04","06:00","14.7","","11.9","","83","","","","11","","9","","32.2","","101.39","","","","","","NA"
"-123.18","49.19","VANCOUVER INTL A","1108395","2021-09-04 07:00","2021","09","04","07:00","15.2","","11.4","","77","","","","10","","12","","32.2","","101.37","","","","","","Cloudy"
"-123.18","49.19","VANCOUVER INTL A","1108395","2021-09-04 08:00","2021","09","04","08:00","16.3","","10.5","","68","","","","11","","18","","40.2","","101.38","","","","","","NA"
"-123.18","49.19","VANCOUVER INTL A","1108395","2021-09-04 09:00","2021","09","04","09:00","17.4","","11.6","","68","","","","9","","14","","40.2","","101.37","","","","","","NA"
"-123.18","49.19","VANCOUVER INTL A","1108395","2021-09-04 10:00","2021","09","04","10:00","18.3","","11.3","","63","","","","9","","15","","40.2","","101.39","","","","","","Cloudy"
"-123.18","49.19","VANCOUVER INTL A","1108395","2021-09-04 11:00","2021","09","04","11:00","19.3","","10.3","","56","","","","10","","14","","40.2","","101.39","","","","","","NA"
"-123.18","49.19","VANCOUVER INTL A","1108395","2021-09-04 12:00","2021","09","04","12:00","18.5","","12.9","","70","","","","2","","10","","24.1","","101.45","","","","","","Rain"
"-123.18","49.19","VANCOUVER INTL A","1108395","2021-09-04 13:00","2021","09","04","13:00","17.5","","14.1","","80","","","","2","","16","","24.1","","101.46","","","","","","Rain"
"-123.18","49.19","VANCOUVER INTL A","1108395","2021-09-04 14:00","2021","09","04","14:00","16.1","","13.9","","87","","","","3","","13","","24.1","","101.56","","","","","","Moderate Rain"
"-123.18","49.19","VANCOUVER INTL A","1108395","2021-09-04 15:00","2021","09","04","15:00","15.4","","14.2","","93","","","","4","","21","","16.1","","101.54","","","","","","Moderate Rain"
"-123.18","49.19","VANCOUVER INTL A","1108395","2021-09-04 16:00","2021","09","04","16:00","15.5","","14.2","","92","","","","5","","21","","16.1","","101.52","","","","","","Rain"
"-123.18","49.19","VANCOUVER INTL A","1108395","2021-09-04 17:00","2021","09","04","17:00","15.3","","14.3","","93","","","","6","","16","","16.1","","101.50","","","","","","Rain"
"-123.18","49.19","VANCOUVER INTL A","1108395","2021-09-04 18:00","2021","09","04","18:00","15.3","","14.7","","96","","","","8","","8","","12.9","","101.52","","","","","","Rain"
"-123.18","49.19","VANCOUVER INTL A","1108395","2021-09-04 19:00","2021","09","04","19:00","15.4","","14.6","","94","","","","6","","15","","16.1","","101.50","","","","","","Rain"
"-123.18","49.19","VANCOUVER INTL A","1108395","2021-09-04 20:00","2021","09","04","20:00","15.4","","14.7","","95","","","","7","","18","","16.1","","101.51","","","","","","Rain"
"-123.18","49.19","VANCOUVER INTL A","1108395","2021-09-04 21:00","2021","09","04","21:00","15.4","","14.6","","95","","","","9","","13","","24.1","","101.48","","","","","","NA"
"-123.18","49.19","VANCOUVER INTL A","1108395","2021-09-04 22:00","2021","09","04","22:00","15.2","","14.7","","96","","","","11","","16","","32.2","","101.49","","","","","","Cloudy"
"-123.18","49.19","VANCOUVER INTL A","1108395","2021-09-04 23:00","2021","09","04","23:00","15.2","","14.6","","97","","","","9","","12","","32.2","","101.49","","","","","","NA"
"-123.18","49.19","VANCOUVER INTL A","1108395","2021-09-05 00:00","2021","09","05","00:00","15.2","","14.5","","95","","","","9","","10","","32.2","","101.53","","","","","","NA"
"-123.18","49.19","VANCOUVER INTL A","1108395","2021-09-05 01:00","2021","09","05","01:00","15.4","","14.5","","94","","","","7","","12","","32.2","","101.52","","","","","","Cloudy"
"-123.18","49.19","VANCOUVER INTL A","1108395","2021-09-05 02:00","2021","09","05","02:00","15.1","","14.6","","97","","","","9","","13","","24.1","","101.50","","","","","","NA"
"-123.18","49.19","VANCOUVER INTL A","1108395","2021-09-05 03:00","2021","09","05","03:00","15.1","","14.7","","97","","","","8","","9","","24.1","","101.50","","","","","","NA"
"-123.18","49.19","VANCOUVER INTL A","1108395","2021-09-05 04:00","2021","09","05","04:00","15.5","","14.9","","96","","","","10","","5","","24.1","","101.50","","","","","","Cloudy"
"-123.18","49.19","VANCOUVER INTL A","1108395","2021-09-05 05:00","2021","09","05","05:00","15.1","","14.8","","98","","","","10","","8","","24.1","","101.51","","","","","","NA"
"-123.18","49.19","VANCOUVER INTL A","1108395","2021-09-05 06:00","2021","09","05","06:00","15.5","","15.1","","97","","","","9","","6","","32.2","","101.55","","","","","","NA"
"-123.18","49.19","VANCOUVER INTL A","1108395","2021-09-05 07:00","2021","09","05","07:00","16.0","","15.7","","98","","","","9","","7","","32.2","","101.56","","","","","","Cloudy"
"-123.18","49.19","VANCOUVER INTL A","1108395","2021-09-05 08:00","2021","09","05","08:00","16.6","","15.8","","95","","","","9","","5","","32.2","","101.59","","","","","","NA"
"-123.18","49.19","VANCOUVER INTL A","1108395","2021-09-05 09:00","2021","09","05","09:00","17.4","","16.0","","91","","","","13","","10","","32.2","","101.60","","","","","","NA"
"-123.18","49.19","VANCOUVER INTL A","1108395","2021-09-05 10:00","2021","09","05","10:00","17.9","","16.0","","89","","","","15","","10","","32.2","","101.64","","","","","","Cloudy"
"-123.18","49.19","VANCOUVER INTL A","1108395","2021-09-05 11:00","2021","09","05","11:00","18.9","","15.7","","81","","","","18","","9","","32.2","","101.65","","","","","","NA"
"-123.18","49.19","VANCOUVER INTL A","1108395","2021-09-05 12:00","2021","09","05","12:00","19.1","","16.9","","87","","","","30","","13","","32.2","","101.67","","","","","","NA"
"-123.18","49.19","VANCOUVER INTL A","1108395","2021-09-05 13:00","2021","09","05","13:00","18.4","","16.1","","87","","","","25","","11","","32.2","","101.68","","","","","","Cloudy"
"-123.18","49.19","VANCOUVER INTL A","1108395","2021-09-05 14:00","2021","09","05","14:00","18.8","","15.7","","82","","","","26","","8","","32.2","","101.67","","","","","","NA"
"-123.18","49.19","VANCOUVER INTL A","1108395","2021-09-05 15:00","2021","09","05","15:00","18.5","","15.4","","82","","","","30","","7","","32.2","","101.62","","","","","","NA"
"-123.18","49.19","VANCOUVER INTL A","1108395","2021-09-05 16:00","2021","09","05","16:00","18.1","","15.1","","82","","","","25","","3","","32.2","","101.57","","","","","","Mostly Cloudy"
"-123.18","49.19","VANCOUVER INTL A","1108395","2021-09-05 17:00","2021","09","05","17:00","18.5","","15.1","","80","","","","29","","9","","32.2","","101.54","","","","","","NA"
"-123.18","49.19","VANCOUVER INTL A","1108395","2021-09-05 18:00","2021","09","05","18:00","17.1","","15.4","","90","","","","30","","10","","32.2","","101.54","","","","","","NA"
"-123.18","49.19","VANCOUVER INTL A","1108395","2021-09-05 19:00","2021","09","05","19:00","16.4","","15.3","","93","","","","29","","3","","32.2","","101.51","","","","","","Mostly Cloudy"
"-123.18","49.19","VANCOUVER INTL A","1108395","2021-09-05 20:00","2021","09","05","20:00","17.1","","15.0","","87","","","","","","0","","32.2","","101.56","","","","","","NA"
"-123.18","49.19","VANCOUVER INTL A","1108395","2021-09-05 21:00","2021","09","05","21:00","16.9","","15.3","","90","","","","36","","6","","32.2","","101.58","","","","","","NA"
"-123.18","49.19","VANCOUVER INTL A","1108395","2021-09-05 22:00","2021","09","05","22:00","16.0","","15.0","","94","","","","15","","8","","32.2","","101.57","","","","","","Mostly Cloudy"
"-123.18","49.19","VANCOUVER INTL A","1108395","2021-09-05 23:00","2021","09","05","23:00","16.1","","14.6","","91","","","","36","","1","","32.2","","101.61","","","","","","NA"
"-123.18","49.19","VANCOUVER INTL A","1108395","2021-09-06 00:00","2021","09","06","00:00","15.6","","14.6","","93","","","","9","","4","","32.2","","101.66","","","","","","NA"
"-123.18","49.19","VANCOUVER INTL A","1108395","2021-09-06 01:00","2021","09","06","01:00","14.7","","14.1","","96","","","","8","","10","","32.2","","101.66","","","","","","Mainly Clear"
"-123.18","49.19","VANCOUVER INTL A","1108395","2021-09-06 02:00","2021","09","06","02:00","14.2","","13.7","","97","","","","9","","10","","24.1","","101.71","","","","","","NA"
"-123.18","49.19","VANCOUVER INTL A","1108395","2021-09-06 03:00","2021","09","06","03:00","13.7","","13.2","","97","","","","9","","12","","24.1","","101.78","","","","","","NA"
"-123.18","49.19","VANCOUVER INTL A","1108395","2021-09-06 04:00","2021","09","06","04:00","13.2","","12.6","","96","","","","10","","9","","32.2","","101.82","","","","","","Mainly Clear"
"-123.18","49.19","VANCOUVER INTL A","1108395","2021-09-06 05:00","2021","09","06","05:00","13.0","","12.4","","96","","","","10","","10","","32.2","","101.85","","","","","","NA"
"-123.18","49.19","VANCOUVER INTL A","1108395","2021-09-06 06:00","2021","09","06","06:00","13.9","","13.2","","96","","","","9","","11","","32.2","","101.90","","","","","","NA"
"-123.18","49.19","VANCOUVER INTL A","1108395","2021-09-06 07:00","2021","09","06","07:00","15.0","","13.3","","90","","","","9","","16","","40.2","","101.97","","","","","","Mainly Clear"
"-123.18","49.19","VANCOUVER INTL A","1108395","2021-09-06 08:00","2021","09","06","08:00","15.0","","14.3","","96","","","","10","","13","","24.1","","102.04","","","","","","NA"
"-123.18","49.19","VANCOUVER INTL A","1108395","2021-09-06 09:00","2021","09","06","09:00","16.6","","13.6","","82","","","","9","","18","","32.2","","102.09","","","","","","NA"
"-123.18","49.19","VANCOUVER INTL A","1108395","2021-09-06 10:00","2021","09","06","10:00","17.5","","13.1","","75","","","","12","","18","","40.2","","102.14","","","","","","Mostly Cloudy"
"-123.18","49.19","VANCOUVER INTL A","1108395","2021-09-06 11:00","2021","09","06","11:00","18.4","","12.9","","70","","","","14","","17","","40.2","","102.13","","","","","","NA"
"-123.18","49.19","VANCOUVER INTL A","1108395","2021-09-06 12:00","2021","09","06","12:00","19.6","","13.3","","67","","","","15","","13","","40.2","","102.10","","","","","","NA"
"-123.18","49.19","VANCOUVER INTL A","1108395","2021-09-06 13:00","2021","09","06","13:00","20.9","","11.8","","56","","","","12","","12","","40.2","","102.08","","","","","","Clear"
"-123.18","49.19","VANCOUVER INTL A","1108395","2021-09-06 14:00","2021","09","06","14:00","20.8","","14.2","","66","","","","22","","13","","40.2","","102.02","","","","","","NA"
"-123.18","49.19","VANCOUVER INTL A","1108395","2021-09-06 15:00","2021","09","06","15:00","19.4","","14.3","","72","","","","22","","18","","40.2","","101.97","","","","","","NA"
"-123.18","49.19","VANCOUVER INTL A","1108395","2021-09-06 16:00","2021","09","06","16:00","19.4","","15.1","","76","","","","23","","11","","40.2","","101.92","","","","","","Clear"
"-123.18","49.19","VANCOUVER INTL A","1108395","2021-09-06 17:00","2021","09","06","17:00","18.6","","14.2","","75","","","","27","","7","","40.2","","101.89","","","","","","NA"
"-123.18","49.19","VANCOUVER INTL A","1108395","2021-09-06 18:00","2021","09","06","18:00","17.4","","15.3","","87","","","","24","","11","","40.2","","101.90","","","","","","NA"
"-123.18","49.19","VANCOUVER INTL A","1108395","2021-09-06 19:00","2021","09","06","19:00","15.3","","14.9","","97","","","","30","","7","","32.2","","101.88","","","","","","Clear"
"-123.18","49.19","VANCOUVER INTL A","1108395","2021-09-06 20:00","2021","09","06","20:00","14.4","","14.0","","97","","","","29","","8","","24.1","","101.94","","","","","","NA"
"-123.18","49.19","VANCOUVER INTL A","1108395","2021-09-06 21:00","2021","09","06","21:00","14.3","","13.8","","97","","","","30","","7","","24.1","","101.93","","","","","","NA"
"-123.18","49.19","VANCOUVER INTL A","1108395","2021-09-06 22:00","2021","09","06","22:00","15.4","","13.6","","89","","","","5","","4","","24.1","","101.91","","","","","","Clear"
"-123.18","49.19","VANCOUVER INTL A","1108395","2021-09-06 23:00","2021","09","06","23:00","12.5","","11.2","","91","","","","33","","4","","24.1","","101.94","","","","","","NA"
"-123.18","49.19","VANCOUVER INTL A","1108395","2021-09-07 00:00","2021","09","07","00:00","13.9","","11.8","","87","","","","36","","1","","24.1","","101.93","","","","","","NA"
"-123.18","49.19","VANCOUVER INTL A","1108395","2021-09-07 01:00","2021","09","07","01:00","12.4","","11.7","","96","","","","32","","7","","24.1","","101.94","","","","","","Clear"
"-123.18","49.19","VANCOUVER INTL A","1108395","2021-09-07 02:00","2021","09","07","02:00","15.5","","12.4","","82","","","","5","","4","","24.1","","101.92","","","","","","NA"
"-123.18","49.19","VANCOUVER INTL A","1108395","2021-09-07 03:00","2021","09","07","03:00","13.3","","12.0","","92","","","","12","","8","","24.1","","101.93","","","","","","NA"
"-123.18","49.19","VANCOUVER INTL A","1108395","2021-09-07 04:00","2021","09","07","04:00","13.3","","12.2","","93","","","","13","","3","","24.1","","101.91","","","","","","Clear"
"-123.18","49.19","VANCOUVER INTL A","1108395","2021-09-07 05:00","2021","09","07","05:00","13.9","","11.8","","87","","","","7","","4","","32.2","","101.90","","","","","","NA"
"-123.18","49.19","VANCOUVER INTL A","1108395","2021-09-07 06:00","2021","09","07","06:00","12.7","","10.5","","86","","","","35","","4","","48.3","","101.91","","","","","","NA"
"-123.18","49.19","VANCOUVER INTL A","1108395","2021-09-07 07:00","2021","09","07","07:00","15.9","","13.8","","87","","","","12","","5","","48.3","","101.89","","","","","","Clear"
"-123.18","49.19","VANCOUVER INTL A","1108395","2021-09-07 08:00","2021","09","07","08:00","18.1","","13.9","","76","","","","32","","5","","48.3","","101.90","","","","","","NA"
"-123.18","49.19","VANCOUVER INTL A","1108395","2021-09-07 09:00","2021","09","07","09:00","18.3","","14.8","","80","","","","28","","16","","48.3","","101.90","","","","","","NA"
"-123.18","49.19","VANCOUVER INTL A","1108395","2021-09-07 10:00","2021","09","07","10:00","19.4","","14.6","","74","","","","30","","17","","40.2","","101.87","","","","","","Clear"
"-123.18","49.19","VANCOUVER INTL A","1108395","2021-09-07 11:00","2021","09","07","11:00","20.2","","14.5","","69","","","","28","","15","","40.2","","101.81","","","","","","NA"
"-123.18","49.19","VANCOUVER INTL A","1108395","2021-09-07 12:00","2021","09","07","12:00","20.2","","16.1","","77","","","","30","","21","","40.2","","101.75","","25","","","","NA"
"-123.18","49.19","VANCOUVER INTL A","1108395","2021-09-07 13:00","2021","09","07","13:00","21.1","","15.4","","70","","","","30","","18","","40.2","","101.68","","25","","","","Mostly Cloudy"
"-123.18","49.19","VANCOUVER INTL A","1108395","2021-09-07 14:00","2021","09","07","14:00","21.6","","15.9","","70","","","","30","","19","","40.2","","101.59","","26","","","","NA"
"-123.18","49.19","VANCOUVER INTL A","1108395","2021-09-07 15:00","2021","09","07","15:00","21.5","","15.3","","68","","","","29","","14","","40.2","","101.52","","26","","","","NA"
"-123.18","49.19","VANCOUVER INTL A","1108395","2021-09-07 16:00","2021","09","07","16:00","21.1","","15.3","","69","","","","30","","16","","40.2","","101.39","","25","","","","Mainly Clear"
"-123.18","49.19","VANCOUVER INTL A","1108395","2021-09-07 17:00","2021","09","07","17:00","20.2","","15.3","","73","","","","30","","10","","40.2","","101.33","","","","","","NA"
"-123.18","49.19","VANCOUVER INTL A","1108395","2021-09-07 18:00","2021","09","07","18:00","19.1","","14.7","","75","","","","31","","13","","40.2","","101.27","","","","","","NA"
"-123.18","49.19","VANCOUVER INTL A","1108395","2021-09-07 19:00","2021","09","07","19:00","17.3","","14.0","","81","","","","30","","9","","40.2","","101.23","","","","","","Mostly Cloudy"
"-123.18","49.19","VANCOUVER INTL A","1108395","2021-09-07 20:00","2021","09","07","20:00","16.6","","15.1","","91","","","","30","","8","","24.1","","101.22","","","","","","NA"
"-123.18","49.19","VANCOUVER INTL A","1108395","2021-09-07 21:00","2021","09","07","21:00","17.2","","16.0","","93","","","","22","","4","","24.1","","101.19","","","","","","NA"
"-123.18","49.19","VANCOUVER INTL A","1108395","2021-09-07 22:00","2021","09","07","22:00","16.6","","14.6","","88","","","","35","","3","","24.1","","101.18","","","","","","Mostly Cloudy"
"-123.18","49.19","VANCOUVER INTL A","1108395","2021-09-07 23:00","2021","09","07","23:00","17.3","","14.1","","81","","","","8","","4","","24.1","","101.17","","","","","","NA"
"-123.18","49.19","VANCOUVER INTL A","1108395","2021-09-08 00:00","2021","09","08","00:00","16.1","","14.9","","92","","","","15","","9","","24.1","","101.20","","","","","","NA"
"-123.18","49.19","VANCOUVER INTL A","1108395","2021-09-08 01:00","2021","09","08","01:00","16.9","","14.9","","88","","","","10","","11","","24.1","","101.21","","","","","","Mostly Cloudy"
"-123.18","49.19","VANCOUVER INTL A","1108395","2021-09-08 02:00","2021","09","08","02:00","16.6","","15.0","","90","","","","12","","5","","24.1","","101.30","","","","","","NA"
"-123.18","49.19","VANCOUVER INTL A","1108395","2021-09-08 03:00","2021","09","08","03:00","17.0","","14.1","","82","","","","6","","14","","24.1","","101.37","","","","","","NA"
"-123.18","49.19","VANCOUVER INTL A","1108395","2021-09-08 04:00","2021","09","08","04:00","16.7","","12.9","","78","","","","9","","30","","16.1","","101.34","","","","","","Rain"
"-123.18","49.19","VANCOUVER INTL A","1108395","2021-09-08 05:00","2021","09","08","05:00","16.5","","14.3","","87","","","","11","","22","","24.1","","101.31","","","","","","Rain"
"-123.18","49.19","VANCOUVER INTL A","1108395","2021-09-08 06:00","2021","09","08","06:00","17.0","","13.9","","81","","","","11","","16","","24.1","","101.36","","","","","","Rain"
"-123.18","49.19","VANCOUVER INTL A","1108395","2021-09-08 07:00","2021","09","08","07:00","18.3","","15.1","","81","","","","9","","4","","32.2","","101.36","","","","","","Mostly Cloudy"
"-123.18","49.19","VANCOUVER INTL A","1108395","2021-09-08 08:00","2021","09","08","08:00","18.3","","15.1","","82","","","","13","","9","","48.3","","101.43","","","","","","NA"
"-123.18","49.19","VANCOUVER INTL A","1108395","2021-09-08 09:00","2021","09","08","09:00","20.2","","14.5","","70","","","","7","","12","","48.3","","101.39","","","","","","NA"
"-123.18","49.19","VANCOUVER INTL A","1108395","2021-09-08 10:00","2021","09","08","10:00","20.5","","14.2","","67","","","","16","","17","","48.3","","101.49","","","","","","Mostly Cloudy"
"-123.18","49.19","VANCOUVER INTL A","1108395","2021-09-08 11:00","2021","09","08","11:00","22.2","","12.6","","54","","","","13","","9","","48.3","","101.53","","25","","","","NA"
"-123.18","49.19","VANCOUVER INTL A","1108395","2021-09-08 12:00","2021","09","08","12:00","22.1","","13.3","","57","","","","13","","10","","48.3","","101.54","","25","","","","NA"
"-123.18","49.19","VANCOUVER INTL A","1108395","2021-09-08 13:00","2021","09","08","13:00","22.9","","13.6","","55","","","","15","","9","","48.3","","101.55","","26","","","","Mainly Clear"
"-123.18","49.19","VANCOUVER INTL A","1108395","2021-09-08 14:00","2021","09","08","14:00","23.8","","13.7","","52","","","","13","","7","","48.3","","101.53","","27","","","","NA"
"-123.18","49.19","VANCOUVER INTL A","1108395","2021-09-08 15:00","2021","09","08","15:00","23.8","","14.0","","54","","","","16","","16","","48.3","","101.55","","27","","","","NA"
"-123.18","49.19","VANCOUVER INTL A","1108395","2021-09-08 16:00","2021","09","08","16:00","23.2","","13.8","","55","","","","14","","10","","48.3","","101.55","","26","","","","Mostly Cloudy"
"-123.18","49.19","VANCOUVER INTL A","1108395","2021-09-08 17:00","2021","09","08","17:00","22.3","","14.7","","62","","","","13","","12","","48.3","","101.54","","26","","","","NA"
"-123.18","49.19","VANCOUVER INTL A","1108395","2021-09-08 18:00","2021","09","08","18:00","21.3","","14.7","","65","","","","11","","12","","32.2","","101.50","","25","","","","NA"
"-123.18","49.19","VANCOUVER INTL A","1108395","2021-09-08 19:00","2021","09","08","19:00","19.6","","14.3","","71","","","","10","","8","","32.2","","101.49","","","","","","Mostly Cloudy"
"-123.18","49.19","VANCOUVER INTL A","1108395","2021-09-08 20:00","2021","09","08","20:00","20.4","","14.0","","66","","","","8","","7","","32.2","","101.50","","","","","","NA"
"-123.18","49.19","VANCOUVER INTL A","1108395","2021-09-08 21:00","2021","09","08","21:00","20.5","","14.4","","68","","","","7","","8","","32.2","","101.47","","","","","","NA"
"-123.18","49.19","VANCOUVER INTL A","1108395","2021-09-08 22:00","2021","09","08","22:00","20.5","","14.7","","69","","","","7","","11","","32.2","","101.44","","","","","","Cloudy"
"-123.18","49.19","VANCOUVER INTL A","1108395","2021-09-08 23:00","2021","09","08","23:00","19.8","","14.5","","71","","","","4","","14","","32.2","","101.40","","","","","","NA"
"-123.18","49.19","VANCOUVER INTL A","1108395","2021-09-09 00:00","2021","09","09","00:00","19.6","","14.1","","70","","","","9","","10","","32.2","","101.36","","","","","","NA"
"-123.18","49.19","VANCOUVER INTL A","1108395","2021-09-09 01:00","2021","09","09","01:00","18.5","","14.6","","78","","","","17","","3","","32.2","","101.33","","","","","","Cloudy"
"-123.18","49.19","VANCOUVER INTL A","1108395","2021-09-09 02:00","2021","09","09","02:00","16.1","","15.1","","93","","","","28","","10","","32.2","","101.34","","","","","","NA"
"-123.18","49.19","VANCOUVER INTL A","1108395","2021-09-09 03:00","2021","09","09","03:00","16.2","","15.7","","97","","","","29","","3","","32.2","","101.32","","","","","","NA"
"-123.18","49.19","VANCOUVER INTL A","1108395","2021-09-09 04:00","2021","09","09","04:00","17.1","","16.2","","94","","","","2","","4","","32.2","","101.27","","","","","","Cloudy"
"-123.18","49.19","VANCOUVER INTL A","1108395","2021-09-09 05:00","2021","09","09","05:00","16.5","","16.1","","97","","","","0","","1","","32.2","","101.24","","","","","","NA"
"-123.18","49.19","VANCOUVER INTL A","1108395","2021-09-09 06:00","2021","09","09","06:00","15.9","","15.7","","99","","","","1","","4","","48.3","","101.23","","","","","","NA"
"-123.18","49.19","VANCOUVER INTL A","1108395","2021-09-09 07:00","2021","09","09","07:00","18.9","","16.7","","87","","","","10","","8","","48.3","","101.23","","","","","","Mostly Cloudy"
"-123.18","49.19","VANCOUVER INTL A","1108395","2021-09-09 08:00","2021","09","09","08:00","19.4","","15.3","","77","","","","11","","13","","48.3","","101.21","","","","","","NA"
"-123.18","49.19","VANCOUVER INTL A","1108395","2021-09-09 09:00","2021","09","09","09:00","20.3","","15.2","","72","","","","13","","8","","48.3","","101.22","","","","","","NA"
"-123.18","49.19","VANCOUVER INTL A","1108395","2021-09-09 10:00","2021","09","09","10:00","22.4","","15.5","","65","","","","11","","7","","48.3","","101.20","","27","","","","Mostly Cloudy"
"-123.18","49.19","VANCOUVER INTL A","1108395","2021-09-09 11:00","2021","09","09","11:00","22.8","","14.3","","58","","","","14","","8","","48.3","","101.19","","26","","","","NA"
"-123.18","49.19","VANCOUVER INTL A","1108395","2021-09-09 12:00","2021","09","09","12:00","23.6","","16.3","","63","","","","20","","6","","48.3","","101.14","","28","","","","NA"
"-123.18","49.19","VANCOUVER INTL A","1108395","2021-09-09 13:00","2021","09","09","13:00","23.8","","15.3","","58","","","","19","","6","","48.3","","101.12","","28","","","","Mostly Cloudy"
"-123.18","49.19","VANCOUVER INTL A","1108395","2021-09-09 14:00","2021","09","09","14:00","25.2","","13.4","","47","","","","18","","5","","48.3","","101.10","","28","","","","NA"
"-123.18","49.19","VANCOUVER INTL A","1108395","2021-09-09 15:00","2021","09","09","15:00","24.4","","16.1","","59","","","","29","","9","","48.3","","101.06","","29","","","","NA"
"-123.18","49.19","VANCOUVER INTL A","1108395","2021-09-09 16:00","2021","09","09","16:00","22.4","","16.5","","69","","","","24","","12","","48.3","","101.03","","27","","","","Mainly Clear"
"-123.18","49.19","VANCOUVER INTL A","1108395","2021-09-09 17:00","2021","09","09","17:00","21.2","","17.0","","77","","","","29","","16","","48.3","","101.04","","26","","","","NA"
"-123.18","49.19","VANCOUVER INTL A","1108395","2021-09-09 18:00","2021","09","09","18:00","18.8","","17.4","","91","","","","29","","9","","32.2","","101.04","","","","","","NA"
"-123.18","49.19","VANCOUVER INTL A","1108395","2021-09-09 19:00","2021","09","09","19:00","18.5","","17.4","","93","","","","20","","7","","32.2","","101.04","","","","","","Mainly Clear"
"-123.18","49.19","VANCOUVER INTL A","1108395","2021-09-09 20:00","2021","09","09","20:00","18.4","","17.3","","93","","","","18","","9","","32.2","","101.07","","","","","","NA"
"-123.18","49.19","VANCOUVER INTL A","1108395","2021-09-09 21:00","2021","09","09","21:00","18.3","","16.9","","92","","","","31","","3","","32.2","","101.10","","","","","","NA"
"-123.18","49.19","VANCOUVER INTL A","1108395","2021-09-09 22:00","2021","09","09","22:00","18.5","","16.7","","89","","","","20","","5","","32.2","","101.13","","","","","","Mostly Cloudy"
"-123.18","49.19","VANCOUVER INTL A","1108395","2021-09-09 23:00","2021","09","09","23:00","17.4","","16.2","","93","","","","13","","8","","32.2","","101.15","","","","","","NA"
"-123.18","49.19","VANCOUVER INTL A","1108395","2021-09-10 00:00","2021","09","10","00:00","17.1","","15.1","","88","","","","10","","7","","32.2","","101.16","","","","","","NA"
"-123.18","49.19","VANCOUVER INTL A","1108395","2021-09-10 01:00","2021","09","10","01:00","16.5","","14.9","","90","","","","9","","16","","32.2","","101.19","","","","","","Mostly Cloudy"
"-123.18","49.19","VANCOUVER INTL A","1108395","2021-09-10 02:00","2021","09","10","02:00","16.6","","15.1","","90","","","","9","","13","","32.2","","101.22","","","","","","NA"
"-123.18","49.19","VANCOUVER INTL A","1108395","2021-09-10 03:00","2021","09","10","03:00","16.6","","14.9","","89","","","","12","","12","","32.2","","101.25","","","","","","NA"
"-123.18","49.19","VANCOUVER INTL A","1108395","2021-09-10 04:00","2021","09","10","04:00","15.8","","14.6","","93","","","","10","","16","","32.2","","101.25","","","","","","Mainly Clear"
"-123.18","49.19","VANCOUVER INTL A","1108395","2021-09-10 05:00","2021","09","10","05:00","15.3","","14.4","","95","","","","11","","13","","32.2","","101.25","","","","","","NA"
"-123.18","49.19","VANCOUVER INTL A","1108395","2021-09-10 06:00","2021","09","10","06:00","15.8","","14.5","","92","","","","11","","14","","48.3","","101.28","","","","","","NA"
"-123.18","49.19","VANCOUVER INTL A","1108395","2021-09-10 07:00","2021","09","10","07:00","18.0","","14.3","","78","","","","14","","9","","32.2","","101.34","","","","","","Mostly Cloudy"
"-123.18","49.19","VANCOUVER INTL A","1108395","2021-09-10 08:00","2021","09","10","08:00","19.5","","14.9","","74","","","","14","","9","","48.3","","101.36","","","","","","NA"
"-123.18","49.19","VANCOUVER INTL A","1108395","2021-09-10 09:00","2021","09","10","09:00","20.7","","14.6","","67","","","","9","","9","","48.3","","101.36","","","","","","NA"
"-123.18","49.19","VANCOUVER INTL A","1108395","2021-09-10 10:00","2021","09","10","10:00","19.6","","15.2","","75","","","","14","","17","","48.3","","101.40","","","","","","Mostly Cloudy"
"-123.18","49.19","VANCOUVER INTL A","1108395","2021-09-10 11:00","2021","09","10","11:00","18.0","","16.0","","88","","","","17","","13","","48.3","","101.43","","","","","","NA"
"-123.18","49.19","VANCOUVER INTL A","1108395","2021-09-10 12:00","2021","09","10","12:00","20.9","","16.0","","73","","","","12","","9","","48.3","","101.43","","26","","","","NA"
"-123.18","49.19","VANCOUVER INTL A","1108395","2021-09-10 13:00","2021","09","10","13:00","21.6","","15.3","","67","","","","14","","9","","48.3","","101.40","","26","","","","Mostly Cloudy"
"-123.18","49.19","VANCOUVER INTL A","1108395","2021-09-10 14:00","2021","09","10","14:00","20.9","","16.9","","78","","","","23","","14","","48.3","","101.38","","26","","","","NA"
"-123.18","49.19","VANCOUVER INTL A","1108395","2021-09-10 15:00","2021","09","10","15:00","23.4","","15.7","","61","","","","15","","19","","48.3","","101.39","","28","","","","NA"
"-123.18","49.19","VANCOUVER INTL A","1108395","2021-09-10 16:00","2021","09","10","16:00","21.7","","14.2","","62","","","","17","","16","","48.3","","101.43","","25","","","","Mainly Clear"
"-123.18","49.19","VANCOUVER INTL A","1108395","2021-09-10 17:00","2021","09","10","17:00","20.9","","14.3","","65","","","","14","","11","","48.3","","101.46","","","","","","NA"
"-123.18","49.19","VANCOUVER INTL A","1108395","2021-09-10 18:00","2021","09","10","18:00","19.2","","12.8","","66","","","","11","","18","","32.2","","101.51","","","","","","NA"
"-123.18","49.19","VANCOUVER INTL A","1108395","2021-09-10 19:00","2021","09","10","19:00","17.9","","12.4","","70","","","","12","","20","","32.2","","101.58","","","","","","Mostly Cloudy"
"-123.18","49.19","VANCOUVER INTL A","1108395","2021-09-10 20:00","2021","09","10","20:00","16.2","","12.8","","80","","","","10","","19","","32.2","","101.65","","","","","","NA"
"-123.18","49.19","VANCOUVER INTL A","1108395","2021-09-10 21:00","2021","09","10","21:00","15.8","","12.6","","81","","","","10","","21","","32.2","","101.68","","","","","","NA"
"-123.18","49.19","VANCOUVER INTL A","1108395","2021-09-10 22:00","2021","09","10","22:00","15.8","","12.4","","80","","","","11","","24","","32.2","","101.74","","","","","","Clear"
"-123.18","49.19","VANCOUVER INTL A","1108395","2021-09-10 23:00","2021","09","10","23:00","15.3","","12.1","","81","","","","9","","22","","32.2","","101.81","","","","","","NA"
"-123.18","49.19","VANCOUVER INTL A","1108395","2021-09-11 00:00","2021","09","11","00:00","15.3","","11.4","","77","","","","10","","22","","32.2","","101.87","","","","","","NA"
"-123.18","49.19","VANCOUVER INTL A","1108395","2021-09-11 01:00","2021","09","11","01:00","15.5","","10.9","","74","","","","11","","15","","32.2","","101.90","","","","","","Mostly Cloudy"
"-123.18","49.19","VANCOUVER INTL A","1108395","2021-09-11 02:00","2021","09","11","02:00","15.5","","11.7","","78","","","","10","","13","","32.2","","101.97","","","","","","NA"
"-123.18","49.19","VANCOUVER INTL A","1108395","2021-09-11 03:00","2021","09","11","03:00","15.3","","10.8","","74","","","","11","","22","","32.2","","101.99","","","","","","NA"
"-123.18","49.19","VANCOUVER INTL A","1108395","2021-09-11 04:00","2021","09","11","04:00","14.9","","10.7","","76","","","","10","","22","","32.2","","102.01","","","","","","Cloudy"
"-123.18","49.19","VANCOUVER INTL A","1108395","2021-09-11 05:00","2021","09","11","05:00","14.5","","10.9","","79","","","","11","","19","","32.2","","102.06","","","","","","NA"
"-123.18","49.19","VANCOUVER INTL A","1108395","2021-09-11 06:00","2021","09","11","06:00","14.4","","11.4","","82","","","","10","","22","","48.3","","102.06","","","","","","NA"
"-123.18","49.19","VANCOUVER INTL A","1108395","2021-09-11 07:00","2021","09","11","07:00","14.7","","11.6","","82","","","","11","","28","","48.3","","102.12","","","","","","Mostly Cloudy"
"-123.18","49.19","VANCOUVER INTL A","1108395","2021-09-11 08:00","2021","09","11","08:00","15.3","","12.0","","81","","","","10","","21","","48.3","","102.15","","","","","","NA"
"-123.18","49.19","VANCOUVER INTL A","1108395","2021-09-11 09:00","2021","09","11","09:00","16.8","","12.0","","73","","","","10","","25","","48.3","","102.18","","","","","","NA"
"-123.18","49.19","VANCOUVER INTL A","1108395","2021-09-11 10:00","2021","09","11","10:00","16.7","","12.3","","75","","","","11","","15","","48.3","","102.22","","","","","","Cloudy"
"-123.18","49.19","VANCOUVER INTL A","1108395","2021-09-11 11:00","2021","09","11","11:00","16.7","","13.3","","80","","","","10","","16","","32.2","","102.19","","","","","","Rain"
"-123.18","49.19","VANCOUVER INTL A","1108395","2021-09-11 12:00","2021","09","11","12:00","16.4","","13.9","","85","","","","13","","16","","24.1","","102.17","","","","","","Rain"
"-123.18","49.19","VANCOUVER INTL A","1108395","2021-09-11 13:00","2021","09","11","13:00","16.0","","13.8","","87","","","","14","","12","","32.2","","102.19","","","","","","Rain"
"-123.18","49.19","VANCOUVER INTL A","1108395","2021-09-11 14:00","2021","09","11","14:00","15.8","","14.4","","91","","","","18","","5","","9.7","","102.18","","","","","","Rain,Fog"
"-123.18","49.19","VANCOUVER INTL A","1108395","2021-09-11 15:00","2021","09","11","15:00","15.7","","14.7","","93","","","","12","","12","","9.7","","102.14","","","","","","Rain,Drizzle,Fog"
"-123.18","49.19","VANCOUVER INTL A","1108395","2021-09-11 16:00","2021","09","11","16:00","15.9","","14.5","","92","","","","10","","13","","22.5","","102.12","","","","","","Rain"
"-123.18","49.19","VANCOUVER INTL A","1108395","2021-09-11 17:00","2021","09","11","17:00","15.7","","14.4","","92","","","","12","","16","","24.1","","102.10","","","","","","Rain"
"-123.18","49.19","VANCOUVER INTL A","1108395","2021-09-11 18:00","2021","09","11","18:00","15.6","","14.6","","93","","","","12","","15","","19.3","","102.06","","","","","","NA"
"-123.18","49.19","VANCOUVER INTL A","1108395","2021-09-11 19:00","2021","09","11","19:00","15.3","","14.6","","95","","","","10","","13","","19.3","","102.02","","","","","","Cloudy"
"-123.18","49.19","VANCOUVER INTL A","1108395","2021-09-11 20:00","2021","09","11","20:00","15.2","","14.7","","97","","","","8","","16","","9.7","","102.00","","","","","","Moderate Rain,Fog"
"-123.18","49.19","VANCOUVER INTL A","1108395","2021-09-11 21:00","2021","09","11","21:00","15.0","","14.6","","98","","","","9","","13","","16.1","","101.98","","","","","","Rain"
"-123.18","49.19","VANCOUVER INTL A","1108395","2021-09-11 22:00","2021","09","11","22:00","15.0","","14.6","","97","","","","9","","12","","19.3","","101.95","","","","","","Cloudy"
"-123.18","49.19","VANCOUVER INTL A","1108395","2021-09-11 23:00","2021","09","11","23:00","15.2","","14.8","","97","","","","9","","10","","19.3","","101.92","","","","","","NA"
"-123.18","49.19","VANCOUVER INTL A","1108395","2021-09-12 00:00","2021","09","12","00:00","15.2","","14.8","","98","","","","9","","13","","19.3","","101.91","","","","","","Rain"
"-123.18","49.19","VANCOUVER INTL A","1108395","2021-09-12 01:00","2021","09","12","01:00","15.2","","14.8","","98","","","","9","","12","","24.1","","101.88","","","","","","Cloudy"
"-123.18","49.19","VANCOUVER INTL A","1108395","2021-09-12 02:00","2021","09","12","02:00","15.2","","14.8","","98","","","","10","","11","","19.3","","101.84","","","","","","NA"
"-123.18","49.19","VANCOUVER INTL A","1108395","2021-09-12 03:00","2021","09","12","03:00","15.2","","14.8","","98","","","","10","","8","","24.1","","101.84","","","","","","NA"
"-123.18","49.19","VANCOUVER INTL A","1108395","2021-09-12 04:00","2021","09","12","04:00","15.2","","14.8","","98","","","","36","","2","","24.1","","101.78","","","","","","Cloudy"
"-123.18","49.19","VANCOUVER INTL A","1108395","2021-09-12 05:00","2021","09","12","05:00","14.2","","14.0","","99","","","","28","","23","","3.2","","101.79","","","","","","Drizzle,Fog"
"-123.18","49.19","VANCOUVER INTL A","1108395","2021-09-12 06:00","2021","09","12","06:00","14.3","","13.9","","98","","","","29","","19","","8.1","","101.80","","","","","","Drizzle,Fog"
"-123.18","49.19","VANCOUVER INTL A","1108395","2021-09-12 07:00","2021","09","12","07:00","14.4","","13.4","","94","","","","28","","21","","24.1","","101.83","","","","","","Mostly Cloudy"
"-123.18","49.19","VANCOUVER INTL A","1108395","2021-09-12 08:00","2021","09","12","08:00","14.9","","13.3","","90","","","","29","","24","","24.1","","101.85","","","","","","NA"
"-123.18","49.19","VANCOUVER INTL A","1108395","2021-09-12 09:00","2021","09","12","09:00","16.6","","13.2","","80","","","","29","","23","","40.2","","101.84","","","","","","NA"
"-123.18","49.19","VANCOUVER INTL A","1108395","2021-09-12 10:00","2021","09","12","10:00","16.9","","13.6","","81","","","","29","","27","","40.2","","101.88","","","","","","Mainly Clear"
"-123.18","49.19","VANCOUVER INTL A","1108395","2021-09-12 11:00","2021","09","12","11:00","17.5","","13.3","","76","","","","29","","25","","40.2","","101.92","","","","","","NA"
"-123.18","49.19","VANCOUVER INTL A","1108395","2021-09-12 12:00","2021","09","12","12:00","17.7","","13.3","","75","","","","28","","19","","40.2","","101.92","","","","","","NA"
"-123.18","49.19","VANCOUVER INTL A","1108395","2021-09-12 13:00","2021","09","12","13:00","16.8","","12.3","","75","","","","26","","21","","40.2","","101.92","","","","","","Clear"
"-123.18","49.19","VANCOUVER INTL A","1108395","2021-09-12 14:00","2021","09","12","14:00","17.4","","12.8","","74","","","","25","","16","","40.2","","101.91","","","","","","NA"
"-123.18","49.19","VANCOUVER INTL A","1108395","2021-09-12 15:00","2021","09","12","15:00","17.4","","12.0","","70","","","","23","","10","","40.2","","101.91","","","","","","NA"
"-123.18","49.19","VANCOUVER INTL A","1108395","2021-09-12 16:00","2021","09","12","16:00","16.9","","11.6","","71","","","","21","","11","","40.2","","101.89","","","","","","Mostly Cloudy"
"-123.18","49.19","VANCOUVER INTL A","1108395","2021-09-12 17:00","2021","09","12","17:00","16.6","","12.2","","75","","","","20","","13","","40.2","","101.93","","","","","","NA"
"-123.18","49.19","VANCOUVER INTL A","1108395","2021-09-12 18:00","2021","09","12","18:00","16.3","","11.6","","73","","","","14","","13","","40.2","","101.93","","","","","","NA"
"-123.18","49.19","VANCOUVER INTL A","1108395","2021-09-12 19:00","2021","09","12","19:00","15.8","","11.1","","74","","","","12","","5","","32.2","","101.95","","","","","","Mainly Clear"
"-123.18","49.19","VANCOUVER INTL A","1108395","2021-09-12 20:00","2021","09","12","20:00","14.2","","11.8","","85","","","","10","","16","","32.2","","102.00","","","","","","NA"
"-123.18","49.19","VANCOUVER INTL A","1108395","2021-09-12 21:00","2021","09","12","21:00","13.7","","11.3","","85","","","","12","","10","","24.1","","102.01","","","","","","NA"
"-123.18","49.19","VANCOUVER INTL A","1108395","2021-09-12 22:00","2021","09","12","22:00","13.6","","11.1","","85","","","","13","","7","","24.1","","102.04","","","","","","Mainly Clear"
"-123.18","49.19","VANCOUVER INTL A","1108395","2021-09-12 23:00","2021","09","12","23:00","12.2","","10.7","","90","","","","14","","8","","24.1","","102.05","","","","","","NA"
"-123.18","49.19","VANCOUVER INTL A","1108395","2021-09-13 00:00","2021","09","13","00:00","11.9","","10.9","","93","","","","12","","7","","24.1","","102.07","","","","","","NA"
"-123.18","49.19","VANCOUVER INTL A","1108395","2021-09-13 01:00","2021","09","13","01:00","11.8","","10.5","","92","","","","9","","10","","24.1","","102.08","","","","","","Mostly Cloudy"
"-123.18","49.19","VANCOUVER INTL A","1108395","2021-09-13 02:00","2021","09","13","02:00","11.7","","10.6","","93","","","","10","","12","","24.1","","102.10","","","","","","NA"
"-123.18","49.19","VANCOUVER INTL A","1108395","2021-09-13 03:00","2021","09","13","03:00","11.2","","10.3","","94","","","","10","","13","","24.1","","102.09","","","","","","NA"
"-123.18","49.19","VANCOUVER INTL A","1108395","2021-09-13 04:00","2021","09","13","04:00","10.7","","9.9","","95","","","","10","","9","","24.1","","102.13","","","","","","Mainly Clear"
"-123.18","49.19","VANCOUVER INTL A","1108395","2021-09-13 05:00","2021","09","13","05:00","12.0","","10.7","","92","","","","8","","11","","24.1","","102.15","","","","","","NA"
"-123.18","49.19","VANCOUVER INTL A","1108395","2021-09-13 06:00","2021","09","13","06:00","11.1","","10.5","","96","","","","9","","13","","40.2","","102.16","","","","","","NA"
"-123.18","49.19","VANCOUVER INTL A","1108395","2021-09-13 07:00","2021","09","13","07:00","12.9","","11.6","","92","","","","9","","10","","40.2","","102.22","","","","","","Mainly Clear"
"-123.18","49.19","VANCOUVER INTL A","1108395","2021-09-13 08:00","2021","09","13","08:00","13.8","","12.2","","90","","","","11","","13","","40.2","","102.24","","","","","","NA"
"-123.18","49.19","VANCOUVER INTL A","1108395","2021-09-13 09:00","2021","09","13","09:00","14.2","","11.9","","86","","","","9","","9","","32.2","","102.26","","","","","","NA"
"-123.18","49.19","VANCOUVER INTL A","1108395","2021-09-13 10:00","2021","09","13","10:00","16.0","","11.9","","76","","","","20","","7","","40.2","","102.29","","","","","","Mostly Cloudy"
"-123.18","49.19","VANCOUVER INTL A","1108395","2021-09-13 11:00","2021","09","13","11:00","16.8","","11.8","","72","","","","22","","11","","40.2","","102.27","","","","","","NA"
"-123.18","49.19","VANCOUVER INTL A","1108395","2021-09-13 12:00","2021","09","13","12:00","17.5","","12.7","","73","","","","25","","13","","40.2","","102.25","","","","","","NA"
"-123.18","49.19","VANCOUVER INTL A","1108395","2021-09-13 13:00","2021","09","13","13:00","18.1","","13.6","","75","","","","27","","14","","40.2","","102.25","","","","","","Clear"
"-123.18","49.19","VANCOUVER INTL A","1108395","2021-09-13 14:00","2021","09","13","14:00","17.6","","11.0","","65","","","","23","","9","","40.2","","102.21","","","","","","NA"
"-123.18","49.19","VANCOUVER INTL A","1108395","2021-09-13 15:00","2021","09","13","15:00","17.3","","12.2","","72","","","","23","","13","","40.2","","102.19","","","","","","NA"
"-123.18","49.19","VANCOUVER INTL A","1108395","2021-09-13 16:00","2021","09","13","16:00","17.5","","12.3","","71","","","","24","","10","","40.2","","102.15","","","","","","Mainly Clear"
"-123.18","49.19","VANCOUVER INTL A","1108395","2021-09-13 17:00","2021","09","13","17:00","17.2","","11.8","","70","","","","22","","8","","40.2","","102.10","","","","","","NA"
"-123.18","49.19","VANCOUVER INTL A","1108395","2021-09-13 18:00","2021","09","13","18:00","16.6","","11.3","","71","","","","20","","4","","48.3","","102.11","","","","","","NA"
"-123.18","49.19","VANCOUVER INTL A","1108395","2021-09-13 19:00","2021","09","13","19:00","16.2","","10.3","","67","","","","16","","4","","48.3","","102.07","","","","","","Mainly Clear"
"-123.18","49.19","VANCOUVER INTL A","1108395","2021-09-13 20:00","2021","09","13","20:00","15.9","","10.1","","68","","","","11","","4","","24.1","","102.13","","","","","","NA"
"-123.18","49.19","VANCOUVER INTL A","1108395","2021-09-13 21:00","2021","09","13","21:00","13.9","","9.9","","76","","","","9","","7","","48.3","","102.09","","","","","","NA"
"-123.18","49.19","VANCOUVER INTL A","1108395","2021-09-13 22:00","2021","09","13","22:00","14.4","","10.9","","79","","","","8","","8","","24.1","","102.08","","","","","","Mainly Clear"
"-123.18","49.19","VANCOUVER INTL A","1108395","2021-09-13 23:00","2021","09","13","23:00","13.4","","11.2","","87","","","","8","","9","","24.1","","102.06","","","","","","NA"
"-123.18","49.19","VANCOUVER INTL A","1108395","2021-09-14 00:00","2021","09","14","00:00","12.4","","10.6","","89","","","","10","","10","","24.1","","102.04","","","","","","NA"
"-123.18","49.19","VANCOUVER INTL A","1108395","2021-09-14 01:00","2021","09","14","01:00","13.3","","10.7","","84","","","","8","","9","","24.1","","102.00","","","","","","Mostly Cloudy"
"-123.18","49.19","VANCOUVER INTL A","1108395","2021-09-14 02:00","2021","09","14","02:00","12.7","","10.2","","85","","","","8","","10","","24.1","","102.01","","","","","","NA"
"-123.18","49.19","VANCOUVER INTL A","1108395","2021-09-14 03:00","2021","09","14","03:00","13.8","","10.9","","82","","","","8","","10","","24.1","","101.98","","","","","","NA"
"-123.18","49.19","VANCOUVER INTL A","1108395","2021-09-14 04:00","2021","09","14","04:00","13.3","","11.0","","86","","","","8","","12","","24.1","","101.93","","","","","","Mostly Cloudy"
"-123.18","49.19","VANCOUVER INTL A","1108395","2021-09-14 05:00","2021","09","14","05:00","13.4","","11.1","","85","","","","10","","16","","24.1","","101.86","","","","","","NA"
"-123.18","49.19","VANCOUVER INTL A","1108395","2021-09-14 06:00","2021","09","14","06:00","13.6","","11.2","","85","","","","10","","15","","40.2","","101.82","","","","","","NA"
"-123.18","49.19","VANCOUVER INTL A","1108395","2021-09-14 07:00","2021","09","14","07:00","14.2","","11.3","","82","","","","9","","17","","32.2","","101.79","","","","","","Cloudy"
"-123.18","49.19","VANCOUVER INTL A","1108395","2021-09-14 08:00","2021","09","14","08:00","14.5","","11.6","","83","","","","10","","16","","32.2","","101.78","","","","","","Drizzle"
"-123.18","49.19","VANCOUVER INTL A","1108395","2021-09-14 09:00","2021","09","14","09:00","14.0","","12.2","","89","","","","11","","15","","16.1","","101.81","","","","","","Rain"
"-123.18","49.19","VANCOUVER INTL A","1108395","2021-09-14 10:00","2021","09","14","10:00","13.9","","12.5","","91","","","","10","","11","","16.1","","101.78","","","","","","Rain"
"-123.18","49.19","VANCOUVER INTL A","1108395","2021-09-14 11:00","2021","09","14","11:00","13.8","","12.5","","92","","","","12","","10","","16.1","","101.75","","","","","","Rain"
"-123.18","49.19","VANCOUVER INTL A","1108395","2021-09-14 12:00","2021","09","14","12:00","13.5","","12.8","","95","","","","11","","10","","12.9","","101.72","","","","","","Moderate Rain"
"-123.18","49.19","VANCOUVER INTL A","1108395","2021-09-14 13:00","2021","09","14","13:00","13.8","","13.1","","96","","","","7","","12","","9.7","","101.70","","","","","","Moderate Rain"
"-123.18","49.19","VANCOUVER INTL A","1108395","2021-09-14 14:00","2021","09","14","14:00","13.5","","12.8","","96","","","","4","","4","","4.8","","101.66","","","","","","Rain,Fog"
"-123.18","49.19","VANCOUVER INTL A","1108395","2021-09-14 15:00","2021","09","14","15:00","13.6","","13.1","","97","","","","7","","7","","4.0","","101.62","","","","","","Rain,Fog"
"-123.18","49.19","VANCOUVER INTL A","1108395","2021-09-14 16:00","2021","09","14","16:00","13.6","","13.2","","97","","","","10","","11","","4.8","","101.59","","","","","","Rain,Fog"
"-123.18","49.19","VANCOUVER INTL A","1108395","2021-09-14 17:00","2021","09","14","17:00","13.6","","12.6","","94","","","","9","","13","","16.1","","101.58","","","","","","Drizzle"
"-123.18","49.19","VANCOUVER INTL A","1108395","2021-09-14 18:00","2021","09","14","18:00","13.6","","13.0","","96","","","","9","","13","","16.1","","101.54","","","","","","NA"
"-123.18","49.19","VANCOUVER INTL A","1108395","2021-09-14 19:00","2021","09","14","19:00","13.6","","13.0","","96","","","","9","","11","","16.1","","101.52","","","","","","Cloudy"
"-123.18","49.19","VANCOUVER INTL A","1108395","2021-09-14 20:00","2021","09","14","20:00","13.6","","13.2","","98","","","","9","","11","","16.1","","101.54","","","","","","Rain"
"-123.18","49.19","VANCOUVER INTL A","1108395","2021-09-14 21:00","2021","09","14","21:00","13.5","","13.1","","97","","","","6","","11","","12.9","","101.52","","","","","","Rain"
"-123.18","49.19","VANCOUVER INTL A","1108395","2021-09-14 22:00","2021","09","14","22:00","13.5","","13.2","","98","","","","8","","9","","16.1","","101.47","","","","","","Rain"
"-123.18","49.19","VANCOUVER INTL A","1108395","2021-09-14 23:00","2021","09","14","23:00","13.6","","13.3","","98","","","","8","","8","","24.1","","101.48","","","","","","NA"
"-123.18","49.19","VANCOUVER INTL A","1108395","2021-09-15 00:00","2021","09","15","00:00","13.8","","13.3","","97","","","","36","","1","","24.1","","101.51","","","","","","NA"
"-123.18","49.19","VANCOUVER INTL A","1108395","2021-09-15 01:00","2021","09","15","01:00","13.7","","13.4","","98","","","","29","","26","","19.3","","101.52","","","","","","Cloudy"
"-123.18","49.19","VANCOUVER INTL A","1108395","2021-09-15 02:00","2021","09","15","02:00","12.8","","11.1","","90","","","","28","","33","","24.1","","101.53","","","","","","NA"
"-123.18","49.19","VANCOUVER INTL A","1108395","2021-09-15 03:00","2021","09","15","03:00","12.7","","9.5","","81","","","","29","","39","","32.2","","101.52","","","","","","NA"
"-123.18","49.19","VANCOUVER INTL A","1108395","2021-09-15 04:00","2021","09","15","04:00","12.6","","8.6","","76","","","","28","","51","","32.2","","101.51","","","","","","Mainly Clear"
"-123.18","49.19","VANCOUVER INTL A","1108395","2021-09-15 05:00","2021","09","15","05:00","12.2","","8.3","","77","","","","29","","45","","32.2","","101.59","","","","","","NA"
"-123.18","49.19","VANCOUVER INTL A","1108395","2021-09-15 06:00","2021","09","15","06:00","11.9","","8.4","","79","","","","29","","34","","48.3","","101.60","","","","","","NA"
"-123.18","49.19","VANCOUVER INTL A","1108395","2021-09-15 07:00","2021","09","15","07:00","13.2","","8.3","","72","","","","31","","17","","48.3","","101.58","","","","","","Mostly Cloudy"
"-123.18","49.19","VANCOUVER INTL A","1108395","2021-09-15 08:00","2021","09","15","08:00","14.1","","8.1","","66","","","","31","","46","","48.3","","101.58","","","","","","NA"
"-123.18","49.19","VANCOUVER INTL A","1108395","2021-09-15 09:00","2021","09","15","09:00","15.4","","8.3","","62","","","","31","","46","","48.3","","101.65","","","","","","NA"
"-123.18","49.19","VANCOUVER INTL A","1108395","2021-09-15 10:00","2021","09","15","10:00","14.7","","9.0","","68","","","","28","","37","","48.3","","101.71","","","","","","Mainly Clear"
"-123.18","49.19","VANCOUVER INTL A","1108395","2021-09-15 11:00","2021","09","15","11:00","15.9","","9.2","","64","","","","28","","33","","48.3","","101.74","","","","","","NA"
"-123.18","49.19","VANCOUVER INTL A","1108395","2021-09-15 12:00","2021","09","15","12:00","16.0","","9.0","","63","","","","28","","36","","48.3","","101.74","","","","","","NA"
"-123.18","49.19","VANCOUVER INTL A","1108395","2021-09-15 13:00","2021","09","15","13:00","16.6","","9.6","","63","","","","27","","31","","48.3","","101.74","","","","","","Clear"
"-123.18","49.19","VANCOUVER INTL A","1108395","2021-09-15 14:00","2021","09","15","14:00","16.9","","8.4","","57","","","","27","","27","","48.3","","101.72","","","","","","NA"
"-123.18","49.19","VANCOUVER INTL A","1108395","2021-09-15 15:00","2021","09","15","15:00","16.8","","7.9","","56","","","","26","","28","","48.3","","101.70","","","","","","NA"
"-123.18","49.19","VANCOUVER INTL A","1108395","2021-09-15 16:00","2021","09","15","16:00","16.6","","7.0","","53","","","","28","","36","","48.3","","101.67","","","","","","Clear"
"-123.18","49.19","VANCOUVER INTL A","1108395","2021-09-15 17:00","2021","09","15","17:00","15.6","","9.0","","65","","","","25","","27","","48.3","","101.69","","","","","","NA"
"-123.18","49.19","VANCOUVER INTL A","1108395","2021-09-15 18:00","2021","09","15","18:00","14.8","","7.8","","62","","","","25","","29","","48.3","","101.68","","","","","","NA"
"-123.18","49.19","VANCOUVER INTL A","1108395","2021-09-15 19:00","2021","09","15","19:00","14.5","","8.1","","65","","","","26","","27","","32.2","","101.67","","","","","","Mainly Clear"
"-123.18","49.19","VANCOUVER INTL A","1108395","2021-09-15 20:00","2021","09","15","20:00","14.4","","7.5","","63","","","","27","","36","","32.2","","101.71","","","","","","NA"
"-123.18","49.19","VANCOUVER INTL A","1108395","2021-09-15 21:00","2021","09","15","21:00","13.7","","8.6","","71","","","","27","","28","","32.2","","101.76","","","","","","NA"
"-123.18","49.19","VANCOUVER INTL A","1108395","2021-09-15 22:00","2021","09","15","22:00","12.7","","7.1","","69","","","","6","","22","","32.2","","101.84","","","","","","Clear"
"-123.18","49.19","VANCOUVER INTL A","1108395","2021-09-15 23:00","2021","09","15","23:00","11.6","","7.3","","75","","","","10","","22","","32.2","","101.87","","","","","","NA"
"-123.18","49.19","VANCOUVER INTL A","1108395","2021-09-16 00:00","2021","09","16","00:00","11.2","","6.9","","75","","","","9","","14","","32.2","","101.98","","","","","","NA"
"-123.18","49.19","VANCOUVER INTL A","1108395","2021-09-16 01:00","2021","09","16","01:00","10.4","","6.2","","75","","","","6","","12","","32.2","","102.02","","","","","","Clear"
"-123.18","49.19","VANCOUVER INTL A","1108395","2021-09-16 02:00","2021","09","16","02:00","7.0","","5.7","","91","","","","35","","5","","32.2","","102.07","","","","","","NA"
"-123.18","49.19","VANCOUVER INTL A","1108395","2021-09-16 03:00","2021","09","16","03:00","6.5","","5.4","","92","","","","33","","3","","32.2","","102.10","","","","","","NA"
"-123.18","49.19","VANCOUVER INTL A","1108395","2021-09-16 04:00","2021","09","16","04:00","7.3","","5.8","","91","","","","10","","13","","32.2","","102.11","","","","","","Clear"
"-123.18","49.19","VANCOUVER INTL A","1108395","2021-09-16 05:00","2021","09","16","05:00","6.8","","5.2","","90","","","","10","","12","","32.2","","102.10","","","","","","NA"
"-123.18","49.19","VANCOUVER INTL A","1108395","2021-09-16 06:00","2021","09","16","06:00","7.5","","6.4","","93","","","","9","","9","","48.3","","102.15","","","","","","NA"
"-123.18","49.19","VANCOUVER INTL A","1108395","2021-09-16 07:00","2021","09","16","07:00","9.3","","8.2","","93","","","","36","","2","","48.3","","102.21","","","","","","Mainly Clear"
"-123.18","49.19","VANCOUVER INTL A","1108395","2021-09-16 08:00","2021","09","16","08:00","11.6","","7.7","","77","","","","14","","8","","48.3","","102.22","","","","","","NA"
"-123.18","49.19","VANCOUVER INTL A","1108395","2021-09-16 09:00","2021","09","16","09:00","12.7","","7.4","","70","","","","11","","7","","48.3","","102.24","","","","","","NA"
"-123.18","49.19","VANCOUVER INTL A","1108395","2021-09-16 10:00","2021","09","16","10:00","14.2","","7.3","","63","","","","14","","6","","48.3","","102.17","","","","","","Mainly Clear"
"-123.18","49.19","VANCOUVER INTL A","1108395","2021-09-16 11:00","2021","09","16","11:00","14.7","","9.3","","70","","","","24","","16","","48.3","","102.14","","","","","","NA"
"-123.18","49.19","VANCOUVER INTL A","1108395","2021-09-16 12:00","2021","09","16","12:00","14.5","","9.6","","72","","","","24","","16","","48.3","","102.10","","","","","","NA"
"-123.18","49.19","VANCOUVER INTL A","1108395","2021-09-16 13:00","2021","09","16","13:00","14.8","","9.2","","69","","","","25","","10","","48.3","","102.00","","","","","","Mostly Cloudy"
"-123.18","49.19","VANCOUVER INTL A","1108395","2021-09-16 14:00","2021","09","16","14:00","15.2","","9.6","","69","","","","28","","12","","48.3","","101.91","","","","","","NA"
"-123.18","49.19","VANCOUVER INTL A","1108395","2021-09-16 15:00","2021","09","16","15:00","14.7","","8.7","","67","","","","27","","9","","48.3","","101.81","","","","","","NA"
"-123.18","49.19","VANCOUVER INTL A","1108395","2021-09-16 16:00","2021","09","16","16:00","14.0","","9.7","","75","","","","29","","10","","48.3","","101.74","","","","","","Mostly Cloudy"
"-123.18","49.19","VANCOUVER INTL A","1108395","2021-09-16 17:00","2021","09","16","17:00","13.6","","9.7","","77","","","","31","","4","","48.3","","101.62","","","","","","NA"
"-123.18","49.19","VANCOUVER INTL A","1108395","2021-09-16 18:00","2021","09","16","18:00","12.1","","9.6","","84","","","","30","","8","","48.3","","101.50","","","","","","NA"
"-123.18","49.19","VANCOUVER INTL A","1108395","2021-09-16 19:00","2021","09","16","19:00","11.6","","8.9","","83","","","","30","","6","","32.2","","101.40","","","","","","Cloudy"
"-123.18","49.19","VANCOUVER INTL A","1108395","2021-09-16 20:00","2021","09","16","20:00","12.5","","9.5","","82","","","","32","","6","","32.2","","101.34","","","","","","NA"
"-123.18","49.19","VANCOUVER INTL A","1108395","2021-09-16 21:00","2021","09","16","21:00","12.5","","9.9","","84","","","","32","","5","","32.2","","101.26","","","","","","NA"
"-123.18","49.19","VANCOUVER INTL A","1108395","2021-09-16 22:00","2021","09","16","22:00","13.4","","10.0","","80","","","","1","","4","","32.2","","101.19","","","","","","Cloudy"
"-123.18","49.19","VANCOUVER INTL A","1108395","2021-09-16 23:00","2021","09","16","23:00","12.7","","9.8","","83","","","","36","","6","","32.2","","101.17","","","","","","NA"
"-123.18","49.19","VANCOUVER INTL A","1108395","2021-09-17 00:00","2021","09","17","00:00","13.9","","7.0","","63","","","","6","","12","","32.2","","101.09","","","","","","NA"
"-123.18","49.19","VANCOUVER INTL A","1108395","2021-09-17 01:00","2021","09","17","01:00","13.6","","8.3","","70","","","","13","","15","","24.1","","101.05","","","","","","Rain"
"-123.18","49.19","VANCOUVER INTL A","1108395","2021-09-17 02:00","2021","09","17","02:00","13.1","","8.5","","73","","","","6","","18","","24.1","","100.93","","","","","","Rain"
"-123.18","49.19","VANCOUVER INTL A","1108395","2021-09-17 03:00","2021","09","17","03:00","12.3","","8.7","","79","","","","4","","21","","24.1","","100.85","","","","","","Rain"
"-123.18","49.19","VANCOUVER INTL A","1108395","2021-09-17 04:00","2021","09","17","04:00","12.2","","9.0","","81","","","","11","","4","","24.1","","100.90","","","","","","Rain"
"-123.18","49.19","VANCOUVER INTL A","1108395","2021-09-17 05:00","2021","09","17","05:00","11.6","","10.6","","94","","","","8","","9","","19.3","","100.85","","","","","","Rain"
"-123.18","49.19","VANCOUVER INTL A","1108395","2021-09-17 06:00","2021","09","17","06:00","11.3","","10.3","","94","","","","6","","19","","16.1","","100.77","","","","","","Moderate Rain"
"-123.18","49.19","VANCOUVER INTL A","1108395","2021-09-17 07:00","2021","09","17","07:00","11.7","","10.4","","92","","","","8","","22","","17.7","","100.72","","","","","","Rain"
"-123.18","49.19","VANCOUVER INTL A","1108395","2021-09-17 08:00","2021","09","17","08:00","11.3","","10.5","","95","","","","9","","22","","11.3","","100.64","","","","","","Moderate Rain"
"-123.18","49.19","VANCOUVER INTL A","1108395","2021-09-17 09:00","2021","09","17","09:00","11.2","","10.6","","96","","","","9","","24","","6.4","","100.61","","","","","","Moderate Rain,Fog"
"-123.18","49.19","VANCOUVER INTL A","1108395","2021-09-17 10:00","2021","09","17","10:00","11.0","","10.4","","96","","","","9","","32","","4.0","","100.56","","","","","","Moderate Rain,Fog"
"-123.18","49.19","VANCOUVER INTL A","1108395","2021-09-17 11:00","2021","09","17","11:00","11.0","","10.5","","97","","","","9","","28","","4.0","","100.46","","","","","","Moderate Rain,Fog"
"-123.18","49.19","VANCOUVER INTL A","1108395","2021-09-17 12:00","2021","09","17","12:00","11.1","","10.5","","97","","","","9","","28","","4.0","","100.38","","","","","","Moderate Rain,Fog"
"-123.18","49.19","VANCOUVER INTL A","1108395","2021-09-17 13:00","2021","09","17","13:00","11.3","","10.8","","97","","","","8","","28","","3.6","","100.24","","","","","","Moderate Rain,Fog"
"-123.18","49.19","VANCOUVER INTL A","1108395","2021-09-17 14:00","2021","09","17","14:00","11.4","","11.0","","97","","","","9","","28","","2.8","","100.17","","","","","","Moderate Rain,Fog"
"-123.18","49.19","VANCOUVER INTL A","1108395","2021-09-17 15:00","2021","09","17","15:00","11.9","","11.3","","96","","","","10","","38","","4.8","","100.07","","","","","","Rain,Fog"
"-123.18","49.19","VANCOUVER INTL A","1108395","2021-09-17 16:00","2021","09","17","16:00","12.7","","11.4","","92","","","","10","","41","","12.9","","99.91","","","","","","Rain"
"-123.18","49.19","VANCOUVER INTL A","1108395","2021-09-17 17:00","2021","09","17","17:00","13.3","","11.9","","91","","","","12","","35","","9.7","","99.80","","","","","","Rain,Fog"
"-123.18","49.19","VANCOUVER INTL A","1108395","2021-09-17 18:00","2021","09","17","18:00","13.5","","12.7","","94","","","","14","","36","","16.1","","99.78","","","","","","Rain"
"-123.18","49.19","VANCOUVER INTL A","1108395","2021-09-17 19:00","2021","09","17","19:00","13.6","","13.0","","96","","","","15","","40","","16.1","","99.74","","","","","","Rain"
"-123.18","49.19","VANCOUVER INTL A","1108395","2021-09-17 20:00","2021","09","17","20:00","14.1","","13.5","","96","","","","15","","32","","12.9","","99.74","","","","","","Rain"
"-123.18","49.19","VANCOUVER INTL A","1108395","2021-09-17 21:00","2021","09","17","21:00","13.9","","13.6","","98","","","","14","","19","","12.9","","99.78","","","","","","Moderate Rain"
"-123.18","49.19","VANCOUVER INTL A","1108395","2021-09-17 22:00","2021","09","17","22:00","14.1","","13.7","","97","","","","15","","17","","12.9","","99.82","","","","","","Moderate Rain"
"-123.18","49.19","VANCOUVER INTL A","1108395","2021-09-17 23:00","2021","09","17","23:00","14.0","","13.6","","97","","","","12","","18","","24.1","","99.83","","","","","","NA"
"-123.18","49.19","VANCOUVER INTL A","1108395","2021-09-18 00:00","2021","09","18","00:00","13.7","","13.4","","98","","","","10","","22","","24.1","","99.90","","","","","","NA"
"-123.18","49.19","VANCOUVER INTL A","1108395","2021-09-18 01:00","2021","09","18","01:00","13.8","","13.0","","95","","","","12","","22","","24.1","","99.97","","","","","","Cloudy"
"-123.18","49.19","VANCOUVER INTL A","1108395","2021-09-18 02:00","2021","09","18","02:00","13.7","","12.5","","92","","","","13","","21","","24.1","","99.98","","","","","","NA"
"-123.18","49.19","VANCOUVER INTL A","1108395","2021-09-18 03:00","2021","09","18","03:00","13.8","","12.3","","91","","","","16","","26","","32.2","","100.00","","","","","","NA"
"-123.18","49.19","VANCOUVER INTL A","1108395","2021-09-18 04:00","2021","09","18","04:00","13.2","","11.8","","91","","","","16","","19","","32.2","","100.06","","","","","","Mainly Clear"
"-123.18","49.19","VANCOUVER INTL A","1108395","2021-09-18 05:00","2021","09","18","05:00","13.1","","11.3","","89","","","","16","","24","","32.2","","100.10","","","","","","NA"
"-123.18","49.19","VANCOUVER INTL A","1108395","2021-09-18 06:00","2021","09","18","06:00","12.1","","11.0","","93","","","","7","","10","","32.2","","100.17","","","","","","NA"
"-123.18","49.19","VANCOUVER INTL A","1108395","2021-09-18 07:00","2021","09","18","07:00","12.2","","11.1","","93","","","","12","","17","","32.2","","100.25","","","","","","Mainly Clear"
"-123.18","49.19","VANCOUVER INTL A","1108395","2021-09-18 08:00","2021","09","18","08:00","14.7","","11.2","","80","","","","15","","23","","32.2","","100.29","","","","","","NA"
"-123.18","49.19","VANCOUVER INTL A","1108395","2021-09-18 09:00","2021","09","18","09:00","16.4","","11.6","","73","","","","16","","28","","40.2","","100.38","","","","","","NA"
"-123.18","49.19","VANCOUVER INTL A","1108395","2021-09-18 10:00","2021","09","18","10:00","16.4","","11.6","","73","","","","17","","30","","40.2","","100.41","","","","","","Mainly Clear"
"-123.18","49.19","VANCOUVER INTL A","1108395","2021-09-18 11:00","2021","09","18","11:00","18.2","","10.5","","61","","","","17","","20","","40.2","","100.45","","","","","","NA"
"-123.18","49.19","VANCOUVER INTL A","1108395","2021-09-18 12:00","2021","09","18","12:00","16.5","","10.6","","68","","","","17","","22","","32.2","","100.49","","","","","","Rain"
"-123.18","49.19","VANCOUVER INTL A","1108395","2021-09-18 13:00","2021","09","18","13:00","15.0","","12.5","","85","","","","15","","16","","40.2","","100.50","","","","","","Rain"
"-123.18","49.19","VANCOUVER INTL A","1108395","2021-09-18 14:00","2021","09","18","14:00","16.9","","9.6","","62","","","","16","","17","","40.2","","100.49","","","","","","Rain"
"-123.18","49.19","VANCOUVER INTL A","1108395","2021-09-18 15:00","2021","09","18","15:00","17.3","","9.9","","61","","","","18","","14","","40.2","","100.48","","","","","","NA"
"-123.18","49.19","VANCOUVER INTL A","1108395","2021-09-18 16:00","2021","09","18","16:00","16.2","","9.2","","63","","","","13","","7","","40.2","","100.48","","","","","","Mostly Cloudy"
"-123.18","49.19","VANCOUVER INTL A","1108395","2021-09-18 17:00","2021","09","18","17:00","15.6","","11.4","","76","","","","10","","13","","32.2","","100.48","","","","","","NA"
"-123.18","49.19","VANCOUVER INTL A","1108395","2021-09-18 18:00","2021","09","18","18:00","12.7","","10.4","","86","","","","14","","14","","19.3","","100.52","","","","","","Thunderstorms,Moderate Rain Showers"
"-123.18","49.19","VANCOUVER INTL A","1108395","2021-09-18 19:00","2021","09","18","19:00","13.5","","11.8","","89","","","","3","","13","","19.3","","100.57","","","","","","Thunderstorms,Rain Showers"
"-123.18","49.19","VANCOUVER INTL A","1108395","2021-09-18 20:00","2021","09","18","20:00","13.1","","11.7","","91","","","","7","","14","","24.1","","100.62","","","","","","Rain"
"-123.18","49.19","VANCOUVER INTL A","1108395","2021-09-18 21:00","2021","09","18","21:00","13.2","","11.6","","90","","","","11","","18","","24.1","","100.67","","","","","","NA"
"-123.18","49.19","VANCOUVER INTL A","1108395","2021-09-18 22:00","2021","09","18","22:00","12.6","","11.7","","94","","","","13","","13","","16.1","","100.72","","","","","","Rain"
"-123.18","49.19","VANCOUVER INTL A","1108395","2021-09-18 23:00","2021","09","18","23:00","12.5","","11.8","","96","","","","11","","12","","19.3","","100.74","","","","","","Rain"
"-123.18","49.19","VANCOUVER INTL A","1108395","2021-09-19 00:00","2021","09","19","00:00","12.5","","11.4","","93","","","","12","","18","","19.3","","100.77","","","","","","Rain"
"-123.18","49.19","VANCOUVER INTL A","1108395","2021-09-19 01:00","2021","09","19","01:00","12.3","","11.7","","96","","","","9","","15","","24.1","","100.80","","","","","","Cloudy"
"-123.18","49.19","VANCOUVER INTL A","1108395","2021-09-19 02:00","2021","09","19","02:00","12.2","","11.5","","95","","","","10","","22","","24.1","","100.83","","","","","","NA"
"-123.18","49.19","VANCOUVER INTL A","1108395","2021-09-19 03:00","2021","09","19","03:00","12.1","","11.3","","95","","","","12","","17","","24.1","","100.90","","","","","","NA"
"-123.18","49.19","VANCOUVER INTL A","1108395","2021-09-19 04:00","2021","09","19","04:00","12.0","","11.3","","96","","","","10","","17","","24.1","","100.93","","","","","","Cloudy"
"-123.18","49.19","VANCOUVER INTL A","1108395","2021-09-19 05:00","2021","09","19","05:00","12.1","","11.4","","96","","","","12","","17","","24.1","","101.00","","","","","","NA"
"-123.18","49.19","VANCOUVER INTL A","1108395","2021-09-19 06:00","2021","09","19","06:00","12.1","","11.4","","96","","","","12","","14","","24.1","","101.09","","","","","","NA"
"-123.18","49.19","VANCOUVER INTL A","1108395","2021-09-19 07:00","2021","09","19","07:00","12.3","","11.7","","96","","","","11","","16","","32.2","","101.17","","","","","","Mostly Cloudy"
"-123.18","49.19","VANCOUVER INTL A","1108395","2021-09-19 08:00","2021","09","19","08:00","12.9","","11.8","","93","","","","12","","19","","32.2","","101.23","","","","","","NA"
"-123.18","49.19","VANCOUVER INTL A","1108395","2021-09-19 09:00","2021","09","19","09:00","13.6","","12.1","","90","","","","13","","16","","32.2","","101.31","","","","","","NA"
"-123.18","49.19","VANCOUVER INTL A","1108395","2021-09-19 10:00","2021","09","19","10:00","13.9","","12.0","","88","","","","12","","13","","32.2","","101.40","","","","","","Mostly Cloudy"
"-123.18","49.19","VANCOUVER INTL A","1108395","2021-09-19 11:00","2021","09","19","11:00","14.4","","12.0","","85","","","","11","","10","","32.2","","101.48","","","","","","NA"
"-123.18","49.19","VANCOUVER INTL A","1108395","2021-09-19 12:00","2021","09","19","12:00","14.8","","11.5","","80","","","","17","","18","","40.2","","101.55","","","","","","NA"
"-123.18","49.19","VANCOUVER INTL A","1108395","2021-09-19 13:00","2021","09","19","13:00","15.0","","11.6","","80","","","","16","","17","","40.2","","101.60","","","","","","Mostly Cloudy"
"-123.18","49.19","VANCOUVER INTL A","1108395","2021-09-19 14:00","2021","09","19","14:00","14.6","","11.9","","83","","","","13","","15","","32.2","","101.66","","","","","","Drizzle"
"-123.18","49.19","VANCOUVER INTL A","1108395","2021-09-19 15:00","2021","09","19","15:00","14.8","","12.5","","86","","","","11","","12","","32.2","","101.67","","","","","","Rain"
"-123.18","49.19","VANCOUVER INTL A","1108395","2021-09-19 16:00","2021","09","19","16:00","15.5","","13.7","","89","","","","8","","10","","32.2","","101.68","","","","","","Mostly Cloudy"
"-123.18","49.19","VANCOUVER INTL A","1108395","2021-09-19 17:00","2021","09","19","17:00","14.9","","12.0","","82","","","","14","","5","","32.2","","101.72","","","","","","NA"
"-123.18","49.19","VANCOUVER INTL A","1108395","2021-09-19 18:00","2021","09","19","18:00","14.1","","12.3","","89","","","","24","","5","","48.3","","101.78","","","","","","NA"
"-123.18","49.19","VANCOUVER INTL A","1108395","2021-09-19 19:00","2021","09","19","19:00","13.3","","12.3","","94","","","","27","","5","","24.1","","101.87","","","","","","Mostly Cloudy"
"-123.18","49.19","VANCOUVER INTL A","1108395","2021-09-19 20:00","2021","09","19","20:00","12.4","","12.1","","98","","","","29","","4","","24.1","","101.97","","","","","","NA"
"-123.18","49.19","VANCOUVER INTL A","1108395","2021-09-19 21:00","2021","09","19","21:00","12.7","","12.5","","99","","","","30","","9","","24.1","","102.06","","","","","","NA"
"-123.18","49.19","VANCOUVER INTL A","1108395","2021-09-19 22:00","2021","09","19","22:00","12.8","","12.4","","97","","","","29","","12","","24.1","","102.16","","","","","","Mostly Cloudy"
"-123.18","49.19","VANCOUVER INTL A","1108395","2021-09-19 23:00","2021","09","19","23:00","11.6","","11.1","","97","","","","30","","10","","24.1","","102.21","","","","","","NA"
"-123.18","49.19","VANCOUVER INTL A","1108395","2021-09-20 00:00","2021","09","20","00:00","10.7","","10.4","","98","","","","30","","5","","24.1","","102.27","","","","","","NA"
"-123.18","49.19","VANCOUVER INTL A","1108395","2021-09-20 01:00","2021","09","20","01:00","12.8","","12.5","","98","","","","27","","9","","24.1","","102.33","","","","","","Mostly Cloudy"
"-123.18","49.19","VANCOUVER INTL A","1108395","2021-09-20 02:00","2021","09","20","02:00","12.5","","12.0","","96","","","","26","","7","","24.1","","102.40","","","","","","NA"
"-123.18","49.19","VANCOUVER INTL A","1108395","2021-09-20 03:00","2021","09","20","03:00","12.5","","12.0","","97","","","","36","","2","","24.1","","102.43","","","","","","NA"
"-123.18","49.19","VANCOUVER INTL A","1108395","2021-09-20 04:00","2021","09","20","04:00","12.1","","11.7","","97","","","","11","","7","","24.1","","102.49","","","","","","Mostly Cloudy"
"-123.18","49.19","VANCOUVER INTL A","1108395","2021-09-20 05:00","2021","09","20","05:00","12.3","","11.9","","97","","","","8","","8","","24.1","","102.54","","","","","","NA"
"-123.18","49.19","VANCOUVER INTL A","1108395","2021-09-20 06:00","2021","09","20","06:00","12.0","","11.2","","94","","","","9","","10","","32.2","","102.60","","","","","","NA"
"-123.18","49.19","VANCOUVER INTL A","1108395","2021-09-20 07:00","2021","09","20","07:00","12.1","","11.2","","94","","","","10","","12","","32.2","","102.67","","","","","","Cloudy"
"-123.18","49.19","VANCOUVER INTL A","1108395","2021-09-20 08:00","2021","09","20","08:00","12.8","","10.9","","88","","","","10","","17","","32.2","","102.72","","","","","","NA"
"-123.18","49.19","VANCOUVER INTL A","1108395","2021-09-20 09:00","2021","09","20","09:00","13.1","","11.3","","89","","","","10","","17","","40.2","","102.76","","","","","","NA"
"-123.18","49.19","VANCOUVER INTL A","1108395","2021-09-20 10:00","2021","09","20","10:00","14.2","","11.6","","84","","","","11","","21","","40.2","","102.80","","","","","","Mostly Cloudy"
"-123.18","49.19","VANCOUVER INTL A","1108395","2021-09-20 11:00","2021","09","20","11:00","15.7","","11.6","","76","","","","11","","16","","40.2","","102.83","","","","","","NA"
"-123.18","49.19","VANCOUVER INTL A","1108395","2021-09-20 12:00","2021","09","20","12:00","15.7","","11.1","","74","","","","13","","13","","40.2","","102.86","","","","","","NA"
"-123.18","49.19","VANCOUVER INTL A","1108395","2021-09-20 13:00","2021","09","20","13:00","16.2","","10.2","","67","","","","11","","9","","40.2","","102.87","","","","","","Mostly Cloudy"
"-123.18","49.19","VANCOUVER INTL A","1108395","2021-09-20 14:00","2021","09","20","14:00","16.5","","10.5","","67","","","","13","","9","","40.2","","102.86","","","","","","NA"
"-123.18","49.19","VANCOUVER INTL A","1108395","2021-09-20 15:00","2021","09","20","15:00","16.3","","10.8","","70","","","","16","","14","","40.2","","102.84","","","","","","NA"
"-123.18","49.19","VANCOUVER INTL A","1108395","2021-09-20 16:00","2021","09","20","16:00","16.4","","10.7","","68","","","","13","","5","","40.2","","102.83","","","","","","Cloudy"
"-123.18","49.19","VANCOUVER INTL A","1108395","2021-09-20 17:00","2021","09","20","17:00","16.5","","9.7","","64","","","","36","","3","","40.2","","102.81","","","","","","NA"
"-123.18","49.19","VANCOUVER INTL A","1108395","2021-09-20 18:00","2021","09","20","18:00","15.9","","10.2","","69","","","","2","","10","","32.2","","102.80","","","","","","NA"
"-123.18","49.19","VANCOUVER INTL A","1108395","2021-09-20 19:00","2021","09","20","19:00","16.0","","9.0","","63","","","","9","","6","","24.1","","102.81","","","","","","Mostly Cloudy"
"-123.18","49.19","VANCOUVER INTL A","1108395","2021-09-20 20:00","2021","09","20","20:00","14.8","","10.2","","74","","","","7","","10","","24.1","","102.82","","","","","","NA"
"-123.18","49.19","VANCOUVER INTL A","1108395","2021-09-20 21:00","2021","09","20","21:00","15.3","","11.3","","76","","","","7","","7","","24.1","","102.80","","","","","","NA"
"-123.18","49.19","VANCOUVER INTL A","1108395","2021-09-20 22:00","2021","09","20","22:00","14.1","","11.0","","81","","","","5","","12","","24.1","","102.77","","","","","","Clear"
"-123.18","49.19","VANCOUVER INTL A","1108395","2021-09-20 23:00","2021","09","20","23:00","12.4","","10.6","","88","","","","9","","8","","24.1","","102.75","","","","","","NA"
"-123.18","49.19","VANCOUVER INTL A","1108395","2021-09-21 00:00","2021","09","21","00:00","12.2","","10.2","","87","","","","9","","9","","24.1","","102.72","","","","","","NA"
"-123.18","49.19","VANCOUVER INTL A","1108395","2021-09-21 01:00","2021","09","21","01:00","11.8","","10.3","","90","","","","8","","9","","24.1","","102.67","","","","","","Mainly Clear"
"-123.18","49.19","VANCOUVER INTL A","1108395","2021-09-21 02:00","2021","09","21","02:00","11.6","","9.8","","89","","","","7","","5","","24.1","","102.63","","","","","","NA"
"-123.18","49.19","VANCOUVER INTL A","1108395","2021-09-21 03:00","2021","09","21","03:00","9.8","","9.1","","95","","","","10","","8","","24.1","","102.57","","","","","","NA"
"-123.18","49.19","VANCOUVER INTL A","1108395","2021-09-21 04:00","2021","09","21","04:00","9.6","","8.9","","95","","","","11","","7","","24.1","","102.51","","","","","","Clear"
"-123.18","49.19","VANCOUVER INTL A","1108395","2021-09-21 05:00","2021","09","21","05:00","10.2","","9.9","","98","","","","10","","3","","24.1","","102.48","","","","","","NA"
"-123.18","49.19","VANCOUVER INTL A","1108395","2021-09-21 06:00","2021","09","21","06:00","8.8","","8.4","","97","","","","","","0","","40.2","","102.46","","","","","","NA"
"-123.18","49.19","VANCOUVER INTL A","1108395","2021-09-21 07:00","2021","09","21","07:00","10.6","","9.8","","95","","","","36","","2","","40.2","","102.43","","","","","","Clear"
"-123.18","49.19","VANCOUVER INTL A","1108395","2021-09-21 08:00","2021","09","21","08:00","13.0","","9.9","","81","","","","21","","3","","40.2","","102.42","","","","","","NA"
"-123.18","49.19","VANCOUVER INTL A","1108395","2021-09-21 09:00","2021","09","21","09:00","14.4","","9.6","","73","","","","25","","5","","40.2","","102.39","","","","","","NA"
"-123.18","49.19","VANCOUVER INTL A","1108395","2021-09-21 10:00","2021","09","21","10:00","14.8","","10.4","","75","","","","23","","7","","40.2","","102.30","","","","","","Mostly Cloudy"
"-123.18","49.19","VANCOUVER INTL A","1108395","2021-09-21 11:00","2021","09","21","11:00","16.4","","12.7","","79","","","","31","","12","","40.2","","102.23","","","","","","NA"
"-123.18","49.19","VANCOUVER INTL A","1108395","2021-09-21 12:00","2021","09","21","12:00","16.1","","12.2","","77","","","","28","","15","","40.2","","102.14","","","","","","NA"
"-123.18","49.19","VANCOUVER INTL A","1108395","2021-09-21 13:00","2021","09","21","13:00","16.9","","12.8","","77","","","","29","","13","","40.2","","102.05","","","","","","Mostly Cloudy"
"-123.18","49.19","VANCOUVER INTL A","1108395","2021-09-21 14:00","2021","09","21","14:00","16.6","","12.5","","77","","","","28","","10","","40.2","","101.91","","","","","","NA"
"-123.18","49.19","VANCOUVER INTL A","1108395","2021-09-21 15:00","2021","09","21","15:00","17.0","","12.3","","74","","","","28","","15","","40.2","","101.84","","","","","","NA"
"-123.18","49.19","VANCOUVER INTL A","1108395","2021-09-21 16:00","2021","09","21","16:00","16.9","","11.9","","72","","","","29","","17","","40.2","","101.76","","","","","","Mostly Cloudy"
"-123.18","49.19","VANCOUVER INTL A","1108395","2021-09-21 17:00","2021","09","21","17:00","14.5","","11.9","","84","","","","30","","9","","40.2","","101.69","","","","","","NA"
"-123.18","49.19","VANCOUVER INTL A","1108395","2021-09-21 18:00","2021","09","21","18:00","14.4","","12.8","","90","","","","29","","14","","40.2","","101.66","","","","","","NA"
"-123.18","49.19","VANCOUVER INTL A","1108395","2021-09-21 19:00","2021","09","21","19:00","13.9","","13.0","","94","","","","27","","6","","24.1","","101.63","","","","","","Mostly Cloudy"
"-123.18","49.19","VANCOUVER INTL A","1108395","2021-09-21 20:00","2021","09","21","20:00","13.4","","13.0","","97","","","","31","","5","","24.1","","101.64","","","","","","NA"
"-123.18","49.19","VANCOUVER INTL A","1108395","2021-09-21 21:00","2021","09","21","21:00","13.4","","13.2","","98","","","","36","","2","","24.1","","101.61","","","","","","NA"
"-123.18","49.19","VANCOUVER INTL A","1108395","2021-09-21 22:00","2021","09","21","22:00","13.7","","13.3","","98","","","","34","","3","","24.1","","101.61","","","","","","Mostly Cloudy"
"-123.18","49.19","VANCOUVER INTL A","1108395","2021-09-21 23:00","2021","09","21","23:00","13.2","","12.7","","97","","","","10","","12","","24.1","","101.55","","","","","","NA"
"-123.18","49.19","VANCOUVER INTL A","1108395","2021-09-22 00:00","2021","09","22","00:00","12.9","","12.5","","97","","","","24","","4","","24.1","","101.62","","","","","","NA"
"-123.18","49.19","VANCOUVER INTL A","1108395","2021-09-22 01:00","2021","09","22","01:00","13.5","","13.0","","97","","","","10","","4","","24.1","","101.62","","","","","","Mostly Cloudy"
"-123.18","49.19","VANCOUVER INTL A","1108395","2021-09-22 02:00","2021","09","22","02:00","13.2","","12.3","","94","","","","8","","4","","24.1","","101.62","","","","","","NA"
"-123.18","49.19","VANCOUVER INTL A","1108395","2021-09-22 03:00","2021","09","22","03:00","12.6","","12.2","","97","","","","31","","3","","24.1","","101.63","","","","","","NA"
"-123.18","49.19","VANCOUVER INTL A","1108395","2021-09-22 04:00","2021","09","22","04:00","12.8","","12.4","","98","","","","29","","7","","16.1","","101.67","","","","","","Rain"
"-123.18","49.19","VANCOUVER INTL A","1108395","2021-09-22 05:00","2021","09","22","05:00","13.8","","13.6","","98","","","","30","","14","","16.1","","101.74","","","","","","Rain"
"-123.18","49.19","VANCOUVER INTL A","1108395","2021-09-22 06:00","2021","09","22","06:00","13.6","","13.4","","98","","","","28","","17","","20.9","","101.74","","","","","","Rain"
"-123.18","49.19","VANCOUVER INTL A","1108395","2021-09-22 07:00","2021","09","22","07:00","13.5","","13.3","","99","","","","30","","23","","8.1","","101.76","","","","","","Rain,Fog"
"-123.18","49.19","VANCOUVER INTL A","1108395","2021-09-22 08:00","2021","09","22","08:00","13.9","","13.7","","99","","","","30","","21","","11.3","","101.83","","","","","","NA"
"-123.18","49.19","VANCOUVER INTL A","1108395","2021-09-22 09:00","2021","09","22","09:00","13.6","","13.4","","99","","","","29","","21","","8.1","","101.92","","","","","","Fog"
"-123.18","49.19","VANCOUVER INTL A","1108395","2021-09-22 10:00","2021","09","22","10:00","14.1","","13.8","","99","","","","30","","13","","11.3","","101.99","","","","","","Cloudy"
"-123.18","49.19","VANCOUVER INTL A","1108395","2021-09-22 11:00","2021","09","22","11:00","15.9","","14.7","","93","","","","28","","11","","32.2","","102.01","","","","","","NA"
"-123.18","49.19","VANCOUVER INTL A","1108395","2021-09-22 12:00","2021","09","22","12:00","16.1","","14.4","","89","","","","28","","9","","32.2","","102.06","","","","","","NA"
"-123.18","49.19","VANCOUVER INTL A","1108395","2021-09-22 13:00","2021","09","22","13:00","17.2","","14.9","","86","","","","28","","12","","40.2","","102.09","","","","","","Mainly Clear"
"-123.18","49.19","VANCOUVER INTL A","1108395","2021-09-22 14:00","2021","09","22","14:00","17.5","","13.9","","79","","","","30","","14","","48.3","","102.14","","","","","","NA"
"-123.18","49.19","VANCOUVER INTL A","1108395","2021-09-22 15:00","2021","09","22","15:00","16.5","","13.0","","80","","","","25","","11","","48.3","","102.20","","","","","","NA"
"-123.18","49.19","VANCOUVER INTL A","1108395","2021-09-22 16:00","2021","09","22","16:00","17.2","","12.7","","75","","","","22","","13","","48.3","","102.21","","","","","","Clear"
"-123.18","49.19","VANCOUVER INTL A","1108395","2021-09-22 17:00","2021","09","22","17:00","17.3","","13.1","","76","","","","15","","13","","48.3","","102.24","","","","","","NA"
"-123.18","49.19","VANCOUVER INTL A","1108395","2021-09-22 18:00","2021","09","22","18:00","15.2","","12.2","","82","","","","12","","11","","40.2","","102.29","","","","","","NA"
"-123.18","49.19","VANCOUVER INTL A","1108395","2021-09-22 19:00","2021","09","22","19:00","14.7","","12.2","","85","","","","11","","7","","32.2","","102.37","","","","","","Mainly Clear"
"-123.18","49.19","VANCOUVER INTL A","1108395","2021-09-22 20:00","2021","09","22","20:00","13.4","","12.1","","92","","","","9","","12","","32.2","","102.42","","","","","","NA"
"-123.18","49.19","VANCOUVER INTL A","1108395","2021-09-22 21:00","2021","09","22","21:00","12.7","","11.8","","94","","","","7","","9","","32.2","","102.43","","","","","","NA"
"-123.18","49.19","VANCOUVER INTL A","1108395","2021-09-22 22:00","2021","09","22","22:00","13.7","","12.4","","91","","","","7","","12","","32.2","","102.45","","","","","","Mostly Cloudy"
"-123.18","49.19","VANCOUVER INTL A","1108395","2021-09-22 23:00","2021","09","22","23:00","12.4","","11.5","","94","","","","8","","5","","32.2","","102.44","","","","","","NA"
"-123.18","49.19","VANCOUVER INTL A","1108395","2021-09-23 00:00","2021","09","23","00:00","14.0","","12.8","","93","","","","8","","11","","32.2","","102.48","","","","","","NA"
"-123.18","49.19","VANCOUVER INTL A","1108395","2021-09-23 01:00","2021","09","23","01:00","13.4","","12.6","","94","","","","36","","2","","32.2","","102.51","","","","","","Mostly Cloudy"
"-123.18","49.19","VANCOUVER INTL A","1108395","2021-09-23 02:00","2021","09","23","02:00","12.7","","11.8","","94","","","","13","","3","","32.2","","102.52","","","","","","NA"
"-123.18","49.19","VANCOUVER INTL A","1108395","2021-09-23 03:00","2021","09","23","03:00","12.5","","12.1","","98","","","","36","","1","","32.2","","102.52","","","","","","NA"
"-123.18","49.19","VANCOUVER INTL A","1108395","2021-09-23 04:00","2021","09","23","04:00","13.0","","12.7","","98","","","","36","","1","","32.2","","102.55","","","","","","Mostly Cloudy"
"-123.18","49.19","VANCOUVER INTL A","1108395","2021-09-23 05:00","2021","09","23","05:00","12.6","","12.3","","99","","","","16","","5","","32.2","","102.55","","","","","","NA"
"-123.18","49.19","VANCOUVER INTL A","1108395","2021-09-23 06:00","2021","09","23","06:00","12.9","","12.1","","95","","","","9","","10","","24.1","","102.58","","","","","","NA"
"-123.18","49.19","VANCOUVER INTL A","1108395","2021-09-23 07:00","2021","09","23","07:00","13.4","","12.4","","94","","","","21","","3","","32.2","","102.63","","","","","","Mostly Cloudy"
"-123.18","49.19","VANCOUVER INTL A","1108395","2021-09-23 08:00","2021","09","23","08:00","13.7","","11.8","","88","","","","14","","8","","32.2","","102.62","","","","","","NA"
"-123.18","49.19","VANCOUVER INTL A","1108395","2021-09-23 09:00","2021","09","23","09:00","14.2","","12.3","","88","","","","9","","7","","32.2","","102.63","","","","","","NA"
"-123.18","49.19","VANCOUVER INTL A","1108395","2021-09-23 10:00","2021","09","23","10:00","14.8","","12.1","","84","","","","14","","7","","32.2","","102.65","","","","","","Mostly Cloudy"
"-123.18","49.19","VANCOUVER INTL A","1108395","2021-09-23 11:00","2021","09","23","11:00","16.3","","12.3","","77","","","","10","","10","","32.2","","102.63","","","","","","NA"
"-123.18","49.19","VANCOUVER INTL A","1108395","2021-09-23 12:00","2021","09","23","12:00","15.7","","13.2","","85","","","","25","","14","","32.2","","102.65","","","","","","NA"
"-123.18","49.19","VANCOUVER INTL A","1108395","2021-09-23 13:00","2021","09","23","13:00","15.5","","13.4","","87","","","","25","","10","","32.2","","102.64","","","","","","Clear"
"-123.18","49.19","VANCOUVER INTL A","1108395","2021-09-23 14:00","2021","09","23","14:00","15.9","","13.1","","83","","","","24","","13","","32.2","","102.59","","","","","","NA"
"-123.18","49.19","VANCOUVER INTL A","1108395","2021-09-23 15:00","2021","09","23","15:00","16.6","","13.6","","82","","","","29","","13","","32.2","","102.57","","","","","","NA"
"-123.18","49.19","VANCOUVER INTL A","1108395","2021-09-23 16:00","2021","09","23","16:00","16.3","","13.4","","83","","","","30","","10","","48.3","","102.54","","","","","","Mainly Clear"
"-123.18","49.19","VANCOUVER INTL A","1108395","2021-09-23 17:00","2021","09","23","17:00","15.8","","12.8","","82","","","","29","","13","","48.3","","102.49","","","","","","NA"
"-123.18","49.19","VANCOUVER INTL A","1108395","2021-09-23 18:00","2021","09","23","18:00","13.4","","12.2","","92","","","","31","","7","","40.2","","102.44","","","","","","NA"
"-123.18","49.19","VANCOUVER INTL A","1108395","2021-09-23 19:00","2021","09","23","19:00","12.3","","11.3","","94","","","","31","","12","","32.2","","102.46","","","","","","Mainly Clear"
"-123.18","49.19","VANCOUVER INTL A","1108395","2021-09-23 20:00","2021","09","23","20:00","12.8","","11.2","","89","","","","28","","3","","32.2","","102.45","","","","","","NA"
"-123.18","49.19","VANCOUVER INTL A","1108395","2021-09-23 21:00","2021","09","23","21:00","11.4","","10.7","","96","","","","30","","6","","32.2","","102.44","","","","","","NA"
"-123.18","49.19","VANCOUVER INTL A","1108395","2021-09-23 22:00","2021","09","23","22:00","11.7","","11.1","","96","","","","29","","6","","32.2","","102.42","","","","","","Mainly Clear"
"-123.18","49.19","VANCOUVER INTL A","1108395","2021-09-23 23:00","2021","09","23","23:00","11.9","","10.7","","92","","","","36","","4","","32.2","","102.40","","","","","","NA"
"-123.18","49.19","VANCOUVER INTL A","1108395","2021-09-24 00:00","2021","09","24","00:00","12.1","","11.5","","97","","","","35","","3","","32.2","","102.37","","","","","","NA"
"-123.18","49.19","VANCOUVER INTL A","1108395","2021-09-24 01:00","2021","09","24","01:00","11.2","","10.9","","98","","","","36","","3","","32.2","","102.35","","","","","","Mainly Clear"
"-123.18","49.19","VANCOUVER INTL A","1108395","2021-09-24 02:00","2021","09","24","02:00","10.5","","9.9","","96","","","","1","","8","","32.2","","102.32","","","","","","NA"
"-123.18","49.19","VANCOUVER INTL A","1108395","2021-09-24 03:00","2021","09","24","03:00","11.1","","9.7","","92","","","","11","","5","","32.2","","102.26","","","","","","NA"
"-123.18","49.19","VANCOUVER INTL A","1108395","2021-09-24 04:00","2021","09","24","04:00","10.7","","10.0","","96","","","","36","","2","","32.2","","102.18","","","","","","Clear"
"-123.18","49.19","VANCOUVER INTL A","1108395","2021-09-24 05:00","2021","09","24","05:00","8.6","","7.6","","94","","","","33","","7","","32.2","","102.13","","","","","","NA"
"-123.18","49.19","VANCOUVER INTL A","1108395","2021-09-24 06:00","2021","09","24","06:00","11.6","","10.7","","94","","","","4","","3","","48.3","","102.10","","","","","","NA"
"-123.18","49.19","VANCOUVER INTL A","1108395","2021-09-24 07:00","2021","09","24","07:00","14.9","","11.2","","78","","","","1","","4","","48.3","","102.07","","","","","","Mostly Cloudy"
"-123.18","49.19","VANCOUVER INTL A","1108395","2021-09-24 08:00","2021","09","24","08:00","15.2","","12.0","","80","","","","9","","4","","48.3","","102.05","","","","","","NA"
"-123.18","49.19","VANCOUVER INTL A","1108395","2021-09-24 09:00","2021","09","24","09:00","16.1","","11.8","","75","","","","9","","4","","48.3","","102.03","","","","","","NA"
"-123.18","49.19","VANCOUVER INTL A","1108395","2021-09-24 10:00","2021","09","24","10:00","18.3","","12.5","","68","","","","9","","4","","48.3","","101.98","","","","","","Mostly Cloudy"
"-123.18","49.19","VANCOUVER INTL A","1108395","2021-09-24 11:00","2021","09","24","11:00","16.6","","13.2","","80","","","","28","","17","","48.3","","101.92","","","","","","NA"
"-123.18","49.19","VANCOUVER INTL A","1108395","2021-09-24 12:00","2021","09","24","12:00","17.8","","13.4","","75","","","","29","","12","","48.3","","101.82","","","","","","NA"
"-123.18","49.19","VANCOUVER INTL A","1108395","2021-09-24 13:00","2021","09","24","13:00","17.1","","13.8","","81","","","","25","","9","","48.3","","101.71","","","","","","Mostly Cloudy"
"-123.18","49.19","VANCOUVER INTL A","1108395","2021-09-24 14:00","2021","09","24","14:00","17.6","","13.4","","76","","","","24","","9","","48.3","","101.61","","","","","","NA"
"-123.18","49.19","VANCOUVER INTL A","1108395","2021-09-24 15:00","2021","09","24","15:00","17.3","","12.9","","75","","","","28","","9","","48.3","","101.51","","","","","","NA"
"-123.18","49.19","VANCOUVER INTL A","1108395","2021-09-24 16:00","2021","09","24","16:00","17.2","","13.8","","80","","","","29","","12","","48.3","","101.41","","","","","","Mostly Cloudy"
"-123.18","49.19","VANCOUVER INTL A","1108395","2021-09-24 17:00","2021","09","24","17:00","16.4","","13.4","","82","","","","29","","11","","48.3","","101.30","","","","","","NA"
"-123.18","49.19","VANCOUVER INTL A","1108395","2021-09-24 18:00","2021","09","24","18:00","14.5","","13.1","","92","","","","29","","10","","48.3","","101.23","","","","","","NA"
"-123.18","49.19","VANCOUVER INTL A","1108395","2021-09-24 19:00","2021","09","24","19:00","13.2","","12.6","","96","","","","30","","12","","32.2","","101.19","","","","","","Mainly Clear"
"-123.18","49.19","VANCOUVER INTL A","1108395","2021-09-24 20:00","2021","09","24","20:00","13.5","","12.9","","96","","","","30","","13","","32.2","","101.18","","","","","","NA"
"-123.18","49.19","VANCOUVER INTL A","1108395","2021-09-24 21:00","2021","09","24","21:00","13.0","","12.7","","98","","","","29","","9","","32.2","","101.16","","","","","","NA"
"-123.18","49.19","VANCOUVER INTL A","1108395","2021-09-24 22:00","2021","09","24","22:00","13.2","","12.7","","97","","","","29","","10","","32.2","","101.16","","","","","","Mainly Clear"
"-123.18","49.19","VANCOUVER INTL A","1108395","2021-09-24 23:00","2021","09","24","23:00","13.6","","13.4","","99","","","","34","","4","","32.2","","101.14","","","","","","NA"
"-123.18","49.19","VANCOUVER INTL A","1108395","2021-09-25 00:00","2021","09","25","00:00","11.2","","11.1","","99","","","","34","","8","","32.2","","101.13","","","","","","NA"
"-123.18","49.19","VANCOUVER INTL A","1108395","2021-09-25 01:00","2021","09","25","01:00","12.5","","12.0","","97","","","","9","","4","","32.2","","101.11","","","","","","Mainly Clear"
"-123.18","49.19","VANCOUVER INTL A","1108395","2021-09-25 02:00","2021","09","25","02:00","11.4","","11.2","","98","","","","12","","4","","32.2","","101.09","","","","","","NA"
"-123.18","49.19","VANCOUVER INTL A","1108395","2021-09-25 03:00","2021","09","25","03:00","11.7","","11.5","","99","","","","10","","4","","32.2","","101.06","","","","","","NA"
"-123.18","49.19","VANCOUVER INTL A","1108395","2021-09-25 04:00","2021","09","25","04:00","11.6","","11.4","","98","","","","10","","12","","32.2","","101.06","","","","","","Clear"
"-123.18","49.19","VANCOUVER INTL A","1108395","2021-09-25 05:00","2021","09","25","05:00","12.1","","11.9","","99","","","","17","","5","","32.2","","101.07","","","","","","NA"
"-123.18","49.19","VANCOUVER INTL A","1108395","2021-09-25 06:00","2021","09","25","06:00","11.2","","11.1","","99","","","","36","","3","","32.2","","101.12","","","","","","NA"
"-123.18","49.19","VANCOUVER INTL A","1108395","2021-09-25 07:00","2021","09","25","07:00","12.2","","12.0","","99","","","","8","","8","","48.3","","101.14","","","","","","Mainly Clear"
"-123.18","49.19","VANCOUVER INTL A","1108395","2021-09-25 08:00","2021","09","25","08:00","14.2","","13.9","","98","","","","11","","14","","48.3","","101.12","","","","","","NA"
"-123.18","49.19","VANCOUVER INTL A","1108395","2021-09-25 09:00","2021","09","25","09:00","16.0","","14.0","","88","","","","12","","10","","48.3","","101.14","","","","","","NA"
"-123.18","49.19","VANCOUVER INTL A","1108395","2021-09-25 10:00","2021","09","25","10:00","17.8","","14.1","","79","","","","12","","16","","48.3","","101.12","","","","","","Clear"
"-123.18","49.19","VANCOUVER INTL A","1108395","2021-09-25 11:00","2021","09","25","11:00","19.4","","13.7","","69","","","","11","","13","","48.3","","101.10","","","","","","NA"
"-123.18","49.19","VANCOUVER INTL A","1108395","2021-09-25 12:00","2021","09","25","12:00","20.8","","13.7","","63","","","","11","","10","","48.3","","101.09","","","","","","NA"
"-123.18","49.19","VANCOUVER INTL A","1108395","2021-09-25 13:00","2021","09","25","13:00","21.9","","13.9","","60","","","","12","","15","","48.3","","101.03","","25","","","","Mainly Clear"
"-123.18","49.19","VANCOUVER INTL A","1108395","2021-09-25 14:00","2021","09","25","14:00","21.4","","11.9","","54","","","","11","","17","","48.3","","100.95","","","","","","NA"
"-123.18","49.19","VANCOUVER INTL A","1108395","2021-09-25 15:00","2021","09","25","15:00","20.9","","11.9","","56","","","","14","","13","","48.3","","100.91","","","","","","NA"
"-123.18","49.19","VANCOUVER INTL A","1108395","2021-09-25 16:00","2021","09","25","16:00","20.5","","12.2","","59","","","","11","","15","","48.3","","100.84","","","","","","Mostly Cloudy"
"-123.18","49.19","VANCOUVER INTL A","1108395","2021-09-25 17:00","2021","09","25","17:00","19.5","","11.9","","61","","","","11","","15","","40.2","","100.81","","","","","","NA"
"-123.18","49.19","VANCOUVER INTL A","1108395","2021-09-25 18:00","2021","09","25","18:00","18.2","","11.9","","66","","","","12","","17","","40.2","","100.78","","","","","","NA"
"-123.18","49.19","VANCOUVER INTL A","1108395","2021-09-25 19:00","2021","09","25","19:00","16.4","","11.7","","73","","","","10","","15","","32.2","","100.77","","","","","","Mostly Cloudy"
"-123.18","49.19","VANCOUVER INTL A","1108395","2021-09-25 20:00","2021","09","25","20:00","16.9","","9.5","","61","","","","11","","16","","32.2","","100.78","","","","","","NA"
"-123.18","49.19","VANCOUVER INTL A","1108395","2021-09-25 21:00","2021","09","25","21:00","15.9","","9.7","","67","","","","13","","17","","32.2","","100.84","","","","","","NA"
"-123.18","49.19","VANCOUVER INTL A","1108395","2021-09-25 22:00","2021","09","25","22:00","14.9","","9.6","","70","","","","10","","14","","32.2","","100.85","","","","","","Mostly Cloudy"
"-123.18","49.19","VANCOUVER INTL A","1108395","2021-09-25 23:00","2021","09","25","23:00","13.7","","9.2","","74","","","","10","","15","","32.2","","100.77","","","","","","NA"
"-123.18","49.19","VANCOUVER INTL A","1108395","2021-09-26 00:00","2021","09","26","00:00","13.5","","10.8","","83","","","","11","","22","","32.2","","100.76","","","","","","NA"
"-123.18","49.19","VANCOUVER INTL A","1108395","2021-09-26 01:00","2021","09","26","01:00","13.4","","10.7","","83","","","","11","","17","","32.2","","100.78","","","","","","Mainly Clear"
"-123.18","49.19","VANCOUVER INTL A","1108395","2021-09-26 02:00","2021","09","26","02:00","12.6","","10.2","","85","","","","9","","16","","32.2","","100.82","","","","","","NA"
"-123.18","49.19","VANCOUVER INTL A","1108395","2021-09-26 03:00","2021","09","26","03:00","12.6","","10.5","","87","","","","8","","18","","32.2","","100.83","","","","","","NA"
"-123.18","49.19","VANCOUVER INTL A","1108395","2021-09-26 04:00","2021","09","26","04:00","12.9","","9.9","","82","","","","10","","15","","32.2","","100.89","","","","","","Cloudy"
"-123.18","49.19","VANCOUVER INTL A","1108395","2021-09-26 05:00","2021","09","26","05:00","12.6","","11.2","","91","","","","9","","22","","32.2","","100.88","","","","","","NA"
"-123.18","49.19","VANCOUVER INTL A","1108395","2021-09-26 06:00","2021","09","26","06:00","12.6","","11.2","","91","","","","10","","21","","32.2","","100.93","","","","","","Rain"
"-123.18","49.19","VANCOUVER INTL A","1108395","2021-09-26 07:00","2021","09","26","07:00","12.4","","11.4","","93","","","","11","","13","","24.1","","100.99","","","","","","Rain"
"-123.18","49.19","VANCOUVER INTL A","1108395","2021-09-26 08:00","2021","09","26","08:00","12.4","","11.8","","96","","","","9","","15","","24.1","","101.02","","","","","","Rain"
"-123.18","49.19","VANCOUVER INTL A","1108395","2021-09-26 09:00","2021","09","26","09:00","12.6","","12.1","","97","","","","10","","20","","12.9","","101.06","","","","","","Rain"
"-123.18","49.19","VANCOUVER INTL A","1108395","2021-09-26 10:00","2021","09","26","10:00","12.8","","12.4","","98","","","","8","","18","","12.9","","101.05","","","","","","Rain"
"-123.18","49.19","VANCOUVER INTL A","1108395","2021-09-26 11:00","2021","09","26","11:00","13.6","","12.2","","91","","","","8","","23","","24.1","","101.00","","","","","","NA"
"-123.18","49.19","VANCOUVER INTL A","1108395","2021-09-26 12:00","2021","09","26","12:00","13.7","","12.9","","95","","","","9","","18","","16.1","","101.00","","","","","","NA"
"-123.18","49.19","VANCOUVER INTL A","1108395","2021-09-26 13:00","2021","09","26","13:00","14.0","","12.7","","92","","","","8","","18","","6.4","","100.92","","","","","","Rain,Fog"
"-123.18","49.19","VANCOUVER INTL A","1108395","2021-09-26 14:00","2021","09","26","14:00","14.2","","12.5","","90","","","","7","","22","","24.1","","100.84","","","","","","NA"
"-123.18","49.19","VANCOUVER INTL A","1108395","2021-09-26 15:00","2021","09","26","15:00","13.8","","12.8","","94","","","","8","","17","","12.9","","100.72","","","","","","Rain"
"-123.18","49.19","VANCOUVER INTL A","1108395","2021-09-26 16:00","2021","09","26","16:00","13.6","","13.2","","97","","","","6","","11","","8.1","","100.66","","","","","","Moderate Rain,Fog"
"-123.18","49.19","VANCOUVER INTL A","1108395","2021-09-26 17:00","2021","09","26","17:00","13.7","","12.8","","94","","","","7","","16","","16.1","","100.50","","","","","","Rain"
"-123.18","49.19","VANCOUVER INTL A","1108395","2021-09-26 18:00","2021","09","26","18:00","13.5","","13.1","","97","","","","8","","17","","16.1","","100.29","","","","","","Rain"
"-123.18","49.19","VANCOUVER INTL A","1108395","2021-09-26 19:00","2021","09","26","19:00","13.5","","12.8","","95","","","","9","","18","","12.9","","100.14","","","","","","Heavy Rain"
"-123.18","49.19","VANCOUVER INTL A","1108395","2021-09-26 20:00","2021","09","26","20:00","13.5","","13.2","","98","","","","9","","16","","12.9","","100.16","","","","","","Moderate Rain"
"-123.18","49.19","VANCOUVER INTL A","1108395","2021-09-26 21:00","2021","09","26","21:00","14.1","","13.4","","96","","","","11","","21","","12.9","","100.16","","","","","","Rain"
"-123.18","49.19","VANCOUVER INTL A","1108395","2021-09-26 22:00","2021","09","26","22:00","14.1","","13.4","","95","","","","12","","27","","19.3","","100.10","","","","","","Mostly Cloudy"
"-123.18","49.19","VANCOUVER INTL A","1108395","2021-09-26 23:00","2021","09","26","23:00","14.2","","13.3","","94","","","","13","","25","","19.3","","100.07","","","","","","NA"
"-123.18","49.19","VANCOUVER INTL A","1108395","2021-09-27 00:00","2021","09","27","00:00","14.5","","13.5","","93","","","","14","","22","","19.3","","100.14","","","","","","NA"
"-123.18","49.19","VANCOUVER INTL A","1108395","2021-09-27 01:00","2021","09","27","01:00","14.4","","13.3","","93","","","","17","","28","","19.3","","100.25","","","","","","Mostly Cloudy"
"-123.18","49.19","VANCOUVER INTL A","1108395","2021-09-27 02:00","2021","09","27","02:00","13.8","","9.7","","76","","","","16","","3","","19.3","","100.33","","","","","","NA"
"-123.18","49.19","VANCOUVER INTL A","1108395","2021-09-27 03:00","2021","09","27","03:00","13.2","","10.2","","82","","","","13","","14","","24.1","","100.40","","","","","","NA"
"-123.18","49.19","VANCOUVER INTL A","1108395","2021-09-27 04:00","2021","09","27","04:00","13.4","","10.0","","80","","","","14","","18","","19.3","","100.42","","","","","","Mostly Cloudy"
"-123.18","49.19","VANCOUVER INTL A","1108395","2021-09-27 05:00","2021","09","27","05:00","12.8","","9.7","","81","","","","13","","19","","24.1","","100.47","","","","","","NA"
"-123.18","49.19","VANCOUVER INTL A","1108395","2021-09-27 06:00","2021","09","27","06:00","13.4","","10.5","","82","","","","12","","22","","32.2","","100.53","","","","","","NA"
"-123.18","49.19","VANCOUVER INTL A","1108395","2021-09-27 07:00","2021","09","27","07:00","13.2","","11.6","","90","","","","12","","20","","24.1","","100.57","","","","","","Mostly Cloudy"
"-123.18","49.19","VANCOUVER INTL A","1108395","2021-09-27 08:00","2021","09","27","08:00","13.9","","12.0","","88","","","","11","","17","","32.2","","100.55","","","","","","NA"
"-123.18","49.19","VANCOUVER INTL A","1108395","2021-09-27 09:00","2021","09","27","09:00","16.4","","13.3","","82","","","","12","","21","","32.2","","100.57","","","","","","NA"
"-123.18","49.19","VANCOUVER INTL A","1108395","2021-09-27 10:00","2021","09","27","10:00","15.7","","11.8","","77","","","","14","","29","","32.2","","100.59","","","","","","Mostly Cloudy"
"-123.18","49.19","VANCOUVER INTL A","1108395","2021-09-27 11:00","2021","09","27","11:00","14.9","","11.6","","81","","","","13","","31","","32.2","","100.58","","","","","","Drizzle"
"-123.18","49.19","VANCOUVER INTL A","1108395","2021-09-27 12:00","2021","09","27","12:00","14.6","","12.1","","85","","","","14","","17","","24.1","","100.57","","","","","","Rain"
"-123.18","49.19","VANCOUVER INTL A","1108395","2021-09-27 13:00","2021","09","27","13:00","14.4","","12.4","","87","","","","18","","16","","16.1","","100.60","","","","","","Moderate Rain"
"-123.18","49.19","VANCOUVER INTL A","1108395","2021-09-27 14:00","2021","09","27","14:00","13.5","","12.8","","96","","","","22","","8","","11.3","","100.59","","","","","","Moderate Rain"
"-123.18","49.19","VANCOUVER INTL A","1108395","2021-09-27 15:00","2021","09","27","15:00","14.6","","13.1","","90","","","","14","","7","","24.1","","100.58","","","","","","Rain"
"-123.18","49.19","VANCOUVER INTL A","1108395","2021-09-27 16:00","2021","09","27","16:00","15.2","","11.9","","81","","","","14","","19","","40.2","","100.61","","","","","","Mostly Cloudy"
"-123.18","49.19","VANCOUVER INTL A","1108395","2021-09-27 17:00","2021","09","27","17:00","14.0","","10.8","","81","","","","16","","13","","40.2","","100.63","","","","","","NA"
"-123.18","49.19","VANCOUVER INTL A","1108395","2021-09-27 18:00","2021","09","27","18:00","12.7","","10.5","","86","","","","13","","15","","32.2","","100.66","","","","","","NA"
"-123.18","49.19","VANCOUVER INTL A","1108395","2021-09-27 19:00","2021","09","27","19:00","12.2","","11.3","","94","","","","9","","18","","24.1","","100.71","","","","","","Mainly Clear"
"-123.18","49.19","VANCOUVER INTL A","1108395","2021-09-27 20:00","2021","09","27","20:00","11.6","","10.9","","96","","","","10","","16","","24.1","","100.76","","","","","","NA"
"-123.18","49.19","VANCOUVER INTL A","1108395","2021-09-27 21:00","2021","09","27","21:00","12.2","","11.5","","96","","","","10","","18","","12.9","","100.79","","","","","","Rain Showers"
"-123.18","49.19","VANCOUVER INTL A","1108395","2021-09-27 22:00","2021","09","27","22:00","12.3","","11.8","","97","","","","11","","20","","24.1","","100.81","","","","","","Cloudy"
"-123.18","49.19","VANCOUVER INTL A","1108395","2021-09-27 23:00","2021","09","27","23:00","12.5","","12.0","","96","","","","12","","16","","12.9","","100.83","","","","","","Rain"
"-123.18","49.19","VANCOUVER INTL A","1108395","2021-09-28 00:00","2021","09","28","00:00","12.3","","11.0","","92","","","","13","","23","","24.1","","100.86","","","","","","NA"
"-123.18","49.19","VANCOUVER INTL A","1108395","2021-09-28 01:00","2021","09","28","01:00","12.1","","10.6","","90","","","","14","","21","","20.9","","100.88","","","","","","Mostly Cloudy"
"-123.18","49.19","VANCOUVER INTL A","1108395","2021-09-28 02:00","2021","09","28","02:00","12.0","","10.6","","91","","","","14","","15","","19.3","","100.91","","","","","","NA"
"-123.18","49.19","VANCOUVER INTL A","1108395","2021-09-28 03:00","2021","09","28","03:00","11.7","","10.7","","93","","","","13","","18","","4.0","","100.94","","","","","","Moderate Rain Showers"
"-123.18","49.19","VANCOUVER INTL A","1108395","2021-09-28 04:00","2021","09","28","04:00","11.5","","10.9","","97","","","","13","","19","","6.4","","100.92","","","","","","Rain Showers"
"-123.18","49.19","VANCOUVER INTL A","1108395","2021-09-28 05:00","2021","09","28","05:00","11.5","","10.8","","95","","","","14","","24","","16.1","","100.94","","","","","","Rain Showers"
"-123.18","49.19","VANCOUVER INTL A","1108395","2021-09-28 06:00","2021","09","28","06:00","11.7","","10.9","","95","","","","16","","28","","24.1","","100.98","","","","","","NA"
"-123.18","49.19","VANCOUVER INTL A","1108395","2021-09-28 07:00","2021","09","28","07:00","11.9","","10.8","","93","","","","15","","19","","32.2","","101.03","","","","","","Mostly Cloudy"
"-123.18","49.19","VANCOUVER INTL A","1108395","2021-09-28 08:00","2021","09","28","08:00","12.4","","11.0","","91","","","","17","","17","","32.2","","101.11","","","","","","NA"
"-123.18","49.19","VANCOUVER INTL A","1108395","2021-09-28 09:00","2021","09","28","09:00","13.2","","11.1","","87","","","","17","","13","","32.2","","101.18","","","","","","NA"
"-123.18","49.19","VANCOUVER INTL A","1108395","2021-09-28 10:00","2021","09","28","10:00","14.7","","10.4","","75","","","","25","","11","","40.2","","101.26","","","","","","Mostly Cloudy"
"-123.18","49.19","VANCOUVER INTL A","1108395","2021-09-28 11:00","2021","09","28","11:00","15.0","","11.3","","78","","","","27","","10","","40.2","","101.33","","","","","","NA"
"-123.18","49.19","VANCOUVER INTL A","1108395","2021-09-28 12:00","2021","09","28","12:00","15.7","","10.2","","69","","","","21","","5","","40.2","","101.36","","","","","","NA"
"-123.18","49.19","VANCOUVER INTL A","1108395","2021-09-28 13:00","2021","09","28","13:00","15.7","","10.0","","68","","","","28","","9","","40.2","","101.39","","","","","","Mostly Cloudy"
"-123.18","49.19","VANCOUVER INTL A","1108395","2021-09-28 14:00","2021","09","28","14:00","16.3","","9.5","","64","","","","25","","6","","40.2","","101.40","","","","","","NA"
"-123.18","49.19","VANCOUVER INTL A","1108395","2021-09-28 15:00","2021","09","28","15:00","15.9","","10.0","","68","","","","23","","9","","40.2","","101.43","","","","","","NA"
"-123.18","49.19","VANCOUVER INTL A","1108395","2021-09-28 16:00","2021","09","28","16:00","15.6","","9.9","","69","","","","23","","12","","40.2","","101.45","","","","","","Mainly Clear"
"-123.18","49.19","VANCOUVER INTL A","1108395","2021-09-28 17:00","2021","09","28","17:00","14.8","","7.6","","62","","","","23","","26","","40.2","","101.49","","","","","","NA"
"-123.18","49.19","VANCOUVER INTL A","1108395","2021-09-28 18:00","2021","09","28","18:00","13.8","","8.3","","69","","","","21","","23","","24.1","","101.53","","","","","","NA"
"-123.18","49.19","VANCOUVER INTL A","1108395","2021-09-28 19:00","2021","09","28","19:00","13.5","","7.2","","66","","","","22","","27","","24.1","","101.57","","","","","","Mostly Cloudy"
"-123.18","49.19","VANCOUVER INTL A","1108395","2021-09-28 20:00","2021","09","28","20:00","13.2","","7.4","","68","","","","22","","28","","24.1","","101.61","","","","","","NA"
"-123.18","49.19","VANCOUVER INTL A","1108395","2021-09-28 21:00","2021","09","28","21:00","12.9","","7.3","","69","","","","19","","18","","24.1","","101.65","","","","","","NA"
"-123.18","49.19","VANCOUVER INTL A","1108395","2021-09-28 22:00","2021","09","28","22:00","12.7","","6.7","","67","","","","14","","12","","24.1","","101.68","","","","","","Cloudy"
"-123.18","49.19","VANCOUVER INTL A","1108395","2021-09-28 23:00","2021","09","28","23:00","11.7","","8.1","","79","","","","8","","11","","24.1","","101.72","","","","","","NA"
"-123.18","49.19","VANCOUVER INTL A","1108395","2021-09-29 00:00","2021","09","29","00:00","11.3","","9.7","","90","","","","10","","15","","24.1","","101.76","","","","","","NA"
"-123.18","49.19","VANCOUVER INTL A","1108395","2021-09-29 01:00","2021","09","29","01:00","11.2","","9.7","","90","","","","11","","17","","24.1","","101.75","","","","","","Cloudy"
"-123.18","49.19","VANCOUVER INTL A","1108395","2021-09-29 02:00","2021","09","29","02:00","11.1","","9.2","","88","","","","10","","17","","24.1","","101.75","","","","","","NA"
"-123.18","49.19","VANCOUVER INTL A","1108395","2021-09-29 03:00","2021","09","29","03:00","10.8","","8.9","","88","","","","9","","17","","24.1","","101.75","","","","","","Rain"
"-123.18","49.19","VANCOUVER INTL A","1108395","2021-09-29 04:00","2021","09","29","04:00","10.7","","9.3","","91","","","","9","","19","","19.3","","101.70","","","","","","Rain"
"-123.18","49.19","VANCOUVER INTL A","1108395","2021-09-29 05:00","2021","09","29","05:00","10.5","","9.3","","92","","","","9","","18","","16.1","","101.67","","","","","","Rain"
"-123.18","49.19","VANCOUVER INTL A","1108395","2021-09-29 06:00","2021","09","29","06:00","10.5","","9.3","","92","","","","7","","17","","12.9","","101.67","","","","","","Rain"
"-123.18","49.19","VANCOUVER INTL A","1108395","2021-09-29 07:00","2021","09","29","07:00","12.7","","9.5","","80","","","","9","","9","","20.9","","101.64","","","","","","Rain"
"-123.18","49.19","VANCOUVER INTL A","1108395","2021-09-29 08:00","2021","09","29","08:00","12.8","","9.3","","79","","","","9","","9","","20.9","","101.63","","","","","","Rain"
"-123.18","49.19","VANCOUVER INTL A","1108395","2021-09-29 09:00","2021","09","29","09:00","10.7","","9.2","","90","","","","9","","27","","17.7","","101.69","","","","","","Rain"
"-123.18","49.19","VANCOUVER INTL A","1108395","2021-09-29 10:00","2021","09","29","10:00","11.1","","9.3","","89","","","","7","","23","","12.9","","101.70","","","","","","Rain"
"-123.18","49.19","VANCOUVER INTL A","1108395","2021-09-29 11:00","2021","09","29","11:00","11.7","","9.4","","86","","","","7","","22","","24.1","","101.73","","","","","","Rain"
"-123.18","49.19","VANCOUVER INTL A","1108395","2021-09-29 12:00","2021","09","29","12:00","11.8","","9.6","","86","","","","9","","28","","6.4","","101.71","","","","","","Rain,Fog"
"-123.18","49.19","VANCOUVER INTL A","1108395","2021-09-29 13:00","2021","09","29","13:00","11.8","","9.8","","88","","","","8","","26","","12.9","","101.74","","","","","","Rain"
"-123.18","49.19","VANCOUVER INTL A","1108395","2021-09-29 14:00","2021","09","29","14:00","12.1","","10.0","","87","","","","8","","20","","24.1","","101.71","","","","","","Rain"
"-123.18","49.19","VANCOUVER INTL A","1108395","2021-09-29 15:00","2021","09","29","15:00","12.2","","9.9","","86","","","","8","","21","","24.1","","101.71","","","","","","Rain"
"-123.18","49.19","VANCOUVER INTL A","1108395","2021-09-29 16:00","2021","09","29","16:00","12.0","","9.8","","86","","","","9","","18","","24.1","","101.67","","","","","","Rain"
"-123.18","49.19","VANCOUVER INTL A","1108395","2021-09-29 17:00","2021","09","29","17:00","12.3","","9.7","","84","","","","8","","22","","24.1","","101.61","","","","","","Rain"
"-123.18","49.19","VANCOUVER INTL A","1108395","2021-09-29 18:00","2021","09","29","18:00","11.8","","10.0","","89","","","","8","","22","","16.1","","101.56","","","","","","Rain"
"-123.18","49.19","VANCOUVER INTL A","1108395","2021-09-29 19:00","2021","09","29","19:00","12.1","","9.8","","86","","","","8","","23","","24.1","","101.47","","","","","","Rain"
"-123.18","49.19","VANCOUVER INTL A","1108395","2021-09-29 20:00","2021","09","29","20:00","12.2","","10.5","","89","","","","8","","26","","24.1","","101.33","","","","","","Rain"
"-123.18","49.19","VANCOUVER INTL A","1108395","2021-09-29 21:00","2021","09","29","21:00","12.5","","10.9","","90","","","","7","","24","","16.1","","101.34","","","","","","Rain"
"-123.18","49.19","VANCOUVER INTL A","1108395","2021-09-29 22:00","2021","09","29","22:00","12.3","","11.6","","96","","","","10","","22","","16.1","","101.36","","","","","","Rain"
"-123.18","49.19","VANCOUVER INTL A","1108395","2021-09-29 23:00","2021","09","29","23:00","12.3","","11.9","","98","","","","10","","23","","16.1","","101.34","","","","","","Rain"
"-123.18","49.19","VANCOUVER INTL A","1108395","2021-09-30 00:00","2021","09","30","00:00","13.4","","12.4","","94","","","","9","","22","","32.2","","101.31","","","","","","NA"
"-123.18","49.19","VANCOUVER INTL A","1108395","2021-09-30 01:00","2021","09","30","01:00","13.9","","12.0","","88","","","","13","","25","","32.2","","101.22","","","","","","Cloudy"
"-123.18","49.19","VANCOUVER INTL A","1108395","2021-09-30 02:00","2021","09","30","02:00","14.0","","12.4","","90","","","","14","","27","","12.9","","101.21","","","","","","Moderate Rain"
"-123.18","49.19","VANCOUVER INTL A","1108395","2021-09-30 03:00","2021","09","30","03:00","13.6","","12.5","","93","","","","14","","36","","19.3","","101.21","","","","","","Rain"
"-123.18","49.19","VANCOUVER INTL A","1108395","2021-09-30 04:00","2021","09","30","04:00","13.5","","12.8","","96","","","","14","","27","","19.3","","101.28","","","","","","Rain"
"-123.18","49.19","VANCOUVER INTL A","1108395","2021-09-30 05:00","2021","09","30","05:00","13.2","","12.8","","97","","","","15","","31","","12.9","","101.42","","","","","","Rain"
"-123.18","49.19","VANCOUVER INTL A","1108395","2021-09-30 06:00","2021","09","30","06:00","13.4","","13.0","","97","","","","10","","18","","24.1","","101.40","","","","","","NA"
"-123.18","49.19","VANCOUVER INTL A","1108395","2021-09-30 07:00","2021","09","30","07:00","13.2","","12.9","","98","","","","11","","13","","24.1","","101.54","","","","","","Rain"
"-123.18","49.19","VANCOUVER INTL A","1108395","2021-09-30 08:00","2021","09","30","08:00","13.2","","12.6","","96","","","","12","","12","","24.1","","101.59","","","","","","NA"
"-123.18","49.19","VANCOUVER INTL A","1108395","2021-09-30 09:00","2021","09","30","09:00","13.2","","12.2","","94","","","","13","","11","","24.1","","101.74","","","","","","NA"
"-123.18","49.19","VANCOUVER INTL A","1108395","2021-09-30 10:00","2021","09","30","10:00","12.9","","12.2","","96","","","","10","","16","","24.1","","101.78","","","","","","Rain"
"-123.18","49.19","VANCOUVER INTL A","1108395","2021-09-30 11:00","2021","09","30","11:00","12.8","","11.9","","95","","","","10","","19","","24.1","","101.92","","","","","","NA"
"-123.18","49.19","VANCOUVER INTL A","1108395","2021-09-30 12:00","2021","09","30","12:00","13.6","","12.5","","93","","","","10","","21","","24.1","","101.92","","","","","","NA"
"-123.18","49.19","VANCOUVER INTL A","1108395","2021-09-30 13:00","2021","09","30","13:00","14.4","","12.6","","88","","","","11","","22","","24.1","","101.99","","","","","","Mostly Cloudy"
"-123.18","49.19","VANCOUVER INTL A","1108395","2021-09-30 14:00","2021","09","30","14:00","14.9","","12.3","","84","","","","13","","20","","24.1","","101.98","","","","","","NA"
"-123.18","49.19","VANCOUVER INTL A","1108395","2021-09-30 15:00","2021","09","30","15:00","13.8","","12.4","","92","","","","16","","19","","24.1","","102.05","","","","","","NA"
"-123.18","49.19","VANCOUVER INTL A","1108395","2021-09-30 16:00","2021","09","30","16:00","14.8","","12.0","","83","","","","17","","18","","24.1","","102.12","","","","","","Mostly Cloudy"
"-123.18","49.19","VANCOUVER INTL A","1108395","2021-09-30 17:00","2021","09","30","17:00","13.8","","11.6","","86","","","","17","","22","","32.2","","102.12","","","","","","NA"
"-123.18","49.19","VANCOUVER INTL A","1108395","2021-09-30 18:00","2021","09","30","18:00","13.0","","11.1","","88","","","","17","","22","","32.2","","102.17","","","","","","NA"
"-123.18","49.19","VANCOUVER INTL A","1108395","2021-09-30 19:00","2021","09","30","19:00","12.1","","11.0","","93","","","","13","","11","","32.2","","102.23","","","","","","Mainly Clear"
"-123.18","49.19","VANCOUVER INTL A","1108395","2021-09-30 20:00","2021","09","30","20:00","12.1","","11.4","","96","","","","6","","12","","32.2","","102.29","","","","","","NA"
"-123.18","49.19","VANCOUVER INTL A","1108395","2021-09-30 21:00","2021","09","30","21:00","11.2","","10.7","","96","","","","8","","7","","32.2","","102.35","","","","","","NA"
"-123.18","49.19","VANCOUVER INTL A","1108395","2021-09-30 22:00","2021","09","30","22:00","11.6","","11.1","","97","","","","9","","14","","32.2","","102.39","","","","","","Mostly Cloudy"
"-123.18","49.19","VANCOUVER INTL A","1108395","2021-09-30 23:00","2021","09","30","23:00","11.0","","10.6","","97","","","","9","","10","","32.2","","102.46","","","","","","NA"
