"Longitude (x)","Latitude (y)","Station Name","Climate ID","Date/Time (LST)","Year","Month","Day","Time (LST)","Temp (°C)","Temp Flag","Dew Point Temp (°C)","Dew Point Temp Flag","Rel Hum (%)","Rel Hum Flag","Precip. Amount (mm)","Precip. Amount Flag","Wind Dir (10s deg)","Wind Dir Flag","Wind Spd (km/h)","Wind Spd Flag","Visibility (km)","Visibility Flag","Stn Press (kPa)","Stn Press Flag","Hmdx","Hmdx Flag","Wind Chill","Wind Chill Flag","Weather"
"-123.18","49.19","VANCOUVER INTL A","1108395","2022-12-01 00:00","2022","12","01","00:00","-2.6","","-4.4","","88","","","","10","","5","","32.2","","100.15","","","","-5","","NA"
"-123.18","49.19","VANCOUVER INTL A","1108395","2022-12-01 01:00","2022","12","01","01:00","-4.0","","-6.4","","84","","","","6","","4","","32.2","","100.20","","","","-6","","Mainly Clear"
"-123.18","49.19","VANCOUVER INTL A","1108395","2022-12-01 02:00","2022","12","01","02:00","-2.8","","-3.5","","95","","","","4","","7","","32.2","","100.25","","","","-6","","NA"
"-123.18","49.19","VANCOUVER INTL A","1108395","2022-12-01 03:00","2022","12","01","03:00","-3.8","","-5.0","","91","","","","36","","2","","32.2","","100.29","","","","-5","","NA"
"-123.18","49.19","VANCOUVER INTL A","1108395","2022-12-01 04:00","2022","12","01","04:00","-3.1","","-4.2","","92","","","","12","","6","","32.2","","100.33","","","","-6","","Cloudy"
"-123.18","49.19","VANCOUVER INTL A","1108395","2022-12-01 05:00","2022","12","01","05:00","-2.6","","-3.2","","96","","","","12","","8","","32.2","","100.40","","","","-6","","NA"
"-123.18","49.19","VANCOUVER INTL A","1108395","2022-12-01 06:00","2022","12","01","06:00","-2.4","","-2.9","","97","","","","11","","7","","32.2","","100.45","","","","-5","","NA"
"-123.18","49.19","VANCOUVER INTL A","1108395","2022-12-01 07:00","2022","12","01","07:00","-2.5","","-4.0","","89","","","","10","","13","","32.2","","100.53","","","","-7","","Mostly Cloudy"
"-123.18","49.19","VANCOUVER INTL A","1108395","2022-12-01 08:00","2022","12","01","08:00","-2.6","","-4.7","","86","","","","12","","10","","32.2","","100.63","","","","-6","","NA"
"-123.18","49.19","VANCOUVER INTL A","1108395","2022-12-01 09:00","2022","12","01","09:00","-2.8","","-6.3","","77","","","","11","","10","","32.2","","100.71","","","","-7","","NA"
"-123.18","49.19","VANCOUVER INTL A","1108395","2022-12-01 10:00","2022","12","01","10:00","-2.3","","-6.2","","75","","","","10","","7","","32.2","","100.76","","","","-5","","Mostly Cloudy"
"-123.18","49.19","VANCOUVER INTL A","1108395","2022-12-01 11:00","2022","12","01","11:00","-1.9","","-7.4","","66","","","","15","","8","","32.2","","100.83","","","","-5","","NA"
"-123.18","49.19","VANCOUVER INTL A","1108395","2022-12-01 12:00","2022","12","01","12:00","-1.7","","-7.3","","65","","","","14","","8","","32.2","","100.85","","","","-5","","NA"
"-123.18","49.19","VANCOUVER INTL A","1108395","2022-12-01 13:00","2022","12","01","13:00","-1.2","","-7.1","","64","","","","13","","9","","32.2","","100.86","","","","-4","","Mostly Cloudy"
"-123.18","49.19","VANCOUVER INTL A","1108395","2022-12-01 14:00","2022","12","01","14:00","-1.2","","-6.9","","65","","","","13","","10","","32.2","","100.89","","","","-5","","NA"
"-123.18","49.19","VANCOUVER INTL A","1108395","2022-12-01 15:00","2022","12","01","15:00","-1.4","","-6.4","","68","","","","14","","13","","32.2","","100.95","","","","-6","","NA"
"-123.18","49.19","VANCOUVER INTL A","1108395","2022-12-01 16:00","2022","12","01","16:00","-2.1","","-7.2","","68","","","","11","","12","","32.2","","101.01","","","","-6","","Mostly Cloudy"
"-123.18","49.19","VANCOUVER INTL A","1108395","2022-12-01 17:00","2022","12","01","17:00","-3.1","","-8.2","","68","","","","10","","12","","24.1","","101.08","","","","-8","","NA"
"-123.18","49.19","VANCOUVER INTL A","1108395","2022-12-01 18:00","2022","12","01","18:00","-3.3","","-8.7","","66","","","","9","","17","","24.1","","101.15","","","","-9","","NA"
"-123.18","49.19","VANCOUVER INTL A","1108395","2022-12-01 19:00","2022","12","01","19:00","-3.7","","-9.3","","65","","","","10","","17","","24.1","","101.21","","","","-9","","Mostly Cloudy"
"-123.18","49.19","VANCOUVER INTL A","1108395","2022-12-01 20:00","2022","12","01","20:00","-3.5","","-9.2","","65","","","","9","","12","","24.1","","101.25","","","","-8","","NA"
"-123.18","49.19","VANCOUVER INTL A","1108395","2022-12-01 21:00","2022","12","01","21:00","-3.8","","-9.8","","63","","","","8","","14","","24.1","","101.33","","","","-9","","NA"
"-123.18","49.19","VANCOUVER INTL A","1108395","2022-12-01 22:00","2022","12","01","22:00","-4.2","","-9.5","","67","","","","9","","18","","24.1","","101.41","","","","-10","","Mostly Cloudy"
"-123.18","49.19","VANCOUVER INTL A","1108395","2022-12-01 23:00","2022","12","01","23:00","-4.2","","-9.6","","66","","","","8","","17","","24.1","","101.48","","","","-10","","NA"
"-123.18","49.19","VANCOUVER INTL A","1108395","2022-12-02 00:00","2022","12","02","00:00","-4.8","","-8.9","","73","","","","10","","19","","24.1","","101.56","","","","-11","","NA"
"-123.18","49.19","VANCOUVER INTL A","1108395","2022-12-02 01:00","2022","12","02","01:00","-5.2","","-9.5","","72","","","","10","","23","","24.1","","101.62","","","","-12","","Mostly Cloudy"
"-123.18","49.19","VANCOUVER INTL A","1108395","2022-12-02 02:00","2022","12","02","02:00","-5.2","","-9.4","","73","","","","8","","16","","24.1","","101.66","","","","-11","","NA"
"-123.18","49.19","VANCOUVER INTL A","1108395","2022-12-02 03:00","2022","12","02","03:00","-4.5","","-7.8","","78","","","","9","","15","","24.1","","101.70","","","","-10","","NA"
"-123.18","49.19","VANCOUVER INTL A","1108395","2022-12-02 04:00","2022","12","02","04:00","-4.7","","-7.2","","83","","","","10","","17","","12.9","","101.75","","","","-11","","Snow"
"-123.18","49.19","VANCOUVER INTL A","1108395","2022-12-02 05:00","2022","12","02","05:00","-4.3","","-6.1","","87","","","","9","","13","","19.3","","101.74","","","","-9","","Snow"
"-123.18","49.19","VANCOUVER INTL A","1108395","2022-12-02 06:00","2022","12","02","06:00","-3.9","","-5.4","","89","","","","10","","14","","24.1","","101.74","","","","-9","","Snow"
"-123.18","49.19","VANCOUVER INTL A","1108395","2022-12-02 07:00","2022","12","02","07:00","-3.6","","-5.5","","86","","","","10","","15","","24.1","","101.75","","","","-9","","Snow"
"-123.18","49.19","VANCOUVER INTL A","1108395","2022-12-02 08:00","2022","12","02","08:00","-3.0","","-5.1","","85","","","","10","","21","","24.1","","101.75","","","","-9","","NA"
"-123.18","49.19","VANCOUVER INTL A","1108395","2022-12-02 09:00","2022","12","02","09:00","-2.4","","-5.0","","82","","","","10","","16","","24.1","","101.80","","","","-8","","NA"
"-123.18","49.19","VANCOUVER INTL A","1108395","2022-12-02 10:00","2022","12","02","10:00","-1.9","","-4.4","","83","","","","10","","18","","11.3","","101.85","","","","-7","","Snow"
"-123.18","49.19","VANCOUVER INTL A","1108395","2022-12-02 11:00","2022","12","02","11:00","-1.2","","-3.0","","87","","","","10","","20","","11.3","","101.84","","","","-7","","Snow"
"-123.18","49.19","VANCOUVER INTL A","1108395","2022-12-02 12:00","2022","12","02","12:00","-0.7","","-1.9","","92","","","","7","","16","","4.8","","101.80","","","","-5","","Snow"
"-123.18","49.19","VANCOUVER INTL A","1108395","2022-12-02 13:00","2022","12","02","13:00","-0.4","","-1.1","","95","","","","8","","18","","3.2","","101.77","","","","-5","","Snow"
"-123.18","49.19","VANCOUVER INTL A","1108395","2022-12-02 14:00","2022","12","02","14:00","1.3","","-0.6","","87","","","","6","","23","","19.3","","101.69","","","","","","NA"
"-123.18","49.19","VANCOUVER INTL A","1108395","2022-12-02 15:00","2022","12","02","15:00","1.3","","-0.6","","87","","","","7","","17","","32.2","","101.70","","","","","","NA"
"-123.18","49.19","VANCOUVER INTL A","1108395","2022-12-02 16:00","2022","12","02","16:00","2.2","","-0.7","","81","","","","6","","19","","32.2","","101.66","","","","","","Cloudy"
"-123.18","49.19","VANCOUVER INTL A","1108395","2022-12-02 17:00","2022","12","02","17:00","2.6","","-0.2","","82","","","","5","","16","","32.2","","101.64","","","","","","NA"
"-123.18","49.19","VANCOUVER INTL A","1108395","2022-12-02 18:00","2022","12","02","18:00","2.1","","-0.2","","85","","","","9","","15","","24.1","","101.58","","","","","","NA"
"-123.18","49.19","VANCOUVER INTL A","1108395","2022-12-02 19:00","2022","12","02","19:00","1.6","","0.2","","91","","","","9","","15","","24.1","","101.58","","","","","","Cloudy"
"-123.18","49.19","VANCOUVER INTL A","1108395","2022-12-02 20:00","2022","12","02","20:00","1.6","","-0.3","","88","","","","11","","15","","24.1","","101.61","","","","","","NA"
"-123.18","49.19","VANCOUVER INTL A","1108395","2022-12-02 21:00","2022","12","02","21:00","1.0","","-1.0","","86","","","","15","","9","","19.3","","101.68","","","","","","NA"
"-123.18","49.19","VANCOUVER INTL A","1108395","2022-12-02 22:00","2022","12","02","22:00","1.0","","-0.9","","87","","","","10","","12","","24.1","","101.72","","","","","","Rain,Snow"
"-123.18","49.19","VANCOUVER INTL A","1108395","2022-12-02 23:00","2022","12","02","23:00","0.9","","-1.5","","84","","","","18","","6","","19.3","","101.77","","","","","","Snow"
"-123.18","49.19","VANCOUVER INTL A","1108395","2022-12-03 00:00","2022","12","03","00:00","0.4","","-2.0","","84","","","","8","","7","","24.1","","101.78","","","","","","NA"
"-123.18","49.19","VANCOUVER INTL A","1108395","2022-12-03 01:00","2022","12","03","01:00","0.4","","-2.5","","81","","","","11","","5","","24.1","","101.80","","","","","","Cloudy"
"-123.18","49.19","VANCOUVER INTL A","1108395","2022-12-03 02:00","2022","12","03","02:00","0.2","","-2.6","","81","","","","10","","3","","24.1","","101.85","","","","","","NA"
"-123.18","49.19","VANCOUVER INTL A","1108395","2022-12-03 03:00","2022","12","03","03:00","-0.2","","-2.2","","87","","","","10","","7","","24.1","","101.91","","","","-3","","NA"
"-123.18","49.19","VANCOUVER INTL A","1108395","2022-12-03 04:00","2022","12","03","04:00","0.1","","-3.5","","77","","","","6","","7","","24.1","","101.90","","","","","","Cloudy"
"-123.18","49.19","VANCOUVER INTL A","1108395","2022-12-03 05:00","2022","12","03","05:00","0.1","","-2.9","","80","","","","8","","5","","24.1","","101.97","","","","","","NA"
"-123.18","49.19","VANCOUVER INTL A","1108395","2022-12-03 06:00","2022","12","03","06:00","-0.2","","-3.3","","80","","","","10","","13","","24.1","","102.01","","","","-4","","NA"
"-123.18","49.19","VANCOUVER INTL A","1108395","2022-12-03 07:00","2022","12","03","07:00","0.1","","-3.5","","77","","","","14","","7","","24.1","","102.07","","","","","","Cloudy"
"-123.18","49.19","VANCOUVER INTL A","1108395","2022-12-03 08:00","2022","12","03","08:00","-0.4","","-3.0","","83","","","","11","","4","","32.2","","102.12","","","","-2","","NA"
"-123.18","49.19","VANCOUVER INTL A","1108395","2022-12-03 09:00","2022","12","03","09:00","0.3","","-3.6","","75","","","","12","","8","","32.2","","102.19","","","","","","NA"
"-123.18","49.19","VANCOUVER INTL A","1108395","2022-12-03 10:00","2022","12","03","10:00","0.4","","-3.3","","76","","","","8","","9","","32.2","","102.27","","","","","","Mostly Cloudy"
"-123.18","49.19","VANCOUVER INTL A","1108395","2022-12-03 11:00","2022","12","03","11:00","1.9","","-3.3","","68","","","","8","","8","","32.2","","102.33","","","","","","NA"
"-123.18","49.19","VANCOUVER INTL A","1108395","2022-12-03 12:00","2022","12","03","12:00","2.5","","-2.3","","70","","","","10","","11","","32.2","","102.29","","","","","","NA"
"-123.18","49.19","VANCOUVER INTL A","1108395","2022-12-03 13:00","2022","12","03","13:00","3.3","","-2.5","","65","","","","12","","8","","32.2","","102.23","","","","","","Mainly Clear"
"-123.18","49.19","VANCOUVER INTL A","1108395","2022-12-03 14:00","2022","12","03","14:00","3.7","","-2.9","","62","","","","33","","16","","24.1","","102.25","","","","","","NA"
"-123.18","49.19","VANCOUVER INTL A","1108395","2022-12-03 15:00","2022","12","03","15:00","3.6","","-1.6","","68","","","","34","","18","","32.2","","102.20","","","","","","NA"
"-123.18","49.19","VANCOUVER INTL A","1108395","2022-12-03 16:00","2022","12","03","16:00","2.2","","-1.8","","75","","","","32","","9","","32.2","","102.20","","","","","","Mostly Cloudy"
"-123.18","49.19","VANCOUVER INTL A","1108395","2022-12-03 17:00","2022","12","03","17:00","1.1","","-2.3","","78","","","","32","","11","","24.1","","102.19","","","","","","NA"
"-123.18","49.19","VANCOUVER INTL A","1108395","2022-12-03 18:00","2022","12","03","18:00","1.6","","-2.7","","73","","","","29","","7","","24.1","","102.18","","","","","","NA"
"-123.18","49.19","VANCOUVER INTL A","1108395","2022-12-03 19:00","2022","12","03","19:00","-0.5","","-4.4","","75","","","","9","","13","","24.1","","102.20","","","","-5","","Mainly Clear"
"-123.18","49.19","VANCOUVER INTL A","1108395","2022-12-03 20:00","2022","12","03","20:00","-1.7","","-4.9","","79","","","","9","","10","","24.1","","102.23","","","","-5","","NA"
"-123.18","49.19","VANCOUVER INTL A","1108395","2022-12-03 21:00","2022","12","03","21:00","-1.7","","-4.8","","79","","","","10","","14","","24.1","","102.23","","","","-6","","NA"
"-123.18","49.19","VANCOUVER INTL A","1108395","2022-12-03 22:00","2022","12","03","22:00","-2.8","","-5.4","","82","","","","10","","11","","24.1","","102.21","","","","-7","","Clear"
"-123.18","49.19","VANCOUVER INTL A","1108395","2022-12-03 23:00","2022","12","03","23:00","-2.4","","-5.5","","80","","","","9","","7","","24.1","","102.18","","","","-5","","NA"
"-123.18","49.19","VANCOUVER INTL A","1108395","2022-12-04 00:00","2022","12","04","00:00","-1.9","","-4.7","","81","","","","8","","7","","24.1","","102.15","","","","-5","","NA"
"-123.18","49.19","VANCOUVER INTL A","1108395","2022-12-04 01:00","2022","12","04","01:00","-3.5","","-6.6","","79","","","","10","","10","","24.1","","102.09","","","","-7","","Clear"
"-123.18","49.19","VANCOUVER INTL A","1108395","2022-12-04 02:00","2022","12","04","02:00","-3.6","","-6.0","","83","","","","10","","8","","24.1","","102.04","","","","-7","","NA"
"-123.18","49.19","VANCOUVER INTL A","1108395","2022-12-04 03:00","2022","12","04","03:00","-3.4","","-6.1","","82","","","","12","","4","","24.1","","101.98","","","","-5","","NA"
"-123.18","49.19","VANCOUVER INTL A","1108395","2022-12-04 04:00","2022","12","04","04:00","-3.9","","-5.8","","87","","","","9","","7","","24.1","","101.87","","","","-7","","Clear"
"-123.18","49.19","VANCOUVER INTL A","1108395","2022-12-04 05:00","2022","12","04","05:00","-5.0","","-6.7","","88","","","","9","","10","","24.1","","101.77","","","","-9","","NA"
"-123.18","49.19","VANCOUVER INTL A","1108395","2022-12-04 06:00","2022","12","04","06:00","-4.8","","-5.4","","96","","","","9","","10","","24.1","","101.71","","","","-9","","NA"
"-123.18","49.19","VANCOUVER INTL A","1108395","2022-12-04 07:00","2022","12","04","07:00","-3.3","","-4.6","","91","","","","13","","5","","24.1","","101.66","","","","-5","","Clear"
"-123.18","49.19","VANCOUVER INTL A","1108395","2022-12-04 08:00","2022","12","04","08:00","-4.4","","-5.2","","95","","","","8","","11","","32.2","","101.64","","","","-9","","NA"
"-123.18","49.19","VANCOUVER INTL A","1108395","2022-12-04 09:00","2022","12","04","09:00","-2.7","","-5.3","","82","","","","11","","15","","32.2","","101.63","","","","-8","","NA"
"-123.18","49.19","VANCOUVER INTL A","1108395","2022-12-04 10:00","2022","12","04","10:00","-1.5","","-4.5","","80","","","","10","","14","","32.2","","101.63","","","","-6","","Clear"
"-123.18","49.19","VANCOUVER INTL A","1108395","2022-12-04 11:00","2022","12","04","11:00","0.4","","-4.5","","70","","","","8","","7","","32.2","","101.61","","","","","","NA"
"-123.18","49.19","VANCOUVER INTL A","1108395","2022-12-04 12:00","2022","12","04","12:00","1.7","","-3.6","","68","","","","18","","4","","32.2","","101.54","","","","","","NA"
"-123.18","49.19","VANCOUVER INTL A","1108395","2022-12-04 13:00","2022","12","04","13:00","2.2","","-1.4","","77","","","","23","","6","","32.2","","101.48","","","","","","Mainly Clear"
"-123.18","49.19","VANCOUVER INTL A","1108395","2022-12-04 14:00","2022","12","04","14:00","3.1","","0.0","","80","","","","30","","5","","32.2","","101.44","","","","","","NA"
"-123.18","49.19","VANCOUVER INTL A","1108395","2022-12-04 15:00","2022","12","04","15:00","3.3","","0.9","","84","","","","21","","3","","32.2","","101.46","","","","","","NA"
"-123.18","49.19","VANCOUVER INTL A","1108395","2022-12-04 16:00","2022","12","04","16:00","2.3","","1.1","","92","","","","19","","5","","32.2","","101.49","","","","","","Mainly Clear"
"-123.18","49.19","VANCOUVER INTL A","1108395","2022-12-04 17:00","2022","12","04","17:00","1.0","","0.6","","97","","","","9","","6","","24.1","","101.55","","","","","","NA"
"-123.18","49.19","VANCOUVER INTL A","1108395","2022-12-04 18:00","2022","12","04","18:00","-0.3","","-0.8","","96","","","","9","","9","","24.1","","101.57","","","","-3","","NA"
"-123.18","49.19","VANCOUVER INTL A","1108395","2022-12-04 19:00","2022","12","04","19:00","-0.2","","-2.5","","84","","","","10","","10","","32.2","","101.58","","","","-4","","Clear"
"-123.18","49.19","VANCOUVER INTL A","1108395","2022-12-04 20:00","2022","12","04","20:00","-2.0","","-4.4","","84","","","","10","","9","","32.2","","101.62","","","","-5","","NA"
"-123.18","49.19","VANCOUVER INTL A","1108395","2022-12-04 21:00","2022","12","04","21:00","-1.2","","-2.1","","94","","","","8","","6","","32.2","","101.62","","","","-3","","NA"
"-123.18","49.19","VANCOUVER INTL A","1108395","2022-12-04 22:00","2022","12","04","22:00","-3.0","","-4.3","","91","","","","9","","8","","32.2","","101.67","","","","-6","","Clear"
"-123.18","49.19","VANCOUVER INTL A","1108395","2022-12-04 23:00","2022","12","04","23:00","-2.9","","-3.3","","97","","","","9","","13","","32.2","","101.70","","","","-8","","NA"
"-123.18","49.19","VANCOUVER INTL A","1108395","2022-12-05 00:00","2022","12","05","00:00","-3.0","","-3.1","","99","","","","9","","10","","32.2","","101.72","","","","-7","","NA"
"-123.18","49.19","VANCOUVER INTL A","1108395","2022-12-05 01:00","2022","12","05","01:00","-2.8","","-2.8","","100","","","","9","","5","","32.2","","101.71","","","","-5","","Clear"
"-123.18","49.19","VANCOUVER INTL A","1108395","2022-12-05 02:00","2022","12","05","02:00","-3.9","","-3.9","","100","","","","10","","7","","32.2","","101.71","","","","-7","","NA"
"-123.18","49.19","VANCOUVER INTL A","1108395","2022-12-05 03:00","2022","12","05","03:00","-4.5","","-4.7","","99","","","","10","","13","","32.2","","101.74","","","","-10","","NA"
"-123.18","49.19","VANCOUVER INTL A","1108395","2022-12-05 04:00","2022","12","05","04:00","-4.3","","-4.5","","98","","","","10","","7","","32.2","","101.75","","","","-7","","Clear"
"-123.18","49.19","VANCOUVER INTL A","1108395","2022-12-05 05:00","2022","12","05","05:00","-4.9","","-4.9","","100","","","","9","","5","","32.2","","101.74","","","","-7","","NA"
"-123.18","49.19","VANCOUVER INTL A","1108395","2022-12-05 06:00","2022","12","05","06:00","-5.3","","-5.4","","100","","","","9","","8","","32.2","","101.73","","","","-9","","NA"
"-123.18","49.19","VANCOUVER INTL A","1108395","2022-12-05 07:00","2022","12","05","07:00","-4.4","","-4.4","","100","","","","11","","9","","32.2","","101.75","","","","-8","","Clear"
"-123.18","49.19","VANCOUVER INTL A","1108395","2022-12-05 08:00","2022","12","05","08:00","-5.2","","-5.2","","100","","","","10","","10","","40.2","","101.75","","","","-10","","NA"
"-123.18","49.19","VANCOUVER INTL A","1108395","2022-12-05 09:00","2022","12","05","09:00","-4.2","","-4.2","","100","","","","10","","8","","48.3","","101.77","","","","-8","","NA"
"-123.18","49.19","VANCOUVER INTL A","1108395","2022-12-05 10:00","2022","12","05","10:00","-1.9","","-2.4","","96","","","","9","","9","","48.3","","101.77","","","","-5","","Mostly Cloudy"
"-123.18","49.19","VANCOUVER INTL A","1108395","2022-12-05 11:00","2022","12","05","11:00","-0.7","","-2.0","","91","","","","11","","7","","48.3","","101.78","","","","-3","","NA"
"-123.18","49.19","VANCOUVER INTL A","1108395","2022-12-05 12:00","2022","12","05","12:00","-0.4","","-1.9","","90","","","","11","","6","","48.3","","101.74","","","","-2","","NA"
"-123.18","49.19","VANCOUVER INTL A","1108395","2022-12-05 13:00","2022","12","05","13:00","0.5","","-1.8","","85","","","","0","","1","","48.3","","101.71","","","","","","Mostly Cloudy"
"-123.18","49.19","VANCOUVER INTL A","1108395","2022-12-05 14:00","2022","12","05","14:00","1.0","","-1.4","","84","","","","19","","3","","48.3","","101.68","","","","","","NA"
"-123.18","49.19","VANCOUVER INTL A","1108395","2022-12-05 15:00","2022","12","05","15:00","1.2","","-0.6","","88","","","","19","","5","","48.3","","101.68","","","","","","NA"
"-123.18","49.19","VANCOUVER INTL A","1108395","2022-12-05 16:00","2022","12","05","16:00","1.0","","-0.2","","91","","","","11","","4","","48.3","","101.71","","","","","","Mostly Cloudy"
"-123.18","49.19","VANCOUVER INTL A","1108395","2022-12-05 17:00","2022","12","05","17:00","1.4","","-0.1","","90","","","","36","","3","","32.2","","101.72","","","","","","NA"
"-123.18","49.19","VANCOUVER INTL A","1108395","2022-12-05 18:00","2022","12","05","18:00","1.3","","0.3","","93","","","","","","0","","32.2","","101.70","","","","","","NA"
"-123.18","49.19","VANCOUVER INTL A","1108395","2022-12-05 19:00","2022","12","05","19:00","1.3","","0.5","","95","","","","14","","7","","32.2","","101.73","","","","","","Cloudy"
"-123.18","49.19","VANCOUVER INTL A","1108395","2022-12-05 20:00","2022","12","05","20:00","1.2","","0.6","","96","","","","10","","7","","32.2","","101.75","","","","","","NA"
"-123.18","49.19","VANCOUVER INTL A","1108395","2022-12-05 21:00","2022","12","05","21:00","0.8","","0.4","","97","","","","11","","10","","24.1","","101.80","","","","","","NA"
"-123.18","49.19","VANCOUVER INTL A","1108395","2022-12-05 22:00","2022","12","05","22:00","1.0","","0.6","","97","","","","13","","4","","24.1","","101.82","","","","","","Cloudy"
"-123.18","49.19","VANCOUVER INTL A","1108395","2022-12-05 23:00","2022","12","05","23:00","1.1","","0.0","","93","","","","36","","3","","24.1","","101.84","","","","","","NA"
"-123.18","49.19","VANCOUVER INTL A","1108395","2022-12-06 00:00","2022","12","06","00:00","1.1","","-0.1","","92","","","","11","","13","","24.1","","101.85","","","","","","NA"
"-123.18","49.19","VANCOUVER INTL A","1108395","2022-12-06 01:00","2022","12","06","01:00","0.7","","0.2","","96","","","","10","","10","","24.1","","101.85","","","","","","Cloudy"
"-123.18","49.19","VANCOUVER INTL A","1108395","2022-12-06 02:00","2022","12","06","02:00","0.7","","0.4","","98","","","","10","","8","","24.1","","101.85","","","","","","NA"
"-123.18","49.19","VANCOUVER INTL A","1108395","2022-12-06 03:00","2022","12","06","03:00","0.6","","-0.5","","92","","","","10","","9","","24.1","","101.86","","","","","","NA"
"-123.18","49.19","VANCOUVER INTL A","1108395","2022-12-06 04:00","2022","12","06","04:00","0.7","","-0.1","","95","","","","7","","9","","24.1","","101.85","","","","","","Cloudy"
"-123.18","49.19","VANCOUVER INTL A","1108395","2022-12-06 05:00","2022","12","06","05:00","0.6","","0.3","","98","","","","9","","10","","24.1","","101.84","","","","","","NA"
"-123.18","49.19","VANCOUVER INTL A","1108395","2022-12-06 06:00","2022","12","06","06:00","0.9","","0.9","","100","","","","8","","7","","24.1","","101.84","","","","","","NA"
"-123.18","49.19","VANCOUVER INTL A","1108395","2022-12-06 07:00","2022","12","06","07:00","0.6","","0.1","","96","","","","10","","12","","24.1","","101.88","","","","","","Drizzle"
"-123.18","49.19","VANCOUVER INTL A","1108395","2022-12-06 08:00","2022","12","06","08:00","1.0","","0.2","","94","","","","9","","4","","9.7","","101.93","","","","","","Drizzle,Fog"
"-123.18","49.19","VANCOUVER INTL A","1108395","2022-12-06 09:00","2022","12","06","09:00","1.0","","0.6","","97","","","","10","","12","","9.7","","101.96","","","","","","Drizzle,Fog"
"-123.18","49.19","VANCOUVER INTL A","1108395","2022-12-06 10:00","2022","12","06","10:00","1.4","","0.6","","94","","","","9","","12","","16.1","","101.98","","","","","","Cloudy"
"-123.18","49.19","VANCOUVER INTL A","1108395","2022-12-06 11:00","2022","12","06","11:00","1.8","","1.1","","95","","","","9","","10","","16.1","","102.00","","","","","","NA"
"-123.18","49.19","VANCOUVER INTL A","1108395","2022-12-06 12:00","2022","12","06","12:00","2.4","","1.5","","94","","","","8","","8","","16.1","","101.98","","","","","","Rain"
"-123.18","49.19","VANCOUVER INTL A","1108395","2022-12-06 13:00","2022","12","06","13:00","2.7","","1.9","","95","","","","10","","8","","16.1","","101.97","","","","","","Mostly Cloudy"
"-123.18","49.19","VANCOUVER INTL A","1108395","2022-12-06 14:00","2022","12","06","14:00","2.6","","1.7","","93","","","","10","","9","","24.1","","101.96","","","","","","NA"
"-123.18","49.19","VANCOUVER INTL A","1108395","2022-12-06 15:00","2022","12","06","15:00","2.7","","1.8","","94","","","","10","","7","","24.1","","101.98","","","","","","NA"
"-123.18","49.19","VANCOUVER INTL A","1108395","2022-12-06 16:00","2022","12","06","16:00","2.5","","2.0","","96","","","","12","","8","","32.2","","101.99","","","","","","Cloudy"
"-123.18","49.19","VANCOUVER INTL A","1108395","2022-12-06 17:00","2022","12","06","17:00","2.5","","2.1","","97","","","","10","","7","","32.2","","102.02","","","","","","NA"
"-123.18","49.19","VANCOUVER INTL A","1108395","2022-12-06 18:00","2022","12","06","18:00","2.0","","2.0","","100","","","","10","","7","","32.2","","102.05","","","","","","NA"
"-123.18","49.19","VANCOUVER INTL A","1108395","2022-12-06 19:00","2022","12","06","19:00","2.4","","2.1","","98","","","","8","","6","","24.1","","102.07","","","","","","Cloudy"
"-123.18","49.19","VANCOUVER INTL A","1108395","2022-12-06 20:00","2022","12","06","20:00","2.7","","2.1","","96","","","","7","","6","","24.1","","102.09","","","","","","NA"
"-123.18","49.19","VANCOUVER INTL A","1108395","2022-12-06 21:00","2022","12","06","21:00","2.1","","2.0","","100","","","","8","","5","","24.1","","102.13","","","","","","NA"
"-123.18","49.19","VANCOUVER INTL A","1108395","2022-12-06 22:00","2022","12","06","22:00","2.1","","2.1","","100","","","","9","","5","","24.1","","102.14","","","","","","Cloudy"
"-123.18","49.19","VANCOUVER INTL A","1108395","2022-12-06 23:00","2022","12","06","23:00","2.7","","2.5","","99","","","","7","","9","","24.1","","102.15","","","","","","NA"
"-123.18","49.19","VANCOUVER INTL A","1108395","2022-12-07 00:00","2022","12","07","00:00","2.6","","2.5","","99","","","","7","","10","","24.1","","102.14","","","","","","Rain"
"-123.18","49.19","VANCOUVER INTL A","1108395","2022-12-07 01:00","2022","12","07","01:00","2.5","","2.5","","100","","","","7","","9","","19.3","","102.14","","","","","","Rain"
"-123.18","49.19","VANCOUVER INTL A","1108395","2022-12-07 02:00","2022","12","07","02:00","2.5","","2.5","","100","","","","7","","10","","19.3","","102.13","","","","","","Rain"
"-123.18","49.19","VANCOUVER INTL A","1108395","2022-12-07 03:00","2022","12","07","03:00","2.5","","2.5","","100","","","","8","","10","","16.1","","102.14","","","","","","Rain"
"-123.18","49.19","VANCOUVER INTL A","1108395","2022-12-07 04:00","2022","12","07","04:00","2.6","","2.6","","100","","","","8","","11","","16.1","","102.09","","","","","","Rain"
"-123.18","49.19","VANCOUVER INTL A","1108395","2022-12-07 05:00","2022","12","07","05:00","2.9","","2.9","","100","","","","6","","13","","12.9","","102.08","","","","","","Rain"
"-123.18","49.19","VANCOUVER INTL A","1108395","2022-12-07 06:00","2022","12","07","06:00","2.9","","2.9","","100","","","","8","","10","","16.1","","102.05","","","","","","Rain"
"-123.18","49.19","VANCOUVER INTL A","1108395","2022-12-07 07:00","2022","12","07","07:00","3.1","","3.0","","100","","","","8","","11","","16.1","","102.05","","","","","","Cloudy"
"-123.18","49.19","VANCOUVER INTL A","1108395","2022-12-07 08:00","2022","12","07","08:00","3.1","","3.1","","100","","","","8","","13","","40.2","","102.04","","","","","","NA"
"-123.18","49.19","VANCOUVER INTL A","1108395","2022-12-07 09:00","2022","12","07","09:00","3.5","","3.5","","100","","","","8","","12","","40.2","","102.03","","","","","","NA"
"-123.18","49.19","VANCOUVER INTL A","1108395","2022-12-07 10:00","2022","12","07","10:00","4.2","","4.1","","99","","","","7","","12","","48.3","","102.03","","","","","","Mostly Cloudy"
"-123.18","49.19","VANCOUVER INTL A","1108395","2022-12-07 11:00","2022","12","07","11:00","4.3","","4.2","","99","","","","9","","13","","48.3","","102.00","","","","","","NA"
"-123.18","49.19","VANCOUVER INTL A","1108395","2022-12-07 12:00","2022","12","07","12:00","4.7","","4.6","","99","","","","10","","14","","48.3","","101.90","","","","","","NA"
"-123.18","49.19","VANCOUVER INTL A","1108395","2022-12-07 13:00","2022","12","07","13:00","3.9","","3.8","","99","","","","9","","14","","48.3","","101.84","","","","","","Cloudy"
"-123.18","49.19","VANCOUVER INTL A","1108395","2022-12-07 14:00","2022","12","07","14:00","4.4","","3.6","","94","","","","9","","14","","40.2","","101.76","","","","","","NA"
"-123.18","49.19","VANCOUVER INTL A","1108395","2022-12-07 15:00","2022","12","07","15:00","4.9","","3.6","","91","","","","10","","15","","48.3","","101.71","","","","","","NA"
"-123.18","49.19","VANCOUVER INTL A","1108395","2022-12-07 16:00","2022","12","07","16:00","5.1","","3.3","","88","","","","8","","15","","48.3","","101.68","","","","","","Mostly Cloudy"
"-123.18","49.19","VANCOUVER INTL A","1108395","2022-12-07 17:00","2022","12","07","17:00","5.1","","3.0","","86","","","","8","","15","","32.2","","101.64","","","","","","NA"
"-123.18","49.19","VANCOUVER INTL A","1108395","2022-12-07 18:00","2022","12","07","18:00","4.8","","3.1","","89","","","","8","","18","","32.2","","101.60","","","","","","NA"
"-123.18","49.19","VANCOUVER INTL A","1108395","2022-12-07 19:00","2022","12","07","19:00","4.5","","2.9","","89","","","","9","","22","","32.2","","101.54","","","","","","Cloudy"
"-123.18","49.19","VANCOUVER INTL A","1108395","2022-12-07 20:00","2022","12","07","20:00","5.6","","1.7","","76","","","","7","","23","","32.2","","101.47","","","","","","NA"
"-123.18","49.19","VANCOUVER INTL A","1108395","2022-12-07 21:00","2022","12","07","21:00","6.0","","1.2","","71","","","","9","","30","","32.2","","101.42","","","","","","NA"
"-123.18","49.19","VANCOUVER INTL A","1108395","2022-12-07 22:00","2022","12","07","22:00","5.6","","1.1","","73","","","","8","","31","","32.2","","101.36","","","","","","Cloudy"
"-123.18","49.19","VANCOUVER INTL A","1108395","2022-12-07 23:00","2022","12","07","23:00","5.5","","1.1","","73","","","","9","","29","","32.2","","101.30","","","","","","NA"
"-123.18","49.19","VANCOUVER INTL A","1108395","2022-12-08 00:00","2022","12","08","00:00","5.6","","1.2","","74","","","","9","","26","","32.2","","101.21","","","","","","NA"
"-123.18","49.19","VANCOUVER INTL A","1108395","2022-12-08 01:00","2022","12","08","01:00","5.5","","1.6","","76","","","","8","","29","","24.1","","101.08","","","","","","Rain"
"-123.18","49.19","VANCOUVER INTL A","1108395","2022-12-08 02:00","2022","12","08","02:00","5.6","","2.2","","78","","","","8","","29","","24.1","","101.03","","","","","","Rain"
"-123.18","49.19","VANCOUVER INTL A","1108395","2022-12-08 03:00","2022","12","08","03:00","4.4","","3.9","","97","","","","10","","24","","9.7","","101.05","","","","","","Moderate Rain,Fog"
"-123.18","49.19","VANCOUVER INTL A","1108395","2022-12-08 04:00","2022","12","08","04:00","4.4","","4.4","","100","","","","9","","21","","24.1","","101.03","","","","","","Cloudy"
"-123.18","49.19","VANCOUVER INTL A","1108395","2022-12-08 05:00","2022","12","08","05:00","6.3","","5.4","","94","","","","15","","29","","32.2","","101.01","","","","","","NA"
"-123.18","49.19","VANCOUVER INTL A","1108395","2022-12-08 06:00","2022","12","08","06:00","6.2","","5.4","","95","","","","16","","28","","32.2","","101.04","","","","","","NA"
"-123.18","49.19","VANCOUVER INTL A","1108395","2022-12-08 07:00","2022","12","08","07:00","5.8","","5.1","","95","","","","14","","18","","32.2","","101.11","","","","","","Mostly Cloudy"
"-123.18","49.19","VANCOUVER INTL A","1108395","2022-12-08 08:00","2022","12","08","08:00","4.7","","4.3","","97","","","","11","","14","","24.1","","101.16","","","","","","NA"
"-123.18","49.19","VANCOUVER INTL A","1108395","2022-12-08 09:00","2022","12","08","09:00","4.8","","4.8","","100","","","","9","","14","","24.1","","101.21","","","","","","NA"
"-123.18","49.19","VANCOUVER INTL A","1108395","2022-12-08 10:00","2022","12","08","10:00","5.8","","5.6","","99","","","","11","","19","","24.1","","101.24","","","","","","Mostly Cloudy"
"-123.18","49.19","VANCOUVER INTL A","1108395","2022-12-08 11:00","2022","12","08","11:00","6.0","","5.9","","99","","","","13","","19","","16.1","","101.26","","","","","","Rain"
"-123.18","49.19","VANCOUVER INTL A","1108395","2022-12-08 12:00","2022","12","08","12:00","6.1","","6.1","","100","","","","12","","17","","16.1","","101.21","","","","","","Rain"
"-123.18","49.19","VANCOUVER INTL A","1108395","2022-12-08 13:00","2022","12","08","13:00","6.0","","6.0","","100","","","","14","","21","","16.1","","101.19","","","","","","Cloudy"
"-123.18","49.19","VANCOUVER INTL A","1108395","2022-12-08 14:00","2022","12","08","14:00","6.0","","5.2","","95","","","","14","","19","","24.1","","101.14","","","","","","NA"
"-123.18","49.19","VANCOUVER INTL A","1108395","2022-12-08 15:00","2022","12","08","15:00","5.4","","4.7","","95","","","","15","","19","","24.1","","101.15","","","","","","NA"
"-123.18","49.19","VANCOUVER INTL A","1108395","2022-12-08 16:00","2022","12","08","16:00","4.8","","4.2","","96","","","","16","","10","","24.1","","101.15","","","","","","Mostly Cloudy"
"-123.18","49.19","VANCOUVER INTL A","1108395","2022-12-08 17:00","2022","12","08","17:00","3.9","","3.5","","97","","","","11","","8","","24.1","","101.14","","","","","","NA"
"-123.18","49.19","VANCOUVER INTL A","1108395","2022-12-08 18:00","2022","12","08","18:00","3.9","","3.9","","100","","","","13","","8","","24.1","","101.14","","","","","","NA"
"-123.18","49.19","VANCOUVER INTL A","1108395","2022-12-08 19:00","2022","12","08","19:00","2.9","","2.9","","100","","","","10","","8","","24.1","","101.14","","","","","","Mostly Cloudy"
"-123.18","49.19","VANCOUVER INTL A","1108395","2022-12-08 20:00","2022","12","08","20:00","1.8","","1.4","","97","","","","3","","10","","24.1","","101.16","","","","","","NA"
"-123.18","49.19","VANCOUVER INTL A","1108395","2022-12-08 21:00","2022","12","08","21:00","2.7","","2.7","","100","","","","9","","9","","24.1","","101.16","","","","","","NA"
"-123.18","49.19","VANCOUVER INTL A","1108395","2022-12-08 22:00","2022","12","08","22:00","1.3","","1.3","","100","","","","9","","10","","24.1","","101.18","","","","","","Mostly Cloudy"
"-123.18","49.19","VANCOUVER INTL A","1108395","2022-12-08 23:00","2022","12","08","23:00","2.6","","2.6","","100","","","","9","","11","","24.1","","101.20","","","","","","NA"
"-123.18","49.19","VANCOUVER INTL A","1108395","2022-12-09 00:00","2022","12","09","00:00","2.1","","2.1","","100","","","","7","","8","","24.1","","101.21","","","","","","NA"
"-123.18","49.19","VANCOUVER INTL A","1108395","2022-12-09 01:00","2022","12","09","01:00","2.4","","2.4","","100","","","","8","","14","","24.1","","101.18","","","","","","Cloudy"
"-123.18","49.19","VANCOUVER INTL A","1108395","2022-12-09 02:00","2022","12","09","02:00","1.9","","1.9","","100","","","","10","","15","","24.1","","101.15","","","","","","NA"
"-123.18","49.19","VANCOUVER INTL A","1108395","2022-12-09 03:00","2022","12","09","03:00","1.1","","1.1","","100","","","","10","","11","","24.1","","101.15","","","","","","NA"
"-123.18","49.19","VANCOUVER INTL A","1108395","2022-12-09 04:00","2022","12","09","04:00","0.4","","0.4","","100","","","","10","","15","","24.1","","101.14","","","","","","Mainly Clear"
"-123.18","49.19","VANCOUVER INTL A","1108395","2022-12-09 05:00","2022","12","09","05:00","3.0","","3.0","","100","","","","12","","17","","19.3","","101.14","","","","","","NA"
"-123.18","49.19","VANCOUVER INTL A","1108395","2022-12-09 06:00","2022","12","09","06:00","3.4","","3.4","","100","","","","12","","14","","24.1","","101.12","","","","","","NA"
"-123.18","49.19","VANCOUVER INTL A","1108395","2022-12-09 07:00","2022","12","09","07:00","3.1","","3.1","","100","","","","10","","16","","24.1","","101.11","","","","","","Mostly Cloudy"
"-123.18","49.19","VANCOUVER INTL A","1108395","2022-12-09 08:00","2022","12","09","08:00","2.9","","2.9","","100","","","","9","","18","","20.9","","101.08","","","","","","NA"
"-123.18","49.19","VANCOUVER INTL A","1108395","2022-12-09 09:00","2022","12","09","09:00","3.3","","3.3","","100","","","","10","","19","","24.1","","101.08","","","","","","NA"
"-123.18","49.19","VANCOUVER INTL A","1108395","2022-12-09 10:00","2022","12","09","10:00","4.3","","4.0","","98","","","","9","","20","","24.1","","101.06","","","","","","Cloudy"
"-123.18","49.19","VANCOUVER INTL A","1108395","2022-12-09 11:00","2022","12","09","11:00","4.5","","3.8","","96","","","","10","","26","","19.3","","101.02","","","","","","NA"
"-123.18","49.19","VANCOUVER INTL A","1108395","2022-12-09 12:00","2022","12","09","12:00","4.7","","3.7","","93","","","","8","","22","","24.1","","100.88","","","","","","NA"
"-123.18","49.19","VANCOUVER INTL A","1108395","2022-12-09 13:00","2022","12","09","13:00","4.7","","3.0","","89","","","","8","","23","","32.2","","100.77","","","","","","Cloudy"
"-123.18","49.19","VANCOUVER INTL A","1108395","2022-12-09 14:00","2022","12","09","14:00","4.9","","2.2","","82","","","","8","","22","","24.1","","100.60","","","","","","NA"
"-123.18","49.19","VANCOUVER INTL A","1108395","2022-12-09 15:00","2022","12","09","15:00","4.5","","2.3","","86","","","","10","","33","","16.1","","100.47","","","","","","Rain"
"-123.18","49.19","VANCOUVER INTL A","1108395","2022-12-09 16:00","2022","12","09","16:00","3.9","","2.6","","91","","","","7","","33","","4.8","","100.29","","","","","","Rain,Fog"
"-123.18","49.19","VANCOUVER INTL A","1108395","2022-12-09 17:00","2022","12","09","17:00","3.5","","2.6","","93","","","","7","","34","","4.8","","100.08","","","","","","Rain,Fog"
"-123.18","49.19","VANCOUVER INTL A","1108395","2022-12-09 18:00","2022","12","09","18:00","3.5","","2.7","","94","","","","7","","37","","4.8","","99.86","","","","","","Rain,Fog"
"-123.18","49.19","VANCOUVER INTL A","1108395","2022-12-09 19:00","2022","12","09","19:00","3.6","","3.0","","96","","","","8","","32","","12.9","","99.72","","","","","","Rain"
"-123.18","49.19","VANCOUVER INTL A","1108395","2022-12-09 20:00","2022","12","09","20:00","3.6","","3.0","","96","","","","8","","31","","12.9","","99.59","","","","","","Rain"
"-123.18","49.19","VANCOUVER INTL A","1108395","2022-12-09 21:00","2022","12","09","21:00","3.7","","3.2","","97","","","","8","","34","","16.1","","99.48","","","","","","Rain"
"-123.18","49.19","VANCOUVER INTL A","1108395","2022-12-09 22:00","2022","12","09","22:00","3.7","","3.6","","99","","","","9","","34","","11.3","","99.39","","","","","","Rain"
"-123.18","49.19","VANCOUVER INTL A","1108395","2022-12-09 23:00","2022","12","09","23:00","3.6","","3.6","","100","","","","9","","32","","11.3","","99.29","","","","","","Rain"
"-123.18","49.19","VANCOUVER INTL A","1108395","2022-12-10 00:00","2022","12","10","00:00","3.7","","3.7","","100","","","","10","","33","","12.9","","99.25","","","","","","Rain"
"-123.18","49.19","VANCOUVER INTL A","1108395","2022-12-10 01:00","2022","12","10","01:00","3.9","","3.9","","100","","","","8","","28","","12.9","","99.19","","","","","","Rain"
"-123.18","49.19","VANCOUVER INTL A","1108395","2022-12-10 02:00","2022","12","10","02:00","3.9","","3.9","","100","","","","9","","25","","16.1","","99.20","","","","","","Rain"
"-123.18","49.19","VANCOUVER INTL A","1108395","2022-12-10 03:00","2022","12","10","03:00","4.2","","4.1","","99","","","","9","","27","","12.9","","99.14","","","","","","Rain"
"-123.18","49.19","VANCOUVER INTL A","1108395","2022-12-10 04:00","2022","12","10","04:00","4.7","","4.4","","98","","","","8","","18","","16.1","","99.11","","","","","","Rain"
"-123.18","49.19","VANCOUVER INTL A","1108395","2022-12-10 05:00","2022","12","10","05:00","4.7","","4.6","","99","","","","9","","21","","16.1","","99.12","","","","","","Rain"
"-123.18","49.19","VANCOUVER INTL A","1108395","2022-12-10 06:00","2022","12","10","06:00","4.7","","4.7","","100","","","","9","","22","","16.1","","99.11","","","","","","Rain"
"-123.18","49.19","VANCOUVER INTL A","1108395","2022-12-10 07:00","2022","12","10","07:00","5.1","","5.1","","100","","","","8","","21","","16.1","","99.14","","","","","","Cloudy"
"-123.18","49.19","VANCOUVER INTL A","1108395","2022-12-10 08:00","2022","12","10","08:00","5.0","","5.0","","100","","","","7","","18","","8.1","","99.17","","","","","","Rain,Fog"
"-123.18","49.19","VANCOUVER INTL A","1108395","2022-12-10 09:00","2022","12","10","09:00","5.3","","5.3","","100","","","","9","","24","","6.4","","99.23","","","","","","Rain,Fog"
"-123.18","49.19","VANCOUVER INTL A","1108395","2022-12-10 10:00","2022","12","10","10:00","5.8","","5.8","","100","","","","9","","23","","9.7","","99.30","","","","","","Rain,Fog"
"-123.18","49.19","VANCOUVER INTL A","1108395","2022-12-10 11:00","2022","12","10","11:00","6.7","","6.1","","96","","","","9","","22","","24.1","","99.34","","","","","","NA"
"-123.18","49.19","VANCOUVER INTL A","1108395","2022-12-10 12:00","2022","12","10","12:00","7.0","","5.5","","90","","","","10","","27","","24.1","","99.34","","","","","","NA"
"-123.18","49.19","VANCOUVER INTL A","1108395","2022-12-10 13:00","2022","12","10","13:00","7.3","","5.7","","90","","","","9","","17","","32.2","","99.35","","","","","","Cloudy"
"-123.18","49.19","VANCOUVER INTL A","1108395","2022-12-10 14:00","2022","12","10","14:00","7.7","","5.1","","84","","","","10","","25","","32.2","","99.38","","","","","","NA"
"-123.18","49.19","VANCOUVER INTL A","1108395","2022-12-10 15:00","2022","12","10","15:00","7.3","","5.1","","86","","","","8","","19","","32.2","","99.45","","","","","","NA"
"-123.18","49.19","VANCOUVER INTL A","1108395","2022-12-10 16:00","2022","12","10","16:00","6.5","","5.6","","94","","","","9","","15","","32.2","","99.54","","","","","","Cloudy"
"-123.18","49.19","VANCOUVER INTL A","1108395","2022-12-10 17:00","2022","12","10","17:00","6.3","","6.0","","98","","","","9","","13","","24.1","","99.63","","","","","","NA"
"-123.18","49.19","VANCOUVER INTL A","1108395","2022-12-10 18:00","2022","12","10","18:00","6.1","","6.0","","99","","","","8","","17","","16.1","","99.70","","","","","","Rain"
"-123.18","49.19","VANCOUVER INTL A","1108395","2022-12-10 19:00","2022","12","10","19:00","5.9","","5.9","","100","","","","8","","11","","16.1","","99.79","","","","","","Cloudy"
"-123.18","49.19","VANCOUVER INTL A","1108395","2022-12-10 20:00","2022","12","10","20:00","5.6","","5.6","","100","","","","11","","12","","12.9","","99.86","","","","","","Rain"
"-123.18","49.19","VANCOUVER INTL A","1108395","2022-12-10 21:00","2022","12","10","21:00","5.3","","5.3","","100","","","","9","","15","","16.1","","99.95","","","","","","NA"
"-123.18","49.19","VANCOUVER INTL A","1108395","2022-12-10 22:00","2022","12","10","22:00","5.4","","5.4","","100","","","","9","","18","","16.1","","100.03","","","","","","Cloudy"
"-123.18","49.19","VANCOUVER INTL A","1108395","2022-12-10 23:00","2022","12","10","23:00","5.5","","5.5","","100","","","","8","","10","","12.9","","100.12","","","","","","NA"
"-123.18","49.19","VANCOUVER INTL A","1108395","2022-12-11 00:00","2022","12","11","00:00","5.5","","5.5","","100","","","","8","","7","","16.1","","100.18","","","","","","NA"
"-123.18","49.19","VANCOUVER INTL A","1108395","2022-12-11 01:00","2022","12","11","01:00","5.5","","5.5","","100","","","","36","","1","","16.1","","100.23","","","","","","Cloudy"
"-123.18","49.19","VANCOUVER INTL A","1108395","2022-12-11 02:00","2022","12","11","02:00","5.3","","5.3","","100","","","","9","","6","","16.1","","100.28","","","","","","NA"
"-123.18","49.19","VANCOUVER INTL A","1108395","2022-12-11 03:00","2022","12","11","03:00","5.4","","5.4","","100","","","","36","","3","","12.9","","100.35","","","","","","Drizzle"
"-123.18","49.19","VANCOUVER INTL A","1108395","2022-12-11 04:00","2022","12","11","04:00","5.2","","5.2","","100","","","","36","","2","","9.7","","100.39","","","","","","Drizzle,Fog"
"-123.18","49.19","VANCOUVER INTL A","1108395","2022-12-11 05:00","2022","12","11","05:00","5.4","","5.4","","100","","","","26","","6","","4.8","","100.45","","","","","","Drizzle,Fog"
"-123.18","49.19","VANCOUVER INTL A","1108395","2022-12-11 06:00","2022","12","11","06:00","5.4","","5.4","","100","","","","32","","4","","6.4","","100.50","","","","","","Drizzle,Fog"
"-123.18","49.19","VANCOUVER INTL A","1108395","2022-12-11 07:00","2022","12","11","07:00","5.2","","5.2","","100","","","","30","","8","","24.1","","100.54","","","","","","Cloudy"
"-123.18","49.19","VANCOUVER INTL A","1108395","2022-12-11 08:00","2022","12","11","08:00","5.7","","5.7","","100","","","","32","","13","","32.2","","100.60","","","","","","NA"
"-123.18","49.19","VANCOUVER INTL A","1108395","2022-12-11 09:00","2022","12","11","09:00","5.5","","5.5","","100","","","","31","","16","","32.2","","100.67","","","","","","NA"
"-123.18","49.19","VANCOUVER INTL A","1108395","2022-12-11 10:00","2022","12","11","10:00","6.1","","5.4","","95","","","","31","","16","","32.2","","100.73","","","","","","Mostly Cloudy"
"-123.18","49.19","VANCOUVER INTL A","1108395","2022-12-11 11:00","2022","12","11","11:00","6.6","","5.9","","95","","","","30","","12","","32.2","","100.77","","","","","","NA"
"-123.18","49.19","VANCOUVER INTL A","1108395","2022-12-11 12:00","2022","12","11","12:00","6.7","","6.3","","97","","","","31","","14","","32.2","","100.78","","","","","","NA"
"-123.18","49.19","VANCOUVER INTL A","1108395","2022-12-11 13:00","2022","12","11","13:00","6.7","","6.7","","100","","","","30","","17","","32.2","","100.77","","","","","","Mostly Cloudy"
"-123.18","49.19","VANCOUVER INTL A","1108395","2022-12-11 14:00","2022","12","11","14:00","6.6","","6.6","","100","","","","29","","27","","32.2","","100.82","","","","","","NA"
"-123.18","49.19","VANCOUVER INTL A","1108395","2022-12-11 15:00","2022","12","11","15:00","6.2","","6.2","","100","","","","29","","26","","19.3","","100.87","","","","","","NA"
"-123.18","49.19","VANCOUVER INTL A","1108395","2022-12-11 16:00","2022","12","11","16:00","6.2","","6.2","","100","","","","29","","22","","19.3","","100.94","","","","","","Mostly Cloudy"
"-123.18","49.19","VANCOUVER INTL A","1108395","2022-12-11 17:00","2022","12","11","17:00","6.1","","6.1","","100","","","","29","","23","","24.1","","101.00","","","","","","NA"
"-123.18","49.19","VANCOUVER INTL A","1108395","2022-12-11 18:00","2022","12","11","18:00","6.0","","6.0","","100","","","","29","","21","","24.1","","101.05","","","","","","NA"
"-123.18","49.19","VANCOUVER INTL A","1108395","2022-12-11 19:00","2022","12","11","19:00","6.1","","6.1","","100","","","","29","","19","","32.2","","101.10","","","","","","Cloudy"
"-123.18","49.19","VANCOUVER INTL A","1108395","2022-12-11 20:00","2022","12","11","20:00","6.1","","5.9","","99","","","","29","","18","","32.2","","101.15","","","","","","NA"
"-123.18","49.19","VANCOUVER INTL A","1108395","2022-12-11 21:00","2022","12","11","21:00","5.7","","5.4","","98","","","","30","","16","","32.2","","101.20","","","","","","NA"
"-123.18","49.19","VANCOUVER INTL A","1108395","2022-12-11 22:00","2022","12","11","22:00","5.5","","5.1","","97","","","","32","","14","","32.2","","101.27","","","","","","Cloudy"
"-123.18","49.19","VANCOUVER INTL A","1108395","2022-12-11 23:00","2022","12","11","23:00","5.2","","4.6","","96","","","","31","","16","","32.2","","101.33","","","","","","NA"
"-123.18","49.19","VANCOUVER INTL A","1108395","2022-12-12 00:00","2022","12","12","00:00","5.0","","4.4","","96","","","","33","","16","","32.2","","101.40","","","","","","NA"
"-123.18","49.19","VANCOUVER INTL A","1108395","2022-12-12 01:00","2022","12","12","01:00","4.2","","4.0","","98","","","","32","","16","","32.2","","101.41","","","","","","Cloudy"
"-123.18","49.19","VANCOUVER INTL A","1108395","2022-12-12 02:00","2022","12","12","02:00","4.6","","3.1","","90","","","","31","","22","","32.2","","101.44","","","","","","NA"
"-123.18","49.19","VANCOUVER INTL A","1108395","2022-12-12 03:00","2022","12","12","03:00","3.5","","1.2","","85","","","","34","","18","","32.2","","101.51","","","","","","NA"
"-123.18","49.19","VANCOUVER INTL A","1108395","2022-12-12 04:00","2022","12","12","04:00","2.6","","0.9","","88","","","","32","","16","","32.2","","101.56","","","","","","Clear"
"-123.18","49.19","VANCOUVER INTL A","1108395","2022-12-12 05:00","2022","12","12","05:00","3.0","","1.7","","91","","","","34","","18","","32.2","","101.61","","","","","","NA"
"-123.18","49.19","VANCOUVER INTL A","1108395","2022-12-12 06:00","2022","12","12","06:00","2.5","","0.4","","86","","","","31","","8","","32.2","","101.66","","","","","","NA"
"-123.18","49.19","VANCOUVER INTL A","1108395","2022-12-12 07:00","2022","12","12","07:00","0.4","","0.0","","97","","","","36","","9","","32.2","","101.70","","","","","","Clear"
"-123.18","49.19","VANCOUVER INTL A","1108395","2022-12-12 08:00","2022","12","12","08:00","2.2","","1.5","","95","","","","35","","7","","48.3","","101.77","","","","","","NA"
"-123.18","49.19","VANCOUVER INTL A","1108395","2022-12-12 09:00","2022","12","12","09:00","3.2","","1.5","","88","","","","36","","12","","48.3","","101.84","","","","","","NA"
"-123.18","49.19","VANCOUVER INTL A","1108395","2022-12-12 10:00","2022","12","12","10:00","3.3","","3.2","","99","","","","9","","8","","48.3","","101.89","","","","","","Mainly Clear"
"-123.18","49.19","VANCOUVER INTL A","1108395","2022-12-12 11:00","2022","12","12","11:00","4.0","","3.4","","96","","","","10","","9","","48.3","","101.91","","","","","","NA"
"-123.18","49.19","VANCOUVER INTL A","1108395","2022-12-12 12:00","2022","12","12","12:00","5.1","","3.0","","86","","","","8","","4","","48.3","","101.95","","","","","","NA"
"-123.18","49.19","VANCOUVER INTL A","1108395","2022-12-12 13:00","2022","12","12","13:00","6.5","","1.6","","71","","","","31","","16","","48.3","","101.93","","","","","","Mainly Clear"
"-123.18","49.19","VANCOUVER INTL A","1108395","2022-12-12 14:00","2022","12","12","14:00","6.3","","2.3","","75","","","","29","","17","","48.3","","101.93","","","","","","NA"
"-123.18","49.19","VANCOUVER INTL A","1108395","2022-12-12 15:00","2022","12","12","15:00","5.5","","3.1","","84","","","","29","","16","","48.3","","101.96","","","","","","NA"
"-123.18","49.19","VANCOUVER INTL A","1108395","2022-12-12 16:00","2022","12","12","16:00","4.0","","2.8","","92","","","","29","","15","","48.3","","101.97","","","","","","Mainly Clear"
"-123.18","49.19","VANCOUVER INTL A","1108395","2022-12-12 17:00","2022","12","12","17:00","3.1","","2.6","","96","","","","29","","14","","40.2","","102.00","","","","","","NA"
"-123.18","49.19","VANCOUVER INTL A","1108395","2022-12-12 18:00","2022","12","12","18:00","2.3","","2.0","","98","","","","32","","11","","32.2","","102.03","","","","","","NA"
"-123.18","49.19","VANCOUVER INTL A","1108395","2022-12-12 19:00","2022","12","12","19:00","2.1","","1.1","","93","","","","36","","8","","32.2","","102.04","","","","","","Cloudy"
"-123.18","49.19","VANCOUVER INTL A","1108395","2022-12-12 20:00","2022","12","12","20:00","2.2","","2.2","","100","","","","9","","11","","32.2","","102.06","","","","","","NA"
"-123.18","49.19","VANCOUVER INTL A","1108395","2022-12-12 21:00","2022","12","12","21:00","2.1","","1.7","","97","","","","3","","10","","32.2","","102.10","","","","","","NA"
"-123.18","49.19","VANCOUVER INTL A","1108395","2022-12-12 22:00","2022","12","12","22:00","1.9","","1.9","","100","","","","2","","7","","32.2","","102.17","","","","","","Mainly Clear"
"-123.18","49.19","VANCOUVER INTL A","1108395","2022-12-12 23:00","2022","12","12","23:00","2.0","","1.5","","97","","","","9","","6","","32.2","","102.17","","","","","","NA"
"-123.18","49.19","VANCOUVER INTL A","1108395","2022-12-13 00:00","2022","12","13","00:00","1.2","","0.8","","97","","","","9","","7","","32.2","","102.20","","","","","","NA"
"-123.18","49.19","VANCOUVER INTL A","1108395","2022-12-13 01:00","2022","12","13","01:00","1.4","","0.2","","92","","","","8","","10","","32.2","","102.22","","","","","","Mostly Cloudy"
"-123.18","49.19","VANCOUVER INTL A","1108395","2022-12-13 02:00","2022","12","13","02:00","1.1","","0.0","","92","","","","10","","10","","32.2","","102.26","","","","","","NA"
"-123.18","49.19","VANCOUVER INTL A","1108395","2022-12-13 03:00","2022","12","13","03:00","1.1","","0.1","","93","","","","36","","1","","32.2","","102.30","","","","","","NA"
"-123.18","49.19","VANCOUVER INTL A","1108395","2022-12-13 04:00","2022","12","13","04:00","0.9","","-0.3","","92","","","","8","","4","","32.2","","102.27","","","","","","Cloudy"
"-123.18","49.19","VANCOUVER INTL A","1108395","2022-12-13 05:00","2022","12","13","05:00","1.4","","1.1","","98","","","","9","","7","","32.2","","102.25","","","","","","NA"
"-123.18","49.19","VANCOUVER INTL A","1108395","2022-12-13 06:00","2022","12","13","06:00","1.8","","1.4","","98","","","","10","","10","","32.2","","102.29","","","","","","NA"
"-123.18","49.19","VANCOUVER INTL A","1108395","2022-12-13 07:00","2022","12","13","07:00","2.1","","0.1","","86","","","","11","","9","","32.2","","102.33","","","","","","Mostly Cloudy"
"-123.18","49.19","VANCOUVER INTL A","1108395","2022-12-13 08:00","2022","12","13","08:00","2.0","","0.8","","92","","","","10","","10","","48.3","","102.37","","","","","","NA"
"-123.18","49.19","VANCOUVER INTL A","1108395","2022-12-13 09:00","2022","12","13","09:00","2.6","","1.5","","92","","","","11","","13","","32.2","","102.42","","","","","","NA"
"-123.18","49.19","VANCOUVER INTL A","1108395","2022-12-13 10:00","2022","12","13","10:00","3.2","","1.2","","86","","","","11","","8","","32.2","","102.45","","","","","","Cloudy"
"-123.18","49.19","VANCOUVER INTL A","1108395","2022-12-13 11:00","2022","12","13","11:00","3.4","","0.3","","80","","","","13","","6","","32.2","","102.46","","","","","","NA"
"-123.18","49.19","VANCOUVER INTL A","1108395","2022-12-13 12:00","2022","12","13","12:00","3.5","","0.3","","80","","","","14","","9","","32.2","","102.42","","","","","","NA"
"-123.18","49.19","VANCOUVER INTL A","1108395","2022-12-13 13:00","2022","12","13","13:00","3.5","","0.0","","78","","","","13","","10","","40.2","","102.42","","","","","","Cloudy"
"-123.18","49.19","VANCOUVER INTL A","1108395","2022-12-13 14:00","2022","12","13","14:00","3.6","","0.4","","79","","","","14","","7","","32.2","","102.42","","","","","","NA"
"-123.18","49.19","VANCOUVER INTL A","1108395","2022-12-13 15:00","2022","12","13","15:00","3.5","","1.2","","85","","","","7","","7","","24.1","","102.44","","","","","","NA"
"-123.18","49.19","VANCOUVER INTL A","1108395","2022-12-13 16:00","2022","12","13","16:00","3.5","","0.8","","83","","","","11","","10","","24.1","","102.45","","","","","","Cloudy"
"-123.18","49.19","VANCOUVER INTL A","1108395","2022-12-13 17:00","2022","12","13","17:00","3.3","","1.8","","90","","","","10","","10","","24.1","","102.45","","","","","","NA"
"-123.18","49.19","VANCOUVER INTL A","1108395","2022-12-13 18:00","2022","12","13","18:00","3.4","","2.0","","91","","","","7","","9","","24.1","","102.45","","","","","","NA"
"-123.18","49.19","VANCOUVER INTL A","1108395","2022-12-13 19:00","2022","12","13","19:00","3.5","","2.4","","93","","","","9","","8","","32.2","","102.48","","","","","","Cloudy"
"-123.18","49.19","VANCOUVER INTL A","1108395","2022-12-13 20:00","2022","12","13","20:00","3.4","","2.6","","94","","","","11","","13","","32.2","","102.53","","","","","","NA"
"-123.18","49.19","VANCOUVER INTL A","1108395","2022-12-13 21:00","2022","12","13","21:00","3.1","","3.1","","100","","","","7","","9","","4.8","","102.59","","","","","","Drizzle,Fog"
"-123.18","49.19","VANCOUVER INTL A","1108395","2022-12-13 22:00","2022","12","13","22:00","2.5","","2.5","","100","","","","10","","9","","32.2","","102.64","","","","","","Rain"
"-123.18","49.19","VANCOUVER INTL A","1108395","2022-12-13 23:00","2022","12","13","23:00","2.9","","2.9","","100","","","","7","","8","","32.2","","102.66","","","","","","NA"
"-123.18","49.19","VANCOUVER INTL A","1108395","2022-12-14 00:00","2022","12","14","00:00","2.6","","2.6","","100","","","","35","","4","","32.2","","102.69","","","","","","NA"
"-123.18","49.19","VANCOUVER INTL A","1108395","2022-12-14 01:00","2022","12","14","01:00","2.5","","2.5","","100","","","","34","","7","","32.2","","102.70","","","","","","Cloudy"
"-123.18","49.19","VANCOUVER INTL A","1108395","2022-12-14 02:00","2022","12","14","02:00","1.6","","1.6","","100","","","","32","","5","","32.2","","102.75","","","","","","NA"
"-123.18","49.19","VANCOUVER INTL A","1108395","2022-12-14 03:00","2022","12","14","03:00","1.0","","1.0","","100","","","","32","","11","","32.2","","102.80","","","","","","NA"
"-123.18","49.19","VANCOUVER INTL A","1108395","2022-12-14 04:00","2022","12","14","04:00","2.0","","2.0","","100","","","","32","","9","","32.2","","102.80","","","","","","Mostly Cloudy"
"-123.18","49.19","VANCOUVER INTL A","1108395","2022-12-14 05:00","2022","12","14","05:00","1.2","","0.7","","97","","","","33","","15","","32.2","","102.83","","","","","","NA"
"-123.18","49.19","VANCOUVER INTL A","1108395","2022-12-14 06:00","2022","12","14","06:00","0.9","","0.3","","96","","","","32","","14","","32.2","","102.84","","","","","","NA"
"-123.18","49.19","VANCOUVER INTL A","1108395","2022-12-14 07:00","2022","12","14","07:00","1.1","","0.5","","95","","","","2","","7","","32.2","","102.91","","","","","","Clear"
"-123.18","49.19","VANCOUVER INTL A","1108395","2022-12-14 08:00","2022","12","14","08:00","0.7","","0.7","","100","","","","10","","6","","48.3","","103.00","","","","","","NA"
"-123.18","49.19","VANCOUVER INTL A","1108395","2022-12-14 09:00","2022","12","14","09:00","0.7","","0.7","","100","","","","36","","2","","48.3","","103.04","","","","","","NA"
"-123.18","49.19","VANCOUVER INTL A","1108395","2022-12-14 10:00","2022","12","14","10:00","3.3","","2.3","","93","","","","10","","4","","48.3","","103.09","","","","","","Mainly Clear"
"-123.18","49.19","VANCOUVER INTL A","1108395","2022-12-14 11:00","2022","12","14","11:00","5.1","","2.3","","82","","","","30","","3","","48.3","","103.08","","","","","","NA"
"-123.18","49.19","VANCOUVER INTL A","1108395","2022-12-14 12:00","2022","12","14","12:00","5.4","","2.3","","81","","","","31","","12","","48.3","","103.08","","","","","","NA"
"-123.18","49.19","VANCOUVER INTL A","1108395","2022-12-14 13:00","2022","12","14","13:00","5.8","","3.0","","83","","","","30","","23","","48.3","","103.08","","","","","","Mainly Clear"
"-123.18","49.19","VANCOUVER INTL A","1108395","2022-12-14 14:00","2022","12","14","14:00","5.6","","3.0","","83","","","","30","","23","","48.3","","103.09","","","","","","NA"
"-123.18","49.19","VANCOUVER INTL A","1108395","2022-12-14 15:00","2022","12","14","15:00","5.1","","2.6","","84","","","","29","","20","","48.3","","103.11","","","","","","NA"
"-123.18","49.19","VANCOUVER INTL A","1108395","2022-12-14 16:00","2022","12","14","16:00","4.0","","2.1","","87","","","","29","","19","","48.3","","103.16","","","","","","Clear"
"-123.18","49.19","VANCOUVER INTL A","1108395","2022-12-14 17:00","2022","12","14","17:00","3.5","","2.2","","91","","","","30","","18","","40.2","","103.18","","","","","","NA"
"-123.18","49.19","VANCOUVER INTL A","1108395","2022-12-14 18:00","2022","12","14","18:00","3.7","","2.7","","93","","","","30","","20","","40.2","","103.20","","","","","","NA"
"-123.18","49.19","VANCOUVER INTL A","1108395","2022-12-14 19:00","2022","12","14","19:00","3.3","","2.6","","95","","","","31","","18","","32.2","","103.21","","","","","","Clear"
"-123.18","49.19","VANCOUVER INTL A","1108395","2022-12-14 20:00","2022","12","14","20:00","2.5","","2.2","","98","","","","31","","17","","32.2","","103.28","","","","","","NA"
"-123.18","49.19","VANCOUVER INTL A","1108395","2022-12-14 21:00","2022","12","14","21:00","0.8","","0.5","","98","","","","34","","6","","32.2","","103.30","","","","","","NA"
"-123.18","49.19","VANCOUVER INTL A","1108395","2022-12-14 22:00","2022","12","14","22:00","1.7","","1.3","","98","","","","33","","14","","32.2","","103.33","","","","","","Clear"
"-123.18","49.19","VANCOUVER INTL A","1108395","2022-12-14 23:00","2022","12","14","23:00","0.4","","0.4","","100","","","","36","","8","","32.2","","103.39","","","","","","NA"
"-123.18","49.19","VANCOUVER INTL A","1108395","2022-12-15 00:00","2022","12","15","00:00","1.2","","0.8","","97","","","","33","","9","","32.2","","103.33","","","","","","NA"
"-123.18","49.19","VANCOUVER INTL A","1108395","2022-12-15 01:00","2022","12","15","01:00","1.7","","1.4","","98","","","","5","","4","","32.2","","103.35","","","","","","Clear"
"-123.18","49.19","VANCOUVER INTL A","1108395","2022-12-15 02:00","2022","12","15","02:00","-0.4","","-0.4","","100","","","","9","","9","","32.2","","103.35","","","","-4","","NA"
"-123.18","49.19","VANCOUVER INTL A","1108395","2022-12-15 03:00","2022","12","15","03:00","-0.7","","-0.7","","100","","","","9","","12","","32.2","","103.37","","","","-5","","NA"
"-123.18","49.19","VANCOUVER INTL A","1108395","2022-12-15 04:00","2022","12","15","04:00","-1.3","","-1.3","","100","","","","10","","7","","32.2","","103.38","","","","-4","","Mostly Cloudy"
"-123.18","49.19","VANCOUVER INTL A","1108395","2022-12-15 05:00","2022","12","15","05:00","0.1","","0.1","","100","","","","6","","4","","32.2","","103.40","","","","","","NA"
"-123.18","49.19","VANCOUVER INTL A","1108395","2022-12-15 06:00","2022","12","15","06:00","0.2","","0.2","","100","","","","10","","5","","32.2","","103.39","","","","","","NA"
"-123.18","49.19","VANCOUVER INTL A","1108395","2022-12-15 07:00","2022","12","15","07:00","0.0","","0.0","","100","","","","36","","2","","32.2","","103.40","","","","-1","","Mostly Cloudy"
"-123.18","49.19","VANCOUVER INTL A","1108395","2022-12-15 08:00","2022","12","15","08:00","0.4","","0.4","","100","","","","14","","3","","32.2","","103.39","","","","","","NA"
"-123.18","49.19","VANCOUVER INTL A","1108395","2022-12-15 09:00","2022","12","15","09:00","0.9","","0.9","","100","","","","10","","4","","32.2","","103.43","","","","","","NA"
"-123.18","49.19","VANCOUVER INTL A","1108395","2022-12-15 10:00","2022","12","15","10:00","0.8","","0.8","","100","","","","10","","8","","32.2","","103.48","","","","","","Mostly Cloudy"
"-123.18","49.19","VANCOUVER INTL A","1108395","2022-12-15 11:00","2022","12","15","11:00","2.2","","1.5","","95","","","","17","","4","","32.2","","103.45","","","","","","NA"
"-123.18","49.19","VANCOUVER INTL A","1108395","2022-12-15 12:00","2022","12","15","12:00","3.9","","3.6","","98","","","","30","","15","","32.2","","103.40","","","","","","NA"
"-123.18","49.19","VANCOUVER INTL A","1108395","2022-12-15 13:00","2022","12","15","13:00","4.5","","3.7","","95","","","","30","","19","","32.2","","103.33","","","","","","Mostly Cloudy"
"-123.18","49.19","VANCOUVER INTL A","1108395","2022-12-15 14:00","2022","12","15","14:00","4.9","","3.8","","93","","","","30","","19","","32.2","","103.29","","","","","","NA"
"-123.18","49.19","VANCOUVER INTL A","1108395","2022-12-15 15:00","2022","12","15","15:00","4.9","","3.9","","93","","","","30","","16","","32.2","","103.29","","","","","","NA"
"-123.18","49.19","VANCOUVER INTL A","1108395","2022-12-15 16:00","2022","12","15","16:00","3.8","","3.5","","98","","","","30","","17","","32.2","","103.29","","","","","","Clear"
"-123.18","49.19","VANCOUVER INTL A","1108395","2022-12-15 17:00","2022","12","15","17:00","2.9","","2.9","","100","","","","30","","14","","32.2","","103.29","","","","","","NA"
"-123.18","49.19","VANCOUVER INTL A","1108395","2022-12-15 18:00","2022","12","15","18:00","3.3","","3.3","","100","","","","36","","2","","24.1","","103.25","","","","","","NA"
"-123.18","49.19","VANCOUVER INTL A","1108395","2022-12-15 19:00","2022","12","15","19:00","-0.4","","-0.4","","100","","","","36","","5","","24.1","","103.30","","","","-2","","Clear"
"-123.18","49.19","VANCOUVER INTL A","1108395","2022-12-15 20:00","2022","12","15","20:00","1.7","","1.7","","100","","","","10","","5","","24.1","","103.31","","","","","","NA"
"-123.18","49.19","VANCOUVER INTL A","1108395","2022-12-15 21:00","2022","12","15","21:00","-0.1","","-0.1","","100","","","","4","","4","","24.1","","103.32","","","","-1","","NA"
"-123.18","49.19","VANCOUVER INTL A","1108395","2022-12-15 22:00","2022","12","15","22:00","-0.1","","-0.1","","100","","","","12","","4","","24.1","","103.29","","","","-1","","Mainly Clear"
"-123.18","49.19","VANCOUVER INTL A","1108395","2022-12-15 23:00","2022","12","15","23:00","0.2","","0.2","","100","","","","2","","4","","24.1","","103.31","","","","","","NA"
"-123.18","49.19","VANCOUVER INTL A","1108395","2022-12-16 00:00","2022","12","16","00:00","-0.9","","-0.9","","100","","","","15","","7","","24.1","","103.28","","","","-3","","NA"
"-123.18","49.19","VANCOUVER INTL A","1108395","2022-12-16 01:00","2022","12","16","01:00","-0.8","","-0.8","","100","","","","10","","4","","24.1","","103.24","","","","-2","","Clear"
"-123.18","49.19","VANCOUVER INTL A","1108395","2022-12-16 02:00","2022","12","16","02:00","-0.8","","-0.8","","100","","","","7","","7","","24.1","","103.23","","","","-3","","NA"
"-123.18","49.19","VANCOUVER INTL A","1108395","2022-12-16 03:00","2022","12","16","03:00","0.0","","0.0","","100","","","","11","","6","","11.3","","103.20","","","","-2","","NA"
"-123.18","49.19","VANCOUVER INTL A","1108395","2022-12-16 04:00","2022","12","16","04:00","0.7","","0.7","","100","","","","11","","7","","12.9","","103.16","","","","","","Mostly Cloudy"
"-123.18","49.19","VANCOUVER INTL A","1108395","2022-12-16 05:00","2022","12","16","05:00","0.7","","0.7","","100","","","","9","","11","","12.9","","103.11","","","","","","NA"
"-123.18","49.19","VANCOUVER INTL A","1108395","2022-12-16 06:00","2022","12","16","06:00","0.9","","0.9","","100","","","","10","","6","","19.3","","103.07","","","","","","NA"
"-123.18","49.19","VANCOUVER INTL A","1108395","2022-12-16 07:00","2022","12","16","07:00","1.7","","1.7","","100","","","","4","","6","","16.1","","103.03","","","","","","Cloudy"
"-123.18","49.19","VANCOUVER INTL A","1108395","2022-12-16 08:00","2022","12","16","08:00","1.5","","1.5","","100","","","","1","","5","","3.2","","103.02","","","","","","Fog"
"-123.18","49.19","VANCOUVER INTL A","1108395","2022-12-16 09:00","2022","12","16","09:00","1.9","","1.9","","100","","","","6","","7","","4.8","","103.00","","","","","","Fog"
"-123.18","49.19","VANCOUVER INTL A","1108395","2022-12-16 10:00","2022","12","16","10:00","2.7","","2.7","","100","","","","9","","5","","4.8","","103.00","","","","","","Fog"
"-123.18","49.19","VANCOUVER INTL A","1108395","2022-12-16 11:00","2022","12","16","11:00","3.8","","3.6","","99","","","","35","","7","","16.1","","102.96","","","","","","NA"
"-123.18","49.19","VANCOUVER INTL A","1108395","2022-12-16 12:00","2022","12","16","12:00","3.6","","3.0","","95","","","","33","","12","","24.1","","102.85","","","","","","NA"
"-123.18","49.19","VANCOUVER INTL A","1108395","2022-12-16 13:00","2022","12","16","13:00","3.8","","3.2","","97","","","","32","","8","","24.1","","102.78","","","","","","Cloudy"
"-123.18","49.19","VANCOUVER INTL A","1108395","2022-12-16 14:00","2022","12","16","14:00","4.0","","3.2","","94","","","","31","","8","","24.1","","102.74","","","","","","NA"
"-123.18","49.19","VANCOUVER INTL A","1108395","2022-12-16 15:00","2022","12","16","15:00","3.8","","2.8","","93","","","","31","","4","","24.1","","102.64","","","","","","NA"
"-123.18","49.19","VANCOUVER INTL A","1108395","2022-12-16 16:00","2022","12","16","16:00","3.5","","2.9","","96","","","","32","","9","","24.1","","102.60","","","","","","Cloudy"
"-123.18","49.19","VANCOUVER INTL A","1108395","2022-12-16 17:00","2022","12","16","17:00","3.3","","2.9","","98","","","","36","","8","","24.1","","102.55","","","","","","NA"
"-123.18","49.19","VANCOUVER INTL A","1108395","2022-12-16 18:00","2022","12","16","18:00","3.3","","2.5","","94","","","","1","","6","","24.1","","102.48","","","","","","NA"
"-123.18","49.19","VANCOUVER INTL A","1108395","2022-12-16 19:00","2022","12","16","19:00","3.5","","2.5","","93","","","","36","","1","","19.3","","102.43","","","","","","Cloudy"
"-123.18","49.19","VANCOUVER INTL A","1108395","2022-12-16 20:00","2022","12","16","20:00","2.7","","2.7","","100","","","","10","","14","","19.3","","102.40","","","","","","NA"
"-123.18","49.19","VANCOUVER INTL A","1108395","2022-12-16 21:00","2022","12","16","21:00","2.4","","2.4","","100","","","","10","","10","","19.3","","102.38","","","","","","NA"
"-123.18","49.19","VANCOUVER INTL A","1108395","2022-12-16 22:00","2022","12","16","22:00","2.0","","2.0","","100","","","","11","","13","","16.1","","102.34","","","","","","Cloudy"
"-123.18","49.19","VANCOUVER INTL A","1108395","2022-12-16 23:00","2022","12","16","23:00","1.6","","1.6","","100","","","","10","","13","","6.4","","102.30","","","","","","Fog"
"-123.18","49.19","VANCOUVER INTL A","1108395","2022-12-17 00:00","2022","12","17","00:00","1.4","","1.4","","100","","","","8","","13","","6.4","","102.27","","","","","","Fog"
"-123.18","49.19","VANCOUVER INTL A","1108395","2022-12-17 01:00","2022","12","17","01:00","1.4","","1.4","","100","","","","9","","12","","6.4","","102.21","","","","","","Fog"
"-123.18","49.19","VANCOUVER INTL A","1108395","2022-12-17 02:00","2022","12","17","02:00","1.4","","1.4","","100","","","","10","","12","","8.1","","102.14","","","","","","Fog"
"-123.18","49.19","VANCOUVER INTL A","1108395","2022-12-17 03:00","2022","12","17","03:00","1.3","","1.3","","100","","","","10","","9","","6.4","","102.12","","","","","","Fog"
"-123.18","49.19","VANCOUVER INTL A","1108395","2022-12-17 04:00","2022","12","17","04:00","1.4","","1.4","","100","","","","9","","9","","8.1","","102.01","","","","","","Drizzle,Fog"
"-123.18","49.19","VANCOUVER INTL A","1108395","2022-12-17 05:00","2022","12","17","05:00","1.4","","1.4","","100","","","","9","","7","","9.7","","101.93","","","","","","Fog"
"-123.18","49.19","VANCOUVER INTL A","1108395","2022-12-17 06:00","2022","12","17","06:00","1.5","","1.5","","100","","","","9","","7","","9.7","","101.85","","","","","","Rain,Fog"
"-123.18","49.19","VANCOUVER INTL A","1108395","2022-12-17 07:00","2022","12","17","07:00","1.7","","1.7","","100","","","","8","","4","","9.7","","101.82","","","","","","Rain,Fog"
"-123.18","49.19","VANCOUVER INTL A","1108395","2022-12-17 08:00","2022","12","17","08:00","1.9","","1.9","","100","","","","12","","7","","3.2","","101.79","","","","","","Rain,Fog"
"-123.18","49.19","VANCOUVER INTL A","1108395","2022-12-17 09:00","2022","12","17","09:00","2.2","","2.2","","100","","","","11","","8","","3.2","","101.78","","","","","","Rain,Fog"
"-123.18","49.19","VANCOUVER INTL A","1108395","2022-12-17 10:00","2022","12","17","10:00","2.4","","2.4","","100","","","","9","","10","","3.2","","101.79","","","","","","Rain,Fog"
"-123.18","49.19","VANCOUVER INTL A","1108395","2022-12-17 11:00","2022","12","17","11:00","2.6","","2.6","","100","","","","12","","4","","3.2","","101.77","","","","","","Rain,Fog"
"-123.18","49.19","VANCOUVER INTL A","1108395","2022-12-17 12:00","2022","12","17","12:00","2.9","","2.9","","100","","","","16","","5","","4.8","","101.71","","","","","","Rain,Fog"
"-123.18","49.19","VANCOUVER INTL A","1108395","2022-12-17 13:00","2022","12","17","13:00","3.4","","3.4","","100","","","","13","","8","","11.3","","101.64","","","","","","Mostly Cloudy"
"-123.18","49.19","VANCOUVER INTL A","1108395","2022-12-17 14:00","2022","12","17","14:00","3.1","","3.1","","100","","","","9","","9","","16.1","","101.60","","","","","","NA"
"-123.18","49.19","VANCOUVER INTL A","1108395","2022-12-17 15:00","2022","12","17","15:00","2.5","","2.5","","100","","","","12","","9","","12.9","","101.58","","","","","","NA"
"-123.18","49.19","VANCOUVER INTL A","1108395","2022-12-17 16:00","2022","12","17","16:00","2.6","","2.6","","100","","","","10","","10","","12.9","","101.57","","","","","","Mostly Cloudy"
"-123.18","49.19","VANCOUVER INTL A","1108395","2022-12-17 17:00","2022","12","17","17:00","2.4","","2.4","","100","","","","11","","11","","12.9","","101.54","","","","","","NA"
"-123.18","49.19","VANCOUVER INTL A","1108395","2022-12-17 18:00","2022","12","17","18:00","1.6","","1.6","","100","","","","12","","5","","16.1","","101.48","","","","","","NA"
"-123.18","49.19","VANCOUVER INTL A","1108395","2022-12-17 19:00","2022","12","17","19:00","2.4","","2.4","","100","","","","14","","9","","19.3","","101.45","","","","","","Mostly Cloudy"
"-123.18","49.19","VANCOUVER INTL A","1108395","2022-12-17 20:00","2022","12","17","20:00","3.3","","3.3","","100","","","","7","","9","","19.3","","101.46","","","","","","NA"
"-123.18","49.19","VANCOUVER INTL A","1108395","2022-12-17 21:00","2022","12","17","21:00","3.1","","2.7","","97","","","","13","","7","","19.3","","101.42","","","","","","NA"
"-123.18","49.19","VANCOUVER INTL A","1108395","2022-12-17 22:00","2022","12","17","22:00","2.2","","2.2","","100","","","","13","","9","","19.3","","101.38","","","","","","Mostly Cloudy"
"-123.18","49.19","VANCOUVER INTL A","1108395","2022-12-17 23:00","2022","12","17","23:00","2.4","","2.0","","98","","","","35","","7","","19.3","","101.42","","","","","","NA"
"-123.18","49.19","VANCOUVER INTL A","1108395","2022-12-18 00:00","2022","12","18","00:00","2.0","","2.0","","100","","","","8","","10","","24.1","","101.40","","","","","","NA"
"-123.18","49.19","VANCOUVER INTL A","1108395","2022-12-18 01:00","2022","12","18","01:00","1.3","","1.3","","100","","","","10","","3","","19.3","","101.37","","","","","","Mostly Cloudy"
"-123.18","49.19","VANCOUVER INTL A","1108395","2022-12-18 02:00","2022","12","18","02:00","1.6","","1.6","","100","","","","7","","8","","16.1","","101.32","","","","","","NA"
"-123.18","49.19","VANCOUVER INTL A","1108395","2022-12-18 03:00","2022","12","18","03:00","1.9","","1.9","","100","","","","34","","10","","16.1","","101.32","","","","","","NA"
"-123.18","49.19","VANCOUVER INTL A","1108395","2022-12-18 04:00","2022","12","18","04:00","1.2","","1.2","","100","","","","8","","12","","19.3","","101.23","","","","","","Mostly Cloudy"
"-123.18","49.19","VANCOUVER INTL A","1108395","2022-12-18 05:00","2022","12","18","05:00","1.3","","1.3","","100","","","","12","","10","","16.1","","101.17","","","","","","NA"
"-123.18","49.19","VANCOUVER INTL A","1108395","2022-12-18 06:00","2022","12","18","06:00","0.5","","0.5","","100","","","","3","","9","","1.0","","101.14","","","","","","Moderate Ice Pellets"
"-123.18","49.19","VANCOUVER INTL A","1108395","2022-12-18 07:00","2022","12","18","07:00","0.2","","0.2","","100","","","","10","","10","","4.0","","101.11","","","","","","Thunderstorms,Snow Showers"
"-123.18","49.19","VANCOUVER INTL A","1108395","2022-12-18 08:00","2022","12","18","08:00","-0.1","","-0.1","","100","","","","14","","10","","0.8","","101.11","","","","-3","","Moderate Snow"
"-123.18","49.19","VANCOUVER INTL A","1108395","2022-12-18 09:00","2022","12","18","09:00","-1.0","","-1.0","","100","","","","11","","17","","2.8","","101.19","","","","-6","","Snow"
"-123.18","49.19","VANCOUVER INTL A","1108395","2022-12-18 10:00","2022","12","18","10:00","-2.2","","-2.2","","100","","","","9","","23","","0.8","","101.25","","","","-8","","Moderate Snow"
"-123.18","49.19","VANCOUVER INTL A","1108395","2022-12-18 11:00","2022","12","18","11:00","-2.9","","-2.9","","100","","","","11","","20","","0.8","","101.32","","","","-9","","Moderate Snow"
"-123.18","49.19","VANCOUVER INTL A","1108395","2022-12-18 12:00","2022","12","18","12:00","-3.8","","-4.2","","97","","","","11","","22","","1.6","","101.34","","","","-10","","Snow"
"-123.18","49.19","VANCOUVER INTL A","1108395","2022-12-18 13:00","2022","12","18","13:00","-4.1","","-4.8","","95","","","","10","","18","","3.2","","101.40","","","","-10","","Snow"
"-123.18","49.19","VANCOUVER INTL A","1108395","2022-12-18 14:00","2022","12","18","14:00","-4.5","","-5.6","","92","","","","11","","21","","2.4","","101.45","","","","-11","","Snow"
"-123.18","49.19","VANCOUVER INTL A","1108395","2022-12-18 15:00","2022","12","18","15:00","-4.8","","-6.2","","90","","","","11","","20","","3.2","","101.54","","","","-11","","Snow"
"-123.18","49.19","VANCOUVER INTL A","1108395","2022-12-18 16:00","2022","12","18","16:00","-5.0","","-6.9","","87","","","","10","","20","","4.8","","101.61","","","","-12","","Snow"
"-123.18","49.19","VANCOUVER INTL A","1108395","2022-12-18 17:00","2022","12","18","17:00","-5.2","","-7.5","","84","","","","10","","18","","6.4","","101.70","","","","-11","","Snow"
"-123.18","49.19","VANCOUVER INTL A","1108395","2022-12-18 18:00","2022","12","18","18:00","-5.5","","-8.3","","80","","","","9","","16","","9.7","","101.80","","","","-11","","Snow"
"-123.18","49.19","VANCOUVER INTL A","1108395","2022-12-18 19:00","2022","12","18","19:00","-5.8","","-9.3","","77","","","","10","","17","","12.9","","101.86","","","","-12","","Mostly Cloudy"
"-123.18","49.19","VANCOUVER INTL A","1108395","2022-12-18 20:00","2022","12","18","20:00","-5.9","","-10.2","","72","","","","11","","21","","16.1","","101.95","","","","-13","","NA"
"-123.18","49.19","VANCOUVER INTL A","1108395","2022-12-18 21:00","2022","12","18","21:00","-6.3","","-10.6","","72","","","","10","","18","","19.3","","102.01","","","","-13","","NA"
"-123.18","49.19","VANCOUVER INTL A","1108395","2022-12-18 22:00","2022","12","18","22:00","-6.3","","-11.3","","68","","","","10","","18","","16.1","","102.09","","","","-13","","Cloudy"
"-123.18","49.19","VANCOUVER INTL A","1108395","2022-12-18 23:00","2022","12","18","23:00","-6.3","","-10.9","","70","","","","13","","16","","16.1","","102.19","","","","-12","","NA"
"-123.18","49.19","VANCOUVER INTL A","1108395","2022-12-19 00:00","2022","12","19","00:00","-6.5","","-11.5","","68","","","","12","","17","","24.1","","102.29","","","","-13","","NA"
"-123.18","49.19","VANCOUVER INTL A","1108395","2022-12-19 01:00","2022","12","19","01:00","-7.0","","-12.4","","66","","","","11","","20","","24.1","","102.32","","","","-14","","Cloudy"
"-123.18","49.19","VANCOUVER INTL A","1108395","2022-12-19 02:00","2022","12","19","02:00","-7.2","","-12.2","","68","","","","9","","13","","32.2","","102.38","","","","-13","","NA"
"-123.18","49.19","VANCOUVER INTL A","1108395","2022-12-19 03:00","2022","12","19","03:00","-7.0","","-12.1","","67","","","","11","","14","","24.1","","102.48","","","","-13","","Snow"
"-123.18","49.19","VANCOUVER INTL A","1108395","2022-12-19 04:00","2022","12","19","04:00","-7.3","","-12.4","","67","","","","11","","15","","32.2","","102.51","","","","-13","","Snow"
"-123.18","49.19","VANCOUVER INTL A","1108395","2022-12-19 05:00","2022","12","19","05:00","-7.7","","-12.7","","67","","","","10","","17","","32.2","","102.55","","","","-14","","NA"
"-123.18","49.19","VANCOUVER INTL A","1108395","2022-12-19 06:00","2022","12","19","06:00","-7.9","","-13.0","","67","","","","10","","17","","32.2","","102.59","","","","-15","","NA"
"-123.18","49.19","VANCOUVER INTL A","1108395","2022-12-19 07:00","2022","12","19","07:00","-8.0","","-12.6","","70","","","","10","","17","","32.2","","102.62","","","","-15","","Cloudy"
"-123.18","49.19","VANCOUVER INTL A","1108395","2022-12-19 08:00","2022","12","19","08:00","-8.0","","-12.4","","71","","","","10","","17","","32.2","","102.66","","","","-15","","NA"
"-123.18","49.19","VANCOUVER INTL A","1108395","2022-12-19 09:00","2022","12","19","09:00","-7.9","","-12.5","","70","","","","11","","17","","32.2","","102.69","","","","-15","","NA"
"-123.18","49.19","VANCOUVER INTL A","1108395","2022-12-19 10:00","2022","12","19","10:00","-7.6","","-12.0","","71","","","","11","","15","","32.2","","102.78","","","","-14","","Mostly Cloudy"
"-123.18","49.19","VANCOUVER INTL A","1108395","2022-12-19 11:00","2022","12","19","11:00","-7.3","","-11.8","","70","","","","10","","14","","32.2","","102.77","","","","-13","","NA"
"-123.18","49.19","VANCOUVER INTL A","1108395","2022-12-19 12:00","2022","12","19","12:00","-7.0","","-11.2","","72","","","","10","","14","","32.2","","102.77","","","","-13","","NA"
"-123.18","49.19","VANCOUVER INTL A","1108395","2022-12-19 13:00","2022","12","19","13:00","-7.2","","-11.1","","74","","","","9","","15","","32.2","","102.76","","","","-13","","Snow"
"-123.18","49.19","VANCOUVER INTL A","1108395","2022-12-19 14:00","2022","12","19","14:00","-7.0","","-10.7","","75","","","","11","","13","","32.2","","102.80","","","","-13","","Snow"
"-123.18","49.19","VANCOUVER INTL A","1108395","2022-12-19 15:00","2022","12","19","15:00","-7.1","","-9.7","","82","","","","10","","15","","16.1","","102.76","","","","-13","","Snow"
"-123.18","49.19","VANCOUVER INTL A","1108395","2022-12-19 16:00","2022","12","19","16:00","-7.2","","-8.8","","88","","","","10","","13","","3.6","","102.78","","","","-13","","Fog"
"-123.18","49.19","VANCOUVER INTL A","1108395","2022-12-19 17:00","2022","12","19","17:00","-7.4","","-8.7","","90","","","","13","","12","","4.0","","102.74","","","","-13","","Fog"
"-123.18","49.19","VANCOUVER INTL A","1108395","2022-12-19 18:00","2022","12","19","18:00","-7.5","","-8.7","","91","","","","12","","13","","3.6","","102.72","","","","-13","","Fog"
"-123.18","49.19","VANCOUVER INTL A","1108395","2022-12-19 19:00","2022","12","19","19:00","-7.9","","-9.0","","92","","","","11","","17","","3.2","","102.66","","","","-15","","Snow"
"-123.18","49.19","VANCOUVER INTL A","1108395","2022-12-19 20:00","2022","12","19","20:00","-7.8","","-8.6","","94","","","","10","","13","","1.0","","102.62","","","","-14","","Snow"
"-123.18","49.19","VANCOUVER INTL A","1108395","2022-12-19 21:00","2022","12","19","21:00","-8.1","","-8.9","","94","","","","10","","11","","0.8","","102.61","","","","-13","","Moderate Snow"
"-123.18","49.19","VANCOUVER INTL A","1108395","2022-12-19 22:00","2022","12","19","22:00","-8.0","","-8.9","","93","","","","10","","13","","1.6","","102.56","","","","-14","","Snow"
"-123.18","49.19","VANCOUVER INTL A","1108395","2022-12-19 23:00","2022","12","19","23:00","-8.0","","-8.7","","94","","","","11","","12","","1.2","","102.51","","","","-13","","Snow"
"-123.18","49.19","VANCOUVER INTL A","1108395","2022-12-20 00:00","2022","12","20","00:00","-8.0","","-8.8","","94","","","","13","","13","","0.8","","102.45","","","","-14","","Moderate Snow"
"-123.18","49.19","VANCOUVER INTL A","1108395","2022-12-20 01:00","2022","12","20","01:00","-8.2","","-8.9","","95","","","","10","","12","","0.8","","102.34","","","","-14","","Moderate Snow"
"-123.18","49.19","VANCOUVER INTL A","1108395","2022-12-20 02:00","2022","12","20","02:00","-8.2","","-8.8","","96","","","","11","","11","","0.6","","102.28","","","","-13","","Moderate Snow"
"-123.18","49.19","VANCOUVER INTL A","1108395","2022-12-20 03:00","2022","12","20","03:00","-8.2","","-8.7","","96","","","","12","","12","","0.6","","102.22","","","","-14","","Moderate Snow"
"-123.18","49.19","VANCOUVER INTL A","1108395","2022-12-20 04:00","2022","12","20","04:00","-8.4","","-8.9","","96","","","","10","","15","","0.4","","102.09","","","","-15","","Heavy Snow"
"-123.18","49.19","VANCOUVER INTL A","1108395","2022-12-20 05:00","2022","12","20","05:00","-8.2","","-8.8","","96","","","","10","","12","","0.8","","102.02","","","","-14","","Moderate Snow"
"-123.18","49.19","VANCOUVER INTL A","1108395","2022-12-20 06:00","2022","12","20","06:00","-8.2","","-8.7","","96","","","","10","","14","","0.8","","101.92","","","","-14","","Moderate Snow"
"-123.18","49.19","VANCOUVER INTL A","1108395","2022-12-20 07:00","2022","12","20","07:00","-8.1","","-8.8","","95","","","","10","","14","","1.6","","101.89","","","","-14","","Fog"
"-123.18","49.19","VANCOUVER INTL A","1108395","2022-12-20 08:00","2022","12","20","08:00","-8.0","","-8.8","","94","","","","10","","11","","9.7","","101.90","","","","-13","","Snow,Fog"
"-123.18","49.19","VANCOUVER INTL A","1108395","2022-12-20 09:00","2022","12","20","09:00","-7.9","","-8.9","","93","","","","9","","14","","24.1","","101.93","","","","-14","","NA"
"-123.18","49.19","VANCOUVER INTL A","1108395","2022-12-20 10:00","2022","12","20","10:00","-7.5","","-8.8","","90","","","","7","","9","","24.1","","101.98","","","","-12","","Cloudy"
"-123.18","49.19","VANCOUVER INTL A","1108395","2022-12-20 11:00","2022","12","20","11:00","-7.4","","-8.7","","90","","","","9","","17","","32.2","","102.01","","","","-14","","NA"
"-123.18","49.19","VANCOUVER INTL A","1108395","2022-12-20 12:00","2022","12","20","12:00","-7.1","","-9.0","","87","","","","8","","12","","24.1","","102.04","","","","-12","","NA"
"-123.18","49.19","VANCOUVER INTL A","1108395","2022-12-20 13:00","2022","12","20","13:00","-7.3","","-9.3","","86","","","","10","","17","","24.1","","102.05","","","","-14","","Cloudy"
"-123.18","49.19","VANCOUVER INTL A","1108395","2022-12-20 14:00","2022","12","20","14:00","-7.2","","-9.5","","84","","","","11","","15","","24.1","","102.09","","","","-13","","NA"
"-123.18","49.19","VANCOUVER INTL A","1108395","2022-12-20 15:00","2022","12","20","15:00","-7.3","","-10.2","","80","","","","10","","17","","24.1","","102.17","","","","-14","","Snow"
"-123.18","49.19","VANCOUVER INTL A","1108395","2022-12-20 16:00","2022","12","20","16:00","-7.5","","-10.7","","78","","","","11","","18","","24.1","","102.20","","","","-14","","Snow"
"-123.18","49.19","VANCOUVER INTL A","1108395","2022-12-20 17:00","2022","12","20","17:00","-7.4","","-10.1","","81","","","","10","","14","","24.1","","102.26","","","","-13","","Snow"
"-123.18","49.19","VANCOUVER INTL A","1108395","2022-12-20 18:00","2022","12","20","18:00","-7.5","","-10.2","","81","","","","10","","14","","16.1","","102.29","","","","-13","","Snow"
"-123.18","49.19","VANCOUVER INTL A","1108395","2022-12-20 19:00","2022","12","20","19:00","-7.3","","-10.2","","80","","","","10","","15","","24.1","","102.35","","","","-13","","Cloudy"
"-123.18","49.19","VANCOUVER INTL A","1108395","2022-12-20 20:00","2022","12","20","20:00","-7.3","","-10.2","","80","","","","11","","20","","24.1","","102.42","","","","-14","","Snow"
"-123.18","49.19","VANCOUVER INTL A","1108395","2022-12-20 21:00","2022","12","20","21:00","-7.4","","-10.6","","78","","","","11","","15","","24.1","","102.53","","","","-14","","Snow"
"-123.18","49.19","VANCOUVER INTL A","1108395","2022-12-20 22:00","2022","12","20","22:00","-7.5","","-10.8","","77","","","","10","","13","","24.1","","102.63","","","","-13","","Cloudy"
"-123.18","49.19","VANCOUVER INTL A","1108395","2022-12-20 23:00","2022","12","20","23:00","-7.6","","-10.9","","77","","","","10","","14","","24.1","","102.69","","","","-14","","NA"
"-123.18","49.19","VANCOUVER INTL A","1108395","2022-12-21 00:00","2022","12","21","00:00","-7.7","","-10.8","","79","","","","10","","15","","24.1","","102.76","","","","-14","","NA"
"-123.18","49.19","VANCOUVER INTL A","1108395","2022-12-21 01:00","2022","12","21","01:00","-7.7","","-11.3","","76","","","","11","","15","","32.2","","102.85","","","","-14","","Cloudy"
"-123.18","49.19","VANCOUVER INTL A","1108395","2022-12-21 02:00","2022","12","21","02:00","-7.8","","-11.2","","77","","","","8","","11","","32.2","","102.93","","","","-13","","Snow"
"-123.18","49.19","VANCOUVER INTL A","1108395","2022-12-21 03:00","2022","12","21","03:00","-8.0","","-11.5","","76","","","","10","","14","","24.1","","103.03","","","","-14","","Snow"
"-123.18","49.19","VANCOUVER INTL A","1108395","2022-12-21 04:00","2022","12","21","04:00","-8.8","","-13.2","","71","","","","10","","19","","24.1","","103.09","","","","-16","","Snow"
"-123.18","49.19","VANCOUVER INTL A","1108395","2022-12-21 05:00","2022","12","21","05:00","-8.5","","-12.2","","74","","","","10","","16","","32.2","","103.19","","","","-15","","NA"
"-123.18","49.19","VANCOUVER INTL A","1108395","2022-12-21 06:00","2022","12","21","06:00","-8.5","","-13.1","","70","","","","10","","16","","32.2","","103.27","","","","-15","","NA"
"-123.18","49.19","VANCOUVER INTL A","1108395","2022-12-21 07:00","2022","12","21","07:00","-8.6","","-13.5","","68","","","","10","","20","","32.2","","103.36","","","","-16","","Cloudy"
"-123.18","49.19","VANCOUVER INTL A","1108395","2022-12-21 08:00","2022","12","21","08:00","-9.7","","-14.4","","68","","","","11","","23","","48.3","","103.40","","","","-18","","NA"
"-123.18","49.19","VANCOUVER INTL A","1108395","2022-12-21 09:00","2022","12","21","09:00","-11.0","","-15.4","","70","","","","10","","19","","48.3","","103.49","","","","-19","","NA"
"-123.18","49.19","VANCOUVER INTL A","1108395","2022-12-21 10:00","2022","12","21","10:00","-9.9","","-15.5","","64","","","","10","","17","","48.3","","103.53","","","","-17","","Mainly Clear"
"-123.18","49.19","VANCOUVER INTL A","1108395","2022-12-21 11:00","2022","12","21","11:00","-9.4","","-15.3","","63","","","","10","","17","","48.3","","103.58","","","","-16","","NA"
"-123.18","49.19","VANCOUVER INTL A","1108395","2022-12-21 12:00","2022","12","21","12:00","-7.9","","-14.4","","60","","","","11","","18","","48.3","","103.60","","","","-15","","NA"
"-123.18","49.19","VANCOUVER INTL A","1108395","2022-12-21 13:00","2022","12","21","13:00","-7.9","","-15.3","","56","","","","10","","17","","48.3","","103.60","","","","-15","","Mainly Clear"
"-123.18","49.19","VANCOUVER INTL A","1108395","2022-12-21 14:00","2022","12","21","14:00","-7.9","","-15.7","","54","","","","11","","21","","48.3","","103.60","","","","-15","","NA"
"-123.18","49.19","VANCOUVER INTL A","1108395","2022-12-21 15:00","2022","12","21","15:00","-8.6","","-16.7","","52","","","","10","","19","","48.3","","103.65","","","","-16","","NA"
"-123.18","49.19","VANCOUVER INTL A","1108395","2022-12-21 16:00","2022","12","21","16:00","-8.7","","-17.3","","50","","","","10","","17","","48.3","","103.71","","","","-16","","Mostly Cloudy"
"-123.18","49.19","VANCOUVER INTL A","1108395","2022-12-21 17:00","2022","12","21","17:00","-10.7","","-17.9","","56","","","","10","","17","","32.2","","103.77","","","","-18","","NA"
"-123.18","49.19","VANCOUVER INTL A","1108395","2022-12-21 18:00","2022","12","21","18:00","-11.2","","-17.7","","59","","","","10","","22","","32.2","","103.75","","","","-20","","NA"
"-123.18","49.19","VANCOUVER INTL A","1108395","2022-12-21 19:00","2022","12","21","19:00","-11.7","","-18.0","","60","","","","10","","21","","32.2","","103.77","","","","-20","","Mainly Clear"
"-123.18","49.19","VANCOUVER INTL A","1108395","2022-12-21 20:00","2022","12","21","20:00","-9.0","","-17.6","","50","","","","8","","19","","32.2","","103.74","","","","-16","","NA"
"-123.18","49.19","VANCOUVER INTL A","1108395","2022-12-21 21:00","2022","12","21","21:00","-9.0","","-17.8","","49","","","","6","","15","","32.2","","103.75","","","","-16","","NA"
"-123.18","49.19","VANCOUVER INTL A","1108395","2022-12-21 22:00","2022","12","21","22:00","-12.9","","-19.1","","60","","","","11","","15","","32.2","","103.77","","","","-20","","Mainly Clear"
"-123.18","49.19","VANCOUVER INTL A","1108395","2022-12-21 23:00","2022","12","21","23:00","-9.2","","-18.0","","49","","","","6","","14","","32.2","","103.80","","","","-16","","NA"
"-123.18","49.19","VANCOUVER INTL A","1108395","2022-12-22 00:00","2022","12","22","00:00","-10.9","","-16.6","","63","","","","2","","10","","32.2","","103.81","","","","-16","","NA"
"-123.18","49.19","VANCOUVER INTL A","1108395","2022-12-22 01:00","2022","12","22","01:00","-11.6","","-17.3","","63","","","","10","","14","","32.2","","103.74","","","","-18","","Mainly Clear"
"-123.18","49.19","VANCOUVER INTL A","1108395","2022-12-22 02:00","2022","12","22","02:00","-11.8","","-16.6","","68","","","","10","","14","","32.2","","103.69","","","","-19","","NA"
"-123.18","49.19","VANCOUVER INTL A","1108395","2022-12-22 03:00","2022","12","22","03:00","-10.8","","-15.8","","67","","","","15","","15","","32.2","","103.66","","","","-18","","NA"
"-123.18","49.19","VANCOUVER INTL A","1108395","2022-12-22 04:00","2022","12","22","04:00","-9.8","","-17.0","","56","","","","14","","8","","32.2","","103.57","","","","-14","","Cloudy"
"-123.18","49.19","VANCOUVER INTL A","1108395","2022-12-22 05:00","2022","12","22","05:00","-11.4","","-18.1","","58","","","","13","","16","","32.2","","103.52","","","","-19","","NA"
"-123.18","49.19","VANCOUVER INTL A","1108395","2022-12-22 06:00","2022","12","22","06:00","-13.2","","-19.1","","62","","","","11","","12","","32.2","","103.44","","","","-20","","NA"
"-123.18","49.19","VANCOUVER INTL A","1108395","2022-12-22 07:00","2022","12","22","07:00","-12.4","","-18.9","","59","","","","10","","21","","32.2","","103.38","","","","-21","","Mainly Clear"
"-123.18","49.19","VANCOUVER INTL A","1108395","2022-12-22 08:00","2022","12","22","08:00","-12.8","","-19.0","","60","","","","10","","18","","32.2","","103.29","","","","-21","","NA"
"-123.18","49.19","VANCOUVER INTL A","1108395","2022-12-22 09:00","2022","12","22","09:00","-11.1","","-17.4","","60","","","","10","","17","","32.2","","103.29","","","","-19","","NA"
"-123.18","49.19","VANCOUVER INTL A","1108395","2022-12-22 10:00","2022","12","22","10:00","-10.6","","-18.1","","55","","","","10","","20","","32.2","","103.23","","","","-19","","Mostly Cloudy"
"-123.18","49.19","VANCOUVER INTL A","1108395","2022-12-22 11:00","2022","12","22","11:00","-9.9","","-17.6","","54","","","","10","","18","","32.2","","103.19","","","","-17","","NA"
"-123.18","49.19","VANCOUVER INTL A","1108395","2022-12-22 12:00","2022","12","22","12:00","-9.3","","-16.6","","56","","","","10","","15","","32.2","","103.09","","","","-16","","NA"
"-123.18","49.19","VANCOUVER INTL A","1108395","2022-12-22 13:00","2022","12","22","13:00","-8.5","","-15.9","","56","","","","10","","18","","32.2","","102.97","","","","-16","","Mostly Cloudy"
"-123.18","49.19","VANCOUVER INTL A","1108395","2022-12-22 14:00","2022","12","22","14:00","-8.1","","-15.2","","57","","","","9","","15","","32.2","","102.86","","","","-14","","NA"
"-123.18","49.19","VANCOUVER INTL A","1108395","2022-12-22 15:00","2022","12","22","15:00","-7.7","","-15.5","","54","","","","11","","15","","32.2","","102.77","","","","-14","","NA"
"-123.18","49.19","VANCOUVER INTL A","1108395","2022-12-22 16:00","2022","12","22","16:00","-7.8","","-14.7","","58","","","","9","","11","","24.1","","102.70","","","","-13","","Cloudy"
"-123.18","49.19","VANCOUVER INTL A","1108395","2022-12-22 17:00","2022","12","22","17:00","-7.4","","-15.0","","55","","","","11","","8","","24.1","","102.64","","","","-11","","NA"
"-123.18","49.19","VANCOUVER INTL A","1108395","2022-12-22 18:00","2022","12","22","18:00","-7.5","","-14.3","","58","","","","11","","12","","24.1","","102.58","","","","-13","","NA"
"-123.18","49.19","VANCOUVER INTL A","1108395","2022-12-22 19:00","2022","12","22","19:00","-7.5","","-13.7","","61","","","","10","","14","","24.1","","102.48","","","","-13","","Cloudy"
"-123.18","49.19","VANCOUVER INTL A","1108395","2022-12-22 20:00","2022","12","22","20:00","-7.4","","-15.0","","55","","","","11","","16","","24.1","","102.42","","","","-14","","NA"
"-123.18","49.19","VANCOUVER INTL A","1108395","2022-12-22 21:00","2022","12","22","21:00","-7.2","","-14.4","","57","","","","9","","15","","24.1","","102.33","","","","-13","","NA"
"-123.18","49.19","VANCOUVER INTL A","1108395","2022-12-22 22:00","2022","12","22","22:00","-6.8","","-11.8","","68","","","","10","","10","","24.1","","102.25","","","","-11","","Cloudy"
"-123.18","49.19","VANCOUVER INTL A","1108395","2022-12-22 23:00","2022","12","22","23:00","-7.1","","-13.0","","63","","","","11","","12","","19.3","","102.17","","","","-12","","Snow"
"-123.18","49.19","VANCOUVER INTL A","1108395","2022-12-23 00:00","2022","12","23","00:00","-7.5","","-11.7","","72","","","","10","","10","","4.8","","102.06","","","","-12","","Snow"
"-123.18","49.19","VANCOUVER INTL A","1108395","2022-12-23 01:00","2022","12","23","01:00","-7.9","","-9.1","","91","","","","10","","13","","3.6","","101.88","","","","-14","","Snow"
"-123.18","49.19","VANCOUVER INTL A","1108395","2022-12-23 02:00","2022","12","23","02:00","-7.5","","-8.7","","91","","","","7","","11","","4.8","","101.75","","","","-13","","Snow,Ice Pellets"
"-123.18","49.19","VANCOUVER INTL A","1108395","2022-12-23 03:00","2022","12","23","03:00","-7.0","","-8.0","","93","","","","10","","13","","8.1","","101.60","","","","-13","","Snow,Ice Pellets"
"-123.18","49.19","VANCOUVER INTL A","1108395","2022-12-23 04:00","2022","12","23","04:00","-6.9","","-7.8","","93","","","","10","","9","","4.8","","101.48","","","","-11","","Snow,Ice Pellets"
"-123.18","49.19","VANCOUVER INTL A","1108395","2022-12-23 05:00","2022","12","23","05:00","-6.5","","-7.2","","95","","","","9","","10","","4.8","","101.38","","","","-11","","Snow,Ice Pellets"
"-123.18","49.19","VANCOUVER INTL A","1108395","2022-12-23 06:00","2022","12","23","06:00","-6.3","","-7.0","","95","","","","8","","10","","2.0","","101.32","","","","-11","","Snow,Ice Pellets"
"-123.18","49.19","VANCOUVER INTL A","1108395","2022-12-23 07:00","2022","12","23","07:00","-6.1","","-6.5","","97","","","","8","","8","","1.6","","101.36","","","","-10","","Snow"
"-123.18","49.19","VANCOUVER INTL A","1108395","2022-12-23 08:00","2022","12","23","08:00","-5.6","","-6.0","","97","","","","8","","13","","1.6","","101.38","","","","-11","","Snow"
"-123.18","49.19","VANCOUVER INTL A","1108395","2022-12-23 09:00","2022","12","23","09:00","-5.2","","-5.5","","98","","","","9","","10","","2.4","","101.42","","","","-10","","Ice Pellets"
"-123.18","49.19","VANCOUVER INTL A","1108395","2022-12-23 10:00","2022","12","23","10:00","-4.2","","-4.4","","99","","","","9","","12","","4.0","","101.48","","","","-9","","Ice Pellets"
"-123.18","49.19","VANCOUVER INTL A","1108395","2022-12-23 11:00","2022","12","23","11:00","-3.0","","-3.0","","100","","","","10","","13","","3.2","","101.52","","","","-8","","Freezing Rain,Fog"
"-123.18","49.19","VANCOUVER INTL A","1108395","2022-12-23 12:00","2022","12","23","12:00","-2.0","","-2.0","","100","","","","11","","18","","4.0","","101.52","","","","-7","","Freezing Rain,Fog"
"-123.18","49.19","VANCOUVER INTL A","1108395","2022-12-23 13:00","2022","12","23","13:00","-1.5","","-1.5","","100","","","","8","","15","","4.8","","101.54","","","","-6","","Freezing Rain,Fog"
"-123.18","49.19","VANCOUVER INTL A","1108395","2022-12-23 14:00","2022","12","23","14:00","-0.6","","-0.6","","100","","","","10","","11","","4.0","","101.55","","","","-4","","Freezing Rain,Fog"
"-123.18","49.19","VANCOUVER INTL A","1108395","2022-12-23 15:00","2022","12","23","15:00","-0.1","","-0.1","","100","","","","10","","9","","4.0","","101.64","","","","-3","","Rain,Fog"
"-123.18","49.19","VANCOUVER INTL A","1108395","2022-12-23 16:00","2022","12","23","16:00","0.2","","0.2","","100","","","","10","","15","","4.8","","101.73","","","","","","Rain,Fog"
"-123.18","49.19","VANCOUVER INTL A","1108395","2022-12-23 17:00","2022","12","23","17:00","0.4","","0.4","","100","","","","8","","11","","4.8","","101.81","","","","","","Rain,Fog"
"-123.18","49.19","VANCOUVER INTL A","1108395","2022-12-23 18:00","2022","12","23","18:00","0.5","","0.5","","100","","","","8","","13","","9.7","","101.85","","","","","","Rain,Fog"
"-123.18","49.19","VANCOUVER INTL A","1108395","2022-12-23 19:00","2022","12","23","19:00","0.8","","0.8","","100","","","","10","","12","","16.1","","101.90","","","","","","Cloudy"
"-123.18","49.19","VANCOUVER INTL A","1108395","2022-12-23 20:00","2022","12","23","20:00","0.8","","0.8","","100","","","","8","","17","","16.1","","101.88","","","","","","Rain"
"-123.18","49.19","VANCOUVER INTL A","1108395","2022-12-23 21:00","2022","12","23","21:00","1.0","","1.0","","100","","","","9","","12","","8.1","","101.85","","","","","","Rain,Fog"
"-123.18","49.19","VANCOUVER INTL A","1108395","2022-12-23 22:00","2022","12","23","22:00","1.9","","1.9","","100","","","","7","","16","","12.9","","101.82","","","","","","Rain"
"-123.18","49.19","VANCOUVER INTL A","1108395","2022-12-23 23:00","2022","12","23","23:00","1.4","","1.4","","100","","","","10","","8","","16.1","","101.84","","","","","","NA"
"-123.18","49.19","VANCOUVER INTL A","1108395","2022-12-24 00:00","2022","12","24","00:00","1.9","","1.9","","100","","","","7","","10","","12.9","","101.87","","","","","","Rain"
"-123.18","49.19","VANCOUVER INTL A","1108395","2022-12-24 01:00","2022","12","24","01:00","1.7","","1.7","","100","","","","10","","16","","16.1","","101.86","","","","","","Cloudy"
"-123.18","49.19","VANCOUVER INTL A","1108395","2022-12-24 02:00","2022","12","24","02:00","1.9","","1.9","","100","","","","7","","15","","12.9","","101.81","","","","","","Rain"
"-123.18","49.19","VANCOUVER INTL A","1108395","2022-12-24 03:00","2022","12","24","03:00","2.4","","2.4","","100","","","","9","","12","","12.9","","101.78","","","","","","Rain"
"-123.18","49.19","VANCOUVER INTL A","1108395","2022-12-24 04:00","2022","12","24","04:00","2.8","","2.8","","100","","","","9","","15","","11.3","","101.59","","","","","","Rain"
"-123.18","49.19","VANCOUVER INTL A","1108395","2022-12-24 05:00","2022","12","24","05:00","2.6","","2.6","","100","","","","9","","10","","11.3","","101.53","","","","","","Rain"
"-123.18","49.19","VANCOUVER INTL A","1108395","2022-12-24 06:00","2022","12","24","06:00","3.6","","3.6","","100","","","","7","","16","","9.7","","101.45","","","","","","Moderate Rain,Fog"
"-123.18","49.19","VANCOUVER INTL A","1108395","2022-12-24 07:00","2022","12","24","07:00","5.3","","5.3","","100","","","","7","","25","","8.1","","101.25","","","","","","Moderate Rain,Fog"
"-123.18","49.19","VANCOUVER INTL A","1108395","2022-12-24 08:00","2022","12","24","08:00","6.4","","6.4","","100","","","","8","","19","","6.4","","101.26","","","","","","Moderate Rain,Fog"
"-123.18","49.19","VANCOUVER INTL A","1108395","2022-12-24 09:00","2022","12","24","09:00","4.1","","4.1","","100","","","","10","","23","","4.8","","101.21","","","","","","Moderate Rain,Fog"
"-123.18","49.19","VANCOUVER INTL A","1108395","2022-12-24 10:00","2022","12","24","10:00","4.5","","4.5","","100","","","","9","","22","","6.4","","101.19","","","","","","Moderate Rain,Fog"
"-123.18","49.19","VANCOUVER INTL A","1108395","2022-12-24 11:00","2022","12","24","11:00","5.6","","5.6","","100","","","","9","","23","","8.1","","101.15","","","","","","Rain,Fog"
"-123.18","49.19","VANCOUVER INTL A","1108395","2022-12-24 12:00","2022","12","24","12:00","4.8","","4.8","","100","","","","9","","21","","3.2","","101.14","","","","","","Moderate Rain,Fog"
"-123.18","49.19","VANCOUVER INTL A","1108395","2022-12-24 13:00","2022","12","24","13:00","5.5","","5.5","","100","","","","8","","21","","3.2","","101.13","","","","","","Rain,Fog"
"-123.18","49.19","VANCOUVER INTL A","1108395","2022-12-24 14:00","2022","12","24","14:00","6.6","","6.6","","100","","","","11","","24","","11.3","","101.13","","","","","","NA"
"-123.18","49.19","VANCOUVER INTL A","1108395","2022-12-24 15:00","2022","12","24","15:00","5.5","","5.5","","100","","","","9","","17","","8.1","","101.21","","","","","","Rain,Fog"
"-123.18","49.19","VANCOUVER INTL A","1108395","2022-12-24 16:00","2022","12","24","16:00","6.3","","6.3","","100","","","","10","","11","","9.7","","101.37","","","","","","Rain,Fog"
"-123.18","49.19","VANCOUVER INTL A","1108395","2022-12-24 17:00","2022","12","24","17:00","5.9","","5.9","","100","","","","6","","8","","11.3","","101.49","","","","","","NA"
"-123.18","49.19","VANCOUVER INTL A","1108395","2022-12-24 18:00","2022","12","24","18:00","4.7","","4.7","","100","","","","8","","11","","11.3","","101.64","","","","","","NA"
"-123.18","49.19","VANCOUVER INTL A","1108395","2022-12-24 19:00","2022","12","24","19:00","6.1","","6.1","","100","","","","7","","14","","16.1","","101.81","","","","","","Mainly Clear"
"-123.18","49.19","VANCOUVER INTL A","1108395","2022-12-24 20:00","2022","12","24","20:00","5.7","","5.7","","100","","","","7","","14","","0.2","","101.90","","","","","","Fog"
"-123.18","49.19","VANCOUVER INTL A","1108395","2022-12-24 21:00","2022","12","24","21:00","3.9","","3.9","","100","","","","9","","16","","0.8","","102.02","","","","","","Fog"
"-123.18","49.19","VANCOUVER INTL A","1108395","2022-12-24 22:00","2022","12","24","22:00","3.2","","3.2","","100","","","","8","","8","","12.9","","102.07","","","","","","Mainly Clear"
"-123.18","49.19","VANCOUVER INTL A","1108395","2022-12-24 23:00","2022","12","24","23:00","4.5","","4.5","","100","","","","10","","13","","6.4","","102.15","","","","","","Fog"
"-123.18","49.19","VANCOUVER INTL A","1108395","2022-12-25 00:00","2022","12","25","00:00","4.2","","4.2","","100","","","","7","","11","","4.8","","102.24","","","","","","Fog"
"-123.18","49.19","VANCOUVER INTL A","1108395","2022-12-25 01:00","2022","12","25","01:00","4.7","","4.7","","100","","","","8","","8","","9.7","","102.36","","","","","","Fog"
"-123.18","49.19","VANCOUVER INTL A","1108395","2022-12-25 02:00","2022","12","25","02:00","3.4","","3.4","","100","","","","8","","12","","0.8","","102.36","","","","","","Fog"
"-123.18","49.19","VANCOUVER INTL A","1108395","2022-12-25 03:00","2022","12","25","03:00","4.6","","4.6","","100","","","","8","","15","","16.1","","102.39","","","","","","NA"
"-123.18","49.19","VANCOUVER INTL A","1108395","2022-12-25 04:00","2022","12","25","04:00","3.5","","3.5","","100","","","","9","","12","","16.1","","102.40","","","","","","Cloudy"
"-123.18","49.19","VANCOUVER INTL A","1108395","2022-12-25 05:00","2022","12","25","05:00","5.1","","5.1","","100","","","","7","","13","","8.1","","102.37","","","","","","Drizzle,Fog"
"-123.18","49.19","VANCOUVER INTL A","1108395","2022-12-25 06:00","2022","12","25","06:00","3.6","","3.6","","100","","","","10","","11","","6.4","","102.44","","","","","","Rain,Fog"
"-123.18","49.19","VANCOUVER INTL A","1108395","2022-12-25 07:00","2022","12","25","07:00","4.1","","4.1","","100","","","","9","","13","","6.4","","102.34","","","","","","Rain,Fog"
"-123.18","49.19","VANCOUVER INTL A","1108395","2022-12-25 08:00","2022","12","25","08:00","4.4","","4.4","","100","","","","10","","13","","4.8","","102.38","","","","","","Rain,Fog"
"-123.18","49.19","VANCOUVER INTL A","1108395","2022-12-25 09:00","2022","12","25","09:00","5.4","","5.4","","100","","","","8","","17","","6.4","","102.32","","","","","","Rain,Fog"
"-123.18","49.19","VANCOUVER INTL A","1108395","2022-12-25 10:00","2022","12","25","10:00","4.6","","4.6","","100","","","","9","","13","","9.7","","102.30","","","","","","Rain,Fog"
"-123.18","49.19","VANCOUVER INTL A","1108395","2022-12-25 11:00","2022","12","25","11:00","5.2","","5.2","","100","","","","10","","14","","16.1","","102.21","","","","","","Rain"
"-123.18","49.19","VANCOUVER INTL A","1108395","2022-12-25 12:00","2022","12","25","12:00","6.2","","6.2","","100","","","","8","","15","","16.1","","102.12","","","","","","Rain"
"-123.18","49.19","VANCOUVER INTL A","1108395","2022-12-25 13:00","2022","12","25","13:00","8.0","","8.0","","100","","","","6","","14","","24.1","","101.98","","","","","","Cloudy"
"-123.18","49.19","VANCOUVER INTL A","1108395","2022-12-25 14:00","2022","12","25","14:00","6.6","","6.6","","100","","","","12","","19","","24.1","","101.89","","","","","","Rain"
"-123.18","49.19","VANCOUVER INTL A","1108395","2022-12-25 15:00","2022","12","25","15:00","7.1","","7.1","","100","","","","8","","22","","24.1","","101.77","","","","","","NA"
"-123.18","49.19","VANCOUVER INTL A","1108395","2022-12-25 16:00","2022","12","25","16:00","6.7","","6.7","","100","","","","10","","13","","24.1","","101.67","","","","","","Cloudy"
"-123.18","49.19","VANCOUVER INTL A","1108395","2022-12-25 17:00","2022","12","25","17:00","6.8","","6.8","","100","","","","10","","17","","24.1","","101.54","","","","","","NA"
"-123.18","49.19","VANCOUVER INTL A","1108395","2022-12-25 18:00","2022","12","25","18:00","6.6","","6.6","","100","","","","11","","19","","16.1","","101.42","","","","","","NA"
"-123.18","49.19","VANCOUVER INTL A","1108395","2022-12-25 19:00","2022","12","25","19:00","6.8","","6.8","","100","","","","13","","10","","12.9","","101.41","","","","","","Moderate Rain"
"-123.18","49.19","VANCOUVER INTL A","1108395","2022-12-25 20:00","2022","12","25","20:00","6.9","","6.9","","100","","","","9","","14","","16.1","","101.28","","","","","","Rain"
"-123.18","49.19","VANCOUVER INTL A","1108395","2022-12-25 21:00","2022","12","25","21:00","7.2","","7.2","","100","","","","8","","13","","12.9","","101.27","","","","","","Moderate Rain"
"-123.18","49.19","VANCOUVER INTL A","1108395","2022-12-25 22:00","2022","12","25","22:00","8.3","","8.3","","100","","","","9","","22","","12.9","","101.18","","","","","","Moderate Rain"
"-123.18","49.19","VANCOUVER INTL A","1108395","2022-12-25 23:00","2022","12","25","23:00","9.1","","9.1","","100","","","","9","","16","","12.9","","101.15","","","","","","Rain"
"-123.18","49.19","VANCOUVER INTL A","1108395","2022-12-26 00:00","2022","12","26","00:00","9.2","","9.2","","100","","","","8","","22","","12.9","","100.93","","","","","","Rain"
"-123.18","49.19","VANCOUVER INTL A","1108395","2022-12-26 01:00","2022","12","26","01:00","9.5","","9.5","","100","","","","9","","25","","16.1","","100.78","","","","","","Rain"
"-123.18","49.19","VANCOUVER INTL A","1108395","2022-12-26 02:00","2022","12","26","02:00","9.6","","9.6","","100","","","","8","","20","","16.1","","100.62","","","","","","Rain"
"-123.18","49.19","VANCOUVER INTL A","1108395","2022-12-26 03:00","2022","12","26","03:00","10.2","","10.2","","100","","","","8","","22","","16.1","","100.44","","","","","","Rain"
"-123.18","49.19","VANCOUVER INTL A","1108395","2022-12-26 04:00","2022","12","26","04:00","10.6","","10.6","","100","","","","11","","30","","16.1","","100.29","","","","","","Rain"
"-123.18","49.19","VANCOUVER INTL A","1108395","2022-12-26 05:00","2022","12","26","05:00","11.4","","11.4","","100","","","","12","","28","","24.1","","100.02","","","","","","NA"
"-123.18","49.19","VANCOUVER INTL A","1108395","2022-12-26 06:00","2022","12","26","06:00","11.8","","11.8","","100","","","","15","","30","","16.1","","100.14","","","","","","Moderate Rain"
"-123.18","49.19","VANCOUVER INTL A","1108395","2022-12-26 07:00","2022","12","26","07:00","11.1","","11.1","","100","","","","15","","22","","24.1","","100.20","","","","","","Rain"
"-123.18","49.19","VANCOUVER INTL A","1108395","2022-12-26 08:00","2022","12","26","08:00","10.3","","8.3","","88","","","","21","","23","","24.1","","100.25","","","","","","NA"
"-123.18","49.19","VANCOUVER INTL A","1108395","2022-12-26 09:00","2022","12","26","09:00","10.2","","7.2","","82","","","","17","","16","","40.2","","100.34","","","","","","NA"
"-123.18","49.19","VANCOUVER INTL A","1108395","2022-12-26 10:00","2022","12","26","10:00","10.7","","8.0","","83","","","","9","","26","","40.2","","100.48","","","","","","Mostly Cloudy"
"-123.18","49.19","VANCOUVER INTL A","1108395","2022-12-26 11:00","2022","12","26","11:00","11.8","","7.3","","74","","","","18","","21","","40.2","","100.56","","","","","","NA"
"-123.18","49.19","VANCOUVER INTL A","1108395","2022-12-26 12:00","2022","12","26","12:00","10.8","","8.5","","85","","","","11","","20","","40.2","","100.63","","","","","","NA"
"-123.18","49.19","VANCOUVER INTL A","1108395","2022-12-26 13:00","2022","12","26","13:00","10.9","","7.8","","82","","","","16","","17","","40.2","","100.57","","","","","","Mostly Cloudy"
"-123.18","49.19","VANCOUVER INTL A","1108395","2022-12-26 14:00","2022","12","26","14:00","9.9","","7.9","","87","","","","11","","17","","40.2","","100.49","","","","","","NA"
"-123.18","49.19","VANCOUVER INTL A","1108395","2022-12-26 15:00","2022","12","26","15:00","9.2","","7.8","","90","","","","11","","13","","40.2","","100.52","","","","","","NA"
"-123.18","49.19","VANCOUVER INTL A","1108395","2022-12-26 16:00","2022","12","26","16:00","8.5","","8.5","","100","","","","9","","17","","24.1","","100.36","","","","","","Cloudy"
"-123.18","49.19","VANCOUVER INTL A","1108395","2022-12-26 17:00","2022","12","26","17:00","8.6","","8.6","","100","","","","10","","25","","16.1","","100.15","","","","","","Rain"
"-123.18","49.19","VANCOUVER INTL A","1108395","2022-12-26 18:00","2022","12","26","18:00","7.9","","7.9","","100","","","","9","","14","","24.1","","99.86","","","","","","Rain"
"-123.18","49.19","VANCOUVER INTL A","1108395","2022-12-26 19:00","2022","12","26","19:00","8.1","","8.1","","100","","","","7","","16","","32.2","","99.59","","","","","","Cloudy"
"-123.18","49.19","VANCOUVER INTL A","1108395","2022-12-26 20:00","2022","12","26","20:00","8.1","","8.1","","100","","","","5","","18","","24.1","","99.33","","","","","","Rain"
"-123.18","49.19","VANCOUVER INTL A","1108395","2022-12-26 21:00","2022","12","26","21:00","7.5","","7.2","","98","","","","8","","14","","19.3","","99.02","","","","","","Rain"
"-123.18","49.19","VANCOUVER INTL A","1108395","2022-12-26 22:00","2022","12","26","22:00","7.0","","7.0","","100","","","","7","","14","","16.1","","98.66","","","","","","Rain"
"-123.18","49.19","VANCOUVER INTL A","1108395","2022-12-26 23:00","2022","12","26","23:00","6.8","","6.8","","100","","","","9","","12","","24.1","","98.32","","","","","","Rain"
"-123.18","49.19","VANCOUVER INTL A","1108395","2022-12-27 00:00","2022","12","27","00:00","6.6","","6.6","","100","","","","18","","8","","12.9","","98.18","","","","","","Rain"
"-123.18","49.19","VANCOUVER INTL A","1108395","2022-12-27 01:00","2022","12","27","01:00","7.0","","7.0","","100","","","","8","","16","","6.4","","98.11","","","","","","Moderate Rain"
"-123.18","49.19","VANCOUVER INTL A","1108395","2022-12-27 02:00","2022","12","27","02:00","7.1","","7.1","","100","","","","6","","21","","24.1","","98.06","","","","","","NA"
"-123.18","49.19","VANCOUVER INTL A","1108395","2022-12-27 03:00","2022","12","27","03:00","8.2","","8.2","","100","","","","8","","19","","24.1","","97.97","","","","","","NA"
"-123.18","49.19","VANCOUVER INTL A","1108395","2022-12-27 04:00","2022","12","27","04:00","9.8","","9.5","","98","","","","8","","20","","24.1","","97.77","","","","","","Rain"
"-123.18","49.19","VANCOUVER INTL A","1108395","2022-12-27 05:00","2022","12","27","05:00","8.7","","8.7","","100","","","","9","","25","","24.1","","97.65","","","","","","Rain"
"-123.18","49.19","VANCOUVER INTL A","1108395","2022-12-27 06:00","2022","12","27","06:00","8.5","","8.5","","100","","","","9","","19","","24.1","","97.57","","","","","","Rain"
"-123.18","49.19","VANCOUVER INTL A","1108395","2022-12-27 07:00","2022","12","27","07:00","8.7","","8.7","","100","","","","8","","29","","24.1","","97.53","","","","","","Cloudy"
"-123.18","49.19","VANCOUVER INTL A","1108395","2022-12-27 08:00","2022","12","27","08:00","8.7","","8.7","","100","","","","9","","25","","24.1","","97.56","","","","","","Rain"
"-123.18","49.19","VANCOUVER INTL A","1108395","2022-12-27 09:00","2022","12","27","09:00","8.7","","8.7","","100","","","","10","","28","","32.2","","97.64","","","","","","Rain"
"-123.18","49.19","VANCOUVER INTL A","1108395","2022-12-27 10:00","2022","12","27","10:00","8.7","","8.7","","100","","","","8","","26","","9.7","","97.74","","","","","","Moderate Rain,Fog"
"-123.18","49.19","VANCOUVER INTL A","1108395","2022-12-27 11:00","2022","12","27","11:00","8.6","","8.6","","100","","","","8","","24","","9.7","","97.80","","","","","","Moderate Rain,Fog"
"-123.18","49.19","VANCOUVER INTL A","1108395","2022-12-27 12:00","2022","12","27","12:00","8.8","","8.8","","100","","","","10","","19","","9.7","","97.84","","","","","","Rain,Fog"
"-123.18","49.19","VANCOUVER INTL A","1108395","2022-12-27 13:00","2022","12","27","13:00","8.7","","8.7","","100","","","","9","","21","","4.8","","97.92","","","","","","Rain,Fog"
"-123.18","49.19","VANCOUVER INTL A","1108395","2022-12-27 14:00","2022","12","27","14:00","8.9","","8.9","","100","","","","10","","21","","12.9","","97.99","","","","","","Rain"
"-123.18","49.19","VANCOUVER INTL A","1108395","2022-12-27 15:00","2022","12","27","15:00","7.4","","7.4","","100","","","","18","","7","","9.7","","98.15","","","","","","Rain,Fog"
"-123.18","49.19","VANCOUVER INTL A","1108395","2022-12-27 16:00","2022","12","27","16:00","6.8","","6.8","","100","","","","28","","10","","9.7","","98.33","","","","","","Rain,Fog"
"-123.18","49.19","VANCOUVER INTL A","1108395","2022-12-27 17:00","2022","12","27","17:00","6.6","","6.6","","100","","","","28","","17","","9.7","","98.48","","","","","","Rain,Fog"
"-123.18","49.19","VANCOUVER INTL A","1108395","2022-12-27 18:00","2022","12","27","18:00","6.5","","6.5","","100","","","","29","","19","","9.7","","98.63","","","","","","Rain,Fog"
"-123.18","49.19","VANCOUVER INTL A","1108395","2022-12-27 19:00","2022","12","27","19:00","6.5","","6.5","","100","","","","29","","21","","4.0","","98.74","","","","","","Rain,Fog"
"-123.18","49.19","VANCOUVER INTL A","1108395","2022-12-27 20:00","2022","12","27","20:00","6.5","","6.5","","100","","","","28","","24","","6.4","","98.88","","","","","","Rain,Fog"
"-123.18","49.19","VANCOUVER INTL A","1108395","2022-12-27 21:00","2022","12","27","21:00","6.5","","6.5","","100","","","","26","","27","","9.7","","99.04","","","","","","Rain,Fog"
"-123.18","49.19","VANCOUVER INTL A","1108395","2022-12-27 22:00","2022","12","27","22:00","6.5","","6.5","","100","","","","25","","27","","12.9","","99.23","","","","","","Rain"
"-123.18","49.19","VANCOUVER INTL A","1108395","2022-12-27 23:00","2022","12","27","23:00","6.4","","6.4","","100","","","","25","","23","","19.3","","99.42","","","","","","Rain"
"-123.18","49.19","VANCOUVER INTL A","1108395","2022-12-28 00:00","2022","12","28","00:00","6.1","","6.1","","100","","","","23","","17","","12.9","","99.61","","","","","","Rain"
"-123.18","49.19","VANCOUVER INTL A","1108395","2022-12-28 01:00","2022","12","28","01:00","5.9","","5.9","","100","","","","22","","7","","16.1","","99.73","","","","","","Rain"
"-123.18","49.19","VANCOUVER INTL A","1108395","2022-12-28 02:00","2022","12","28","02:00","5.7","","5.7","","100","","","","22","","8","","16.1","","99.86","","","","","","Rain"
"-123.18","49.19","VANCOUVER INTL A","1108395","2022-12-28 03:00","2022","12","28","03:00","5.8","","5.8","","100","","","","18","","5","","19.3","","100.01","","","","","","Rain"
"-123.18","49.19","VANCOUVER INTL A","1108395","2022-12-28 04:00","2022","12","28","04:00","5.7","","5.7","","100","","","","13","","5","","24.1","","100.09","","","","","","Cloudy"
"-123.18","49.19","VANCOUVER INTL A","1108395","2022-12-28 05:00","2022","12","28","05:00","5.7","","5.7","","100","","","","11","","6","","24.1","","100.17","","","","","","NA"
"-123.18","49.19","VANCOUVER INTL A","1108395","2022-12-28 06:00","2022","12","28","06:00","4.7","","4.7","","100","","","","10","","8","","24.1","","100.25","","","","","","NA"
"-123.18","49.19","VANCOUVER INTL A","1108395","2022-12-28 07:00","2022","12","28","07:00","4.3","","4.3","","100","","","","10","","10","","24.1","","100.33","","","","","","Mostly Cloudy"
"-123.18","49.19","VANCOUVER INTL A","1108395","2022-12-28 08:00","2022","12","28","08:00","3.6","","3.6","","100","","","","16","","8","","32.2","","100.43","","","","","","NA"
"-123.18","49.19","VANCOUVER INTL A","1108395","2022-12-28 09:00","2022","12","28","09:00","5.7","","4.7","","93","","","","19","","6","","32.2","","100.53","","","","","","NA"
"-123.18","49.19","VANCOUVER INTL A","1108395","2022-12-28 10:00","2022","12","28","10:00","6.4","","4.1","","86","","","","23","","19","","40.2","","100.64","","","","","","Mostly Cloudy"
"-123.18","49.19","VANCOUVER INTL A","1108395","2022-12-28 11:00","2022","12","28","11:00","6.5","","4.2","","86","","","","19","","12","","40.2","","100.70","","","","","","NA"
"-123.18","49.19","VANCOUVER INTL A","1108395","2022-12-28 12:00","2022","12","28","12:00","7.3","","4.0","","79","","","","20","","12","","40.2","","100.72","","","","","","NA"
"-123.18","49.19","VANCOUVER INTL A","1108395","2022-12-28 13:00","2022","12","28","13:00","7.6","","3.7","","76","","","","20","","8","","48.3","","100.75","","","","","","Mainly Clear"
"-123.18","49.19","VANCOUVER INTL A","1108395","2022-12-28 14:00","2022","12","28","14:00","8.0","","2.7","","69","","","","19","","8","","48.3","","100.75","","","","","","NA"
"-123.18","49.19","VANCOUVER INTL A","1108395","2022-12-28 15:00","2022","12","28","15:00","7.6","","2.2","","69","","","","17","","8","","48.3","","100.81","","","","","","NA"
"-123.18","49.19","VANCOUVER INTL A","1108395","2022-12-28 16:00","2022","12","28","16:00","6.1","","2.9","","80","","","","15","","8","","48.3","","100.83","","","","","","Mainly Clear"
"-123.18","49.19","VANCOUVER INTL A","1108395","2022-12-28 17:00","2022","12","28","17:00","4.5","","3.4","","92","","","","14","","9","","40.2","","100.85","","","","","","NA"
"-123.18","49.19","VANCOUVER INTL A","1108395","2022-12-28 18:00","2022","12","28","18:00","3.9","","2.8","","93","","","","11","","10","","32.2","","100.88","","","","","","NA"
"-123.18","49.19","VANCOUVER INTL A","1108395","2022-12-28 19:00","2022","12","28","19:00","5.5","","4.0","","90","","","","13","","10","","32.2","","100.85","","","","","","Cloudy"
"-123.18","49.19","VANCOUVER INTL A","1108395","2022-12-28 20:00","2022","12","28","20:00","5.2","","5.0","","99","","","","7","","14","","32.2","","100.86","","","","","","NA"
"-123.18","49.19","VANCOUVER INTL A","1108395","2022-12-28 21:00","2022","12","28","21:00","5.5","","4.7","","94","","","","7","","16","","32.2","","100.83","","","","","","NA"
"-123.18","49.19","VANCOUVER INTL A","1108395","2022-12-28 22:00","2022","12","28","22:00","5.4","","4.4","","93","","","","7","","12","","32.2","","100.83","","","","","","Cloudy"
"-123.18","49.19","VANCOUVER INTL A","1108395","2022-12-28 23:00","2022","12","28","23:00","5.3","","4.1","","92","","","","6","","14","","32.2","","100.80","","","","","","NA"
"-123.18","49.19","VANCOUVER INTL A","1108395","2022-12-29 00:00","2022","12","29","00:00","4.0","","3.4","","96","","","","9","","5","","32.2","","100.78","","","","","","NA"
"-123.18","49.19","VANCOUVER INTL A","1108395","2022-12-29 01:00","2022","12","29","01:00","3.7","","3.7","","100","","","","10","","16","","32.2","","100.72","","","","","","Mostly Cloudy"
"-123.18","49.19","VANCOUVER INTL A","1108395","2022-12-29 02:00","2022","12","29","02:00","3.6","","3.6","","100","","","","10","","11","","32.2","","100.68","","","","","","NA"
"-123.18","49.19","VANCOUVER INTL A","1108395","2022-12-29 03:00","2022","12","29","03:00","3.7","","3.3","","97","","","","8","","15","","32.2","","100.58","","","","","","NA"
"-123.18","49.19","VANCOUVER INTL A","1108395","2022-12-29 04:00","2022","12","29","04:00","3.8","","3.5","","98","","","","9","","16","","32.2","","100.57","","","","","","Cloudy"
"-123.18","49.19","VANCOUVER INTL A","1108395","2022-12-29 05:00","2022","12","29","05:00","3.9","","3.5","","97","","","","9","","13","","24.1","","100.47","","","","","","Rain"
"-123.18","49.19","VANCOUVER INTL A","1108395","2022-12-29 06:00","2022","12","29","06:00","4.3","","3.8","","97","","","","8","","14","","24.1","","100.41","","","","","","Rain"
"-123.18","49.19","VANCOUVER INTL A","1108395","2022-12-29 07:00","2022","12","29","07:00","5.0","","3.7","","91","","","","5","","19","","24.1","","100.31","","","","","","Rain"
"-123.18","49.19","VANCOUVER INTL A","1108395","2022-12-29 08:00","2022","12","29","08:00","4.9","","3.7","","92","","","","7","","14","","32.2","","100.24","","","","","","Rain"
"-123.18","49.19","VANCOUVER INTL A","1108395","2022-12-29 09:00","2022","12","29","09:00","4.5","","4.2","","97","","","","10","","12","","32.2","","100.24","","","","","","NA"
"-123.18","49.19","VANCOUVER INTL A","1108395","2022-12-29 10:00","2022","12","29","10:00","5.0","","4.2","","95","","","","11","","14","","32.2","","100.24","","","","","","Rain"
"-123.18","49.19","VANCOUVER INTL A","1108395","2022-12-29 11:00","2022","12","29","11:00","5.3","","4.3","","93","","","","9","","15","","32.2","","100.23","","","","","","NA"
"-123.18","49.19","VANCOUVER INTL A","1108395","2022-12-29 12:00","2022","12","29","12:00","5.7","","4.5","","92","","","","11","","16","","24.1","","100.23","","","","","","Rain"
"-123.18","49.19","VANCOUVER INTL A","1108395","2022-12-29 13:00","2022","12","29","13:00","5.6","","4.6","","94","","","","6","","20","","8.1","","100.20","","","","","","Rain,Fog"
"-123.18","49.19","VANCOUVER INTL A","1108395","2022-12-29 14:00","2022","12","29","14:00","6.0","","4.7","","91","","","","7","","18","","8.1","","100.20","","","","","","Rain,Fog"
"-123.18","49.19","VANCOUVER INTL A","1108395","2022-12-29 15:00","2022","12","29","15:00","5.3","","4.6","","95","","","","7","","22","","8.1","","100.19","","","","","","Rain,Fog"
"-123.18","49.19","VANCOUVER INTL A","1108395","2022-12-29 16:00","2022","12","29","16:00","5.5","","5.0","","96","","","","7","","18","","24.1","","100.16","","","","","","Rain"
"-123.18","49.19","VANCOUVER INTL A","1108395","2022-12-29 17:00","2022","12","29","17:00","5.4","","4.9","","97","","","","8","","15","","16.1","","100.14","","","","","","Rain"
"-123.18","49.19","VANCOUVER INTL A","1108395","2022-12-29 18:00","2022","12","29","18:00","5.2","","5.2","","100","","","","9","","17","","16.1","","100.11","","","","","","Rain"
"-123.18","49.19","VANCOUVER INTL A","1108395","2022-12-29 19:00","2022","12","29","19:00","5.2","","5.2","","100","","","","9","","20","","16.1","","100.06","","","","","","Cloudy"
"-123.18","49.19","VANCOUVER INTL A","1108395","2022-12-29 20:00","2022","12","29","20:00","5.4","","5.4","","100","","","","7","","16","","16.1","","100.00","","","","","","NA"
"-123.18","49.19","VANCOUVER INTL A","1108395","2022-12-29 21:00","2022","12","29","21:00","5.8","","5.7","","99","","","","8","","16","","16.1","","99.93","","","","","","NA"
"-123.18","49.19","VANCOUVER INTL A","1108395","2022-12-29 22:00","2022","12","29","22:00","6.5","","5.4","","93","","","","5","","18","","19.3","","99.77","","","","","","Cloudy"
"-123.18","49.19","VANCOUVER INTL A","1108395","2022-12-29 23:00","2022","12","29","23:00","6.3","","5.5","","94","","","","6","","14","","19.3","","99.64","","","","","","NA"
"-123.18","49.19","VANCOUVER INTL A","1108395","2022-12-30 00:00","2022","12","30","00:00","5.5","","5.5","","100","","","","9","","18","","16.1","","99.53","","","","","","Rain"
"-123.18","49.19","VANCOUVER INTL A","1108395","2022-12-30 01:00","2022","12","30","01:00","5.2","","5.2","","100","","","","9","","18","","19.3","","99.44","","","","","","Rain"
"-123.18","49.19","VANCOUVER INTL A","1108395","2022-12-30 02:00","2022","12","30","02:00","5.2","","5.2","","100","","","","7","","18","","12.9","","99.41","","","","","","Moderate Rain"
"-123.18","49.19","VANCOUVER INTL A","1108395","2022-12-30 03:00","2022","12","30","03:00","6.2","","6.2","","100","","","","7","","19","","16.1","","99.42","","","","","","Rain"
"-123.18","49.19","VANCOUVER INTL A","1108395","2022-12-30 04:00","2022","12","30","04:00","6.2","","6.2","","100","","","","6","","14","","16.1","","99.41","","","","","","Rain"
"-123.18","49.19","VANCOUVER INTL A","1108395","2022-12-30 05:00","2022","12","30","05:00","5.4","","5.4","","100","","","","8","","12","","16.1","","99.45","","","","","","Rain"
"-123.18","49.19","VANCOUVER INTL A","1108395","2022-12-30 06:00","2022","12","30","06:00","5.2","","5.2","","100","","","","10","","20","","6.4","","99.52","","","","","","Rain,Drizzle,Fog"
"-123.18","49.19","VANCOUVER INTL A","1108395","2022-12-30 07:00","2022","12","30","07:00","5.3","","5.3","","100","","","","8","","20","","8.1","","99.51","","","","","","Rain,Fog"
"-123.18","49.19","VANCOUVER INTL A","1108395","2022-12-30 08:00","2022","12","30","08:00","5.6","","5.6","","100","","","","9","","18","","11.3","","99.56","","","","","","NA"
"-123.18","49.19","VANCOUVER INTL A","1108395","2022-12-30 09:00","2022","12","30","09:00","6.2","","6.2","","100","","","","9","","15","","9.7","","99.63","","","","","","Rain,Fog"
"-123.18","49.19","VANCOUVER INTL A","1108395","2022-12-30 10:00","2022","12","30","10:00","7.7","","7.7","","100","","","","14","","21","","9.7","","99.65","","","","","","Rain,Fog"
"-123.18","49.19","VANCOUVER INTL A","1108395","2022-12-30 11:00","2022","12","30","11:00","8.4","","8.4","","100","","","","15","","20","","16.1","","99.68","","","","","","NA"
"-123.18","49.19","VANCOUVER INTL A","1108395","2022-12-30 12:00","2022","12","30","12:00","8.9","","8.3","","96","","","","15","","25","","16.1","","99.69","","","","","","Rain"
"-123.18","49.19","VANCOUVER INTL A","1108395","2022-12-30 13:00","2022","12","30","13:00","9.7","","8.3","","91","","","","16","","26","","16.1","","99.68","","","","","","Mostly Cloudy"
"-123.18","49.19","VANCOUVER INTL A","1108395","2022-12-30 14:00","2022","12","30","14:00","10.3","","7.1","","80","","","","15","","28","","24.1","","99.68","","","","","","NA"
"-123.18","49.19","VANCOUVER INTL A","1108395","2022-12-30 15:00","2022","12","30","15:00","9.7","","7.4","","85","","","","12","","20","","24.1","","99.68","","","","","","NA"
"-123.18","49.19","VANCOUVER INTL A","1108395","2022-12-30 16:00","2022","12","30","16:00","9.0","","6.8","","86","","","","13","","23","","24.1","","99.73","","","","","","Mostly Cloudy"
"-123.18","49.19","VANCOUVER INTL A","1108395","2022-12-30 17:00","2022","12","30","17:00","8.5","","5.6","","82","","","","17","","26","","24.1","","99.76","","","","","","NA"
"-123.18","49.19","VANCOUVER INTL A","1108395","2022-12-30 18:00","2022","12","30","18:00","8.1","","6.2","","88","","","","15","","18","","24.1","","99.76","","","","","","NA"
"-123.18","49.19","VANCOUVER INTL A","1108395","2022-12-30 19:00","2022","12","30","19:00","8.2","","6.0","","86","","","","13","","17","","24.1","","99.77","","","","","","Cloudy"
"-123.18","49.19","VANCOUVER INTL A","1108395","2022-12-30 20:00","2022","12","30","20:00","8.1","","6.8","","92","","","","12","","21","","24.1","","99.80","","","","","","NA"
"-123.18","49.19","VANCOUVER INTL A","1108395","2022-12-30 21:00","2022","12","30","21:00","7.9","","7.3","","95","","","","12","","19","","16.1","","99.83","","","","","","Rain Showers"
"-123.18","49.19","VANCOUVER INTL A","1108395","2022-12-30 22:00","2022","12","30","22:00","7.8","","7.5","","99","","","","15","","21","","19.3","","99.88","","","","","","Rain"
"-123.18","49.19","VANCOUVER INTL A","1108395","2022-12-30 23:00","2022","12","30","23:00","7.6","","7.6","","100","","","","16","","20","","19.3","","99.94","","","","","","Rain"
"-123.18","49.19","VANCOUVER INTL A","1108395","2022-12-31 00:00","2022","12","31","00:00","7.5","","7.5","","100","","","","15","","21","","19.3","","100.01","","","","","","Rain"
"-123.18","49.19","VANCOUVER INTL A","1108395","2022-12-31 01:00","2022","12","31","01:00","7.2","","7.2","","100","","","","15","","14","","19.3","","100.04","","","","","","Rain"
"-123.18","49.19","VANCOUVER INTL A","1108395","2022-12-31 02:00","2022","12","31","02:00","7.1","","7.0","","99","","","","17","","18","","19.3","","100.10","","","","","","Rain"
"-123.18","49.19","VANCOUVER INTL A","1108395","2022-12-31 03:00","2022","12","31","03:00","6.8","","6.3","","97","","","","17","","17","","19.3","","100.19","","","","","","NA"
"-123.18","49.19","VANCOUVER INTL A","1108395","2022-12-31 04:00","2022","12","31","04:00","6.2","","6.0","","98","","","","15","","9","","24.1","","100.26","","","","","","Mostly Cloudy"
"-123.18","49.19","VANCOUVER INTL A","1108395","2022-12-31 05:00","2022","12","31","05:00","6.2","","5.9","","98","","","","7","","9","","24.1","","100.33","","","","","","NA"
"-123.18","49.19","VANCOUVER INTL A","1108395","2022-12-31 06:00","2022","12","31","06:00","6.2","","6.2","","100","","","","8","","9","","24.1","","100.44","","","","","","NA"
"-123.18","49.19","VANCOUVER INTL A","1108395","2022-12-31 07:00","2022","12","31","07:00","6.0","","6.0","","100","","","","9","","7","","24.1","","100.53","","","","","","Mostly Cloudy"
"-123.18","49.19","VANCOUVER INTL A","1108395","2022-12-31 08:00","2022","12","31","08:00","6.5","","6.2","","98","","","","7","","8","","24.1","","100.60","","","","","","NA"
"-123.18","49.19","VANCOUVER INTL A","1108395","2022-12-31 09:00","2022","12","31","09:00","7.7","","6.7","","93","","","","13","","9","","24.1","","100.69","","","","","","NA"
"-123.18","49.19","VANCOUVER INTL A","1108395","2022-12-31 10:00","2022","12","31","10:00","7.9","","7.7","","98","","","","13","","9","","24.1","","100.80","","","","","","Mostly Cloudy"
"-123.18","49.19","VANCOUVER INTL A","1108395","2022-12-31 11:00","2022","12","31","11:00","8.8","","8.2","","96","","","","17","","20","","24.1","","100.85","","","","","","NA"
"-123.18","49.19","VANCOUVER INTL A","1108395","2022-12-31 12:00","2022","12","31","12:00","8.7","","7.7","","93","","","","16","","15","","24.1","","100.88","","","","","","NA"
"-123.18","49.19","VANCOUVER INTL A","1108395","2022-12-31 13:00","2022","12","31","13:00","8.7","","7.0","","89","","","","15","","4","","24.1","","100.91","","","","","","Mostly Cloudy"
"-123.18","49.19","VANCOUVER INTL A","1108395","2022-12-31 14:00","2022","12","31","14:00","9.4","","6.6","","82","","","","8","","5","","24.1","","100.94","","","","","","NA"
"-123.18","49.19","VANCOUVER INTL A","1108395","2022-12-31 15:00","2022","12","31","15:00","9.4","","6.9","","84","","","","6","","5","","24.1","","101.00","","","","","","NA"
"-123.18","49.19","VANCOUVER INTL A","1108395","2022-12-31 16:00","2022","12","31","16:00","8.5","","6.5","","87","","","","5","","7","","24.1","","101.10","","","","","","Mostly Cloudy"
"-123.18","49.19","VANCOUVER INTL A","1108395","2022-12-31 17:00","2022","12","31","17:00","6.7","","5.9","","95","","","","23","","4","","24.1","","101.16","","","","","","NA"
"-123.18","49.19","VANCOUVER INTL A","1108395","2022-12-31 18:00","2022","12","31","18:00","4.3","","4.3","","100","","","","30","","9","","24.1","","101.23","","","","","","NA"
"-123.18","49.19","VANCOUVER INTL A","1108395","2022-12-31 19:00","2022","12","31","19:00","4.6","","4.6","","100","","","","36","","3","","24.1","","101.29","","","","","","Mainly Clear"
"-123.18","49.19","VANCOUVER INTL A","1108395","2022-12-31 20:00","2022","12","31","20:00","4.1","","4.1","","100","","","","29","","10","","24.1","","101.39","","","","","","NA"
"-123.18","49.19","VANCOUVER INTL A","1108395","2022-12-31 21:00","2022","12","31","21:00","4.8","","4.8","","100","","","","36","","1","","24.1","","101.47","","","","","","NA"
"-123.18","49.19","VANCOUVER INTL A","1108395","2022-12-31 22:00","2022","12","31","22:00","4.6","","4.6","","100","","","","24","","10","","24.1","","101.53","","","","","","Mostly Cloudy"
"-123.18","49.19","VANCOUVER INTL A","1108395","2022-12-31 23:00","2022","12","31","23:00","5.0","","5.0","","100","","","","15","","3","","19.3","","101.60","","","","","","NA"
