"Longitude (x)","Latitude (y)","Station Name","Climate ID","Date/Time (LST)","Year","Month","Day","Time (LST)","Temp (°C)","Temp Flag","Dew Point Temp (°C)","Dew Point Temp Flag","Rel Hum (%)","Rel Hum Flag","Precip. Amount (mm)","Precip. Amount Flag","Wind Dir (10s deg)","Wind Dir Flag","Wind Spd (km/h)","Wind Spd Flag","Visibility (km)","Visibility Flag","Stn Press (kPa)","Stn Press Flag","Hmdx","Hmdx Flag","Wind Chill","Wind Chill Flag","Weather"
"-123.18","49.19","VANCOUVER INTL A","1108395","2022-10-01 00:00","2022","10","01","00:00","12.7","","12.7","","100","","","","7","","3","","24.1","","101.88","","","","","","NA"
"-123.18","49.19","VANCOUVER INTL A","1108395","2022-10-01 01:00","2022","10","01","01:00","12.1","","12.1","","100","","","","36","","1","","19.3","","101.89","","","","","","Clear"
"-123.18","49.19","VANCOUVER INTL A","1108395","2022-10-01 02:00","2022","10","01","02:00","11.3","","11.3","","100","","","","0","","1","","19.3","","101.90","","","","","","NA"
"-123.18","49.19","VANCOUVER INTL A","1108395","2022-10-01 03:00","2022","10","01","03:00","11.4","","11.4","","100","","","","36","","1","","19.3","","101.89","","","","","","NA"
"-123.18","49.19","VANCOUVER INTL A","1108395","2022-10-01 04:00","2022","10","01","04:00","10.0","","10.0","","100","","","","32","","5","","19.3","","101.88","","","","","","Clear"
"-123.18","49.19","VANCOUVER INTL A","1108395","2022-10-01 05:00","2022","10","01","05:00","10.1","","10.1","","100","","","","27","","5","","12.9","","101.88","","","","","","NA"
"-123.18","49.19","VANCOUVER INTL A","1108395","2022-10-01 06:00","2022","10","01","06:00","11.0","","11.0","","100","","","","34","","3","","16.1","","101.88","","","","","","NA"
"-123.18","49.19","VANCOUVER INTL A","1108395","2022-10-01 07:00","2022","10","01","07:00","11.4","","11.4","","100","","","","36","","3","","24.1","","101.87","","","","","","Clear"
"-123.18","49.19","VANCOUVER INTL A","1108395","2022-10-01 08:00","2022","10","01","08:00","15.1","","15.1","","100","","","","36","","2","","24.1","","101.87","","","","","","NA"
"-123.18","49.19","VANCOUVER INTL A","1108395","2022-10-01 09:00","2022","10","01","09:00","16.6","","15.1","","91","","","","28","","6","","24.1","","101.84","","","","","","NA"
"-123.18","49.19","VANCOUVER INTL A","1108395","2022-10-01 10:00","2022","10","01","10:00","17.7","","14.8","","83","","","","30","","13","","32.2","","101.80","","","","","","Clear"
"-123.18","49.19","VANCOUVER INTL A","1108395","2022-10-01 11:00","2022","10","01","11:00","18.4","","15.6","","83","","","","30","","17","","32.2","","101.75","","","","","","NA"
"-123.18","49.19","VANCOUVER INTL A","1108395","2022-10-01 12:00","2022","10","01","12:00","18.2","","16.1","","87","","","","29","","16","","32.2","","101.69","","","","","","NA"
"-123.18","49.19","VANCOUVER INTL A","1108395","2022-10-01 13:00","2022","10","01","13:00","18.7","","15.7","","82","","","","30","","15","","32.2","","101.62","","","","","","Mainly Clear"
"-123.18","49.19","VANCOUVER INTL A","1108395","2022-10-01 14:00","2022","10","01","14:00","18.9","","15.4","","80","","","","29","","17","","32.2","","101.53","","","","","","NA"
"-123.18","49.19","VANCOUVER INTL A","1108395","2022-10-01 15:00","2022","10","01","15:00","19.0","","15.6","","80","","","","29","","14","","32.2","","101.48","","","","","","NA"
"-123.18","49.19","VANCOUVER INTL A","1108395","2022-10-01 16:00","2022","10","01","16:00","18.5","","15.1","","80","","","","29","","15","","32.2","","101.42","","","","","","Mainly Clear"
"-123.18","49.19","VANCOUVER INTL A","1108395","2022-10-01 17:00","2022","10","01","17:00","17.4","","15.6","","89","","","","29","","11","","32.2","","101.37","","","","","","NA"
"-123.18","49.19","VANCOUVER INTL A","1108395","2022-10-01 18:00","2022","10","01","18:00","14.8","","14.8","","100","","","","29","","12","","32.2","","101.35","","","","","","NA"
"-123.18","49.19","VANCOUVER INTL A","1108395","2022-10-01 19:00","2022","10","01","19:00","14.8","","14.8","","100","","","","34","","8","","24.1","","101.35","","","","","","Clear"
"-123.18","49.19","VANCOUVER INTL A","1108395","2022-10-01 20:00","2022","10","01","20:00","13.4","","13.4","","100","","","","31","","7","","24.1","","101.33","","","","","","NA"
"-123.18","49.19","VANCOUVER INTL A","1108395","2022-10-01 21:00","2022","10","01","21:00","12.3","","12.3","","100","","","","36","","7","","24.1","","101.36","","","","","","NA"
"-123.18","49.19","VANCOUVER INTL A","1108395","2022-10-01 22:00","2022","10","01","22:00","13.1","","13.1","","100","","","","34","","5","","24.1","","101.36","","","","","","Clear"
"-123.18","49.19","VANCOUVER INTL A","1108395","2022-10-01 23:00","2022","10","01","23:00","12.5","","12.5","","100","","","","29","","8","","24.1","","101.38","","","","","","NA"
"-123.18","49.19","VANCOUVER INTL A","1108395","2022-10-02 00:00","2022","10","02","00:00","13.7","","13.7","","100","","","","35","","5","","24.1","","101.38","","","","","","NA"
"-123.18","49.19","VANCOUVER INTL A","1108395","2022-10-02 01:00","2022","10","02","01:00","12.7","","12.7","","100","","","","11","","4","","24.1","","101.37","","","","","","Mainly Clear"
"-123.18","49.19","VANCOUVER INTL A","1108395","2022-10-02 02:00","2022","10","02","02:00","13.0","","13.0","","100","","","","36","","2","","24.1","","101.38","","","","","","NA"
"-123.18","49.19","VANCOUVER INTL A","1108395","2022-10-02 03:00","2022","10","02","03:00","11.0","","11.0","","100","","","","36","","7","","24.1","","101.39","","","","","","NA"
"-123.18","49.19","VANCOUVER INTL A","1108395","2022-10-02 04:00","2022","10","02","04:00","10.4","","10.4","","100","","","","35","","5","","24.1","","101.40","","","","","","Clear"
"-123.18","49.19","VANCOUVER INTL A","1108395","2022-10-02 05:00","2022","10","02","05:00","12.0","","12.0","","100","","","","0","","1","","24.1","","101.44","","","","","","NA"
"-123.18","49.19","VANCOUVER INTL A","1108395","2022-10-02 06:00","2022","10","02","06:00","12.0","","12.0","","100","","","","33","","8","","24.1","","101.47","","","","","","NA"
"-123.18","49.19","VANCOUVER INTL A","1108395","2022-10-02 07:00","2022","10","02","07:00","11.6","","11.6","","100","","","","35","","5","","32.2","","101.52","","","","","","Clear"
"-123.18","49.19","VANCOUVER INTL A","1108395","2022-10-02 08:00","2022","10","02","08:00","15.8","","15.5","","98","","","","31","","3","","32.2","","101.57","","","","","","NA"
"-123.18","49.19","VANCOUVER INTL A","1108395","2022-10-02 09:00","2022","10","02","09:00","17.8","","14.4","","81","","","","32","","4","","32.2","","101.58","","","","","","NA"
"-123.18","49.19","VANCOUVER INTL A","1108395","2022-10-02 10:00","2022","10","02","10:00","17.8","","15.4","","86","","","","30","","15","","32.2","","101.60","","","","","","Clear"
"-123.18","49.19","VANCOUVER INTL A","1108395","2022-10-02 11:00","2022","10","02","11:00","18.4","","15.2","","82","","","","30","","18","","32.2","","101.58","","","","","","NA"
"-123.18","49.19","VANCOUVER INTL A","1108395","2022-10-02 12:00","2022","10","02","12:00","19.1","","14.9","","76","","","","30","","16","","32.2","","101.57","","","","","","NA"
"-123.18","49.19","VANCOUVER INTL A","1108395","2022-10-02 13:00","2022","10","02","13:00","19.1","","15.0","","77","","","","29","","16","","32.2","","101.53","","","","","","Clear"
"-123.18","49.19","VANCOUVER INTL A","1108395","2022-10-02 14:00","2022","10","02","14:00","19.1","","14.8","","76","","","","29","","14","","32.2","","101.48","","","","","","NA"
"-123.18","49.19","VANCOUVER INTL A","1108395","2022-10-02 15:00","2022","10","02","15:00","18.9","","15.1","","78","","","","28","","10","","32.2","","101.47","","","","","","NA"
"-123.18","49.19","VANCOUVER INTL A","1108395","2022-10-02 16:00","2022","10","02","16:00","18.9","","14.7","","76","","","","28","","9","","32.2","","101.45","","","","","","Clear"
"-123.18","49.19","VANCOUVER INTL A","1108395","2022-10-02 17:00","2022","10","02","17:00","17.0","","15.4","","90","","","","26","","7","","32.2","","101.43","","","","","","NA"
"-123.18","49.19","VANCOUVER INTL A","1108395","2022-10-02 18:00","2022","10","02","18:00","14.9","","14.8","","100","","","","23","","5","","32.2","","101.44","","","","","","NA"
"-123.18","49.19","VANCOUVER INTL A","1108395","2022-10-02 19:00","2022","10","02","19:00","14.3","","14.3","","100","","","","21","","5","","32.2","","101.45","","","","","","Clear"
"-123.18","49.19","VANCOUVER INTL A","1108395","2022-10-02 20:00","2022","10","02","20:00","14.6","","14.6","","100","","","","23","","5","","32.2","","101.50","","","","","","NA"
"-123.18","49.19","VANCOUVER INTL A","1108395","2022-10-02 21:00","2022","10","02","21:00","14.5","","14.5","","100","","","","36","","3","","32.2","","101.53","","","","","","NA"
"-123.18","49.19","VANCOUVER INTL A","1108395","2022-10-02 22:00","2022","10","02","22:00","13.4","","13.4","","100","","","","16","","4","","32.2","","101.56","","","","","","Mainly Clear"
"-123.18","49.19","VANCOUVER INTL A","1108395","2022-10-02 23:00","2022","10","02","23:00","13.2","","13.2","","100","","","","36","","1","","32.2","","101.60","","","","","","NA"
"-123.18","49.19","VANCOUVER INTL A","1108395","2022-10-03 00:00","2022","10","03","00:00","12.5","","12.5","","100","","","","7","","3","","32.2","","101.65","","","","","","NA"
"-123.18","49.19","VANCOUVER INTL A","1108395","2022-10-03 01:00","2022","10","03","01:00","13.8","","13.5","","98","","","","7","","3","","32.2","","101.69","","","","","","Clear"
"-123.18","49.19","VANCOUVER INTL A","1108395","2022-10-03 02:00","2022","10","03","02:00","12.2","","12.2","","100","","","","7","","8","","32.2","","101.70","","","","","","NA"
"-123.18","49.19","VANCOUVER INTL A","1108395","2022-10-03 03:00","2022","10","03","03:00","12.0","","12.0","","100","","","","8","","5","","32.2","","101.74","","","","","","NA"
"-123.18","49.19","VANCOUVER INTL A","1108395","2022-10-03 04:00","2022","10","03","04:00","11.3","","11.3","","100","","","","36","","3","","32.2","","101.75","","","","","","Mainly Clear"
"-123.18","49.19","VANCOUVER INTL A","1108395","2022-10-03 05:00","2022","10","03","05:00","10.8","","10.8","","100","","","","0","","1","","32.2","","101.76","","","","","","NA"
"-123.18","49.19","VANCOUVER INTL A","1108395","2022-10-03 06:00","2022","10","03","06:00","10.5","","10.5","","100","","","","34","","5","","32.2","","101.80","","","","","","NA"
"-123.18","49.19","VANCOUVER INTL A","1108395","2022-10-03 07:00","2022","10","03","07:00","11.2","","11.2","","100","","","","2","","3","","40.2","","101.83","","","","","","Mainly Clear"
"-123.18","49.19","VANCOUVER INTL A","1108395","2022-10-03 08:00","2022","10","03","08:00","15.1","","15.1","","100","","","","36","","1","","40.2","","101.86","","","","","","NA"
"-123.18","49.19","VANCOUVER INTL A","1108395","2022-10-03 09:00","2022","10","03","09:00","17.0","","15.2","","89","","","","23","","8","","48.3","","101.87","","","","","","NA"
"-123.18","49.19","VANCOUVER INTL A","1108395","2022-10-03 10:00","2022","10","03","10:00","17.5","","14.5","","82","","","","26","","9","","40.2","","101.87","","","","","","Mainly Clear"
"-123.18","49.19","VANCOUVER INTL A","1108395","2022-10-03 11:00","2022","10","03","11:00","18.6","","13.1","","70","","","","28","","8","","40.2","","101.86","","","","","","NA"
"-123.18","49.19","VANCOUVER INTL A","1108395","2022-10-03 12:00","2022","10","03","12:00","19.2","","15.3","","78","","","","27","","10","","40.2","","101.83","","","","","","NA"
"-123.18","49.19","VANCOUVER INTL A","1108395","2022-10-03 13:00","2022","10","03","13:00","19.8","","14.1","","69","","","","28","","12","","40.2","","101.78","","","","","","Clear"
"-123.18","49.19","VANCOUVER INTL A","1108395","2022-10-03 14:00","2022","10","03","14:00","20.1","","13.3","","64","","","","28","","9","","40.2","","101.73","","","","","","NA"
"-123.18","49.19","VANCOUVER INTL A","1108395","2022-10-03 15:00","2022","10","03","15:00","20.8","","12.0","","57","","","","30","","7","","48.3","","101.68","","","","","","NA"
"-123.18","49.19","VANCOUVER INTL A","1108395","2022-10-03 16:00","2022","10","03","16:00","20.7","","11.8","","56","","","","32","","6","","48.3","","101.63","","","","","","Clear"
"-123.18","49.19","VANCOUVER INTL A","1108395","2022-10-03 17:00","2022","10","03","17:00","18.4","","13.6","","73","","","","29","","7","","48.3","","101.60","","","","","","NA"
"-123.18","49.19","VANCOUVER INTL A","1108395","2022-10-03 18:00","2022","10","03","18:00","14.7","","14.7","","100","","","","32","","9","","32.2","","101.58","","","","","","NA"
"-123.18","49.19","VANCOUVER INTL A","1108395","2022-10-03 19:00","2022","10","03","19:00","15.9","","15.9","","100","","","","28","","6","","32.2","","101.57","","","","","","Clear"
"-123.18","49.19","VANCOUVER INTL A","1108395","2022-10-03 20:00","2022","10","03","20:00","15.3","","15.3","","100","","","","22","","5","","32.2","","101.61","","","","","","NA"
"-123.18","49.19","VANCOUVER INTL A","1108395","2022-10-03 21:00","2022","10","03","21:00","12.0","","12.0","","100","","","","34","","4","","32.2","","101.63","","","","","","NA"
"-123.18","49.19","VANCOUVER INTL A","1108395","2022-10-03 22:00","2022","10","03","22:00","12.9","","12.9","","100","","","","15","","3","","32.2","","101.64","","","","","","Mainly Clear"
"-123.18","49.19","VANCOUVER INTL A","1108395","2022-10-03 23:00","2022","10","03","23:00","13.4","","13.4","","100","","","","10","","9","","32.2","","101.63","","","","","","NA"
"-123.18","49.19","VANCOUVER INTL A","1108395","2022-10-04 00:00","2022","10","04","00:00","12.9","","12.9","","100","","","","9","","14","","32.2","","101.63","","","","","","NA"
"-123.18","49.19","VANCOUVER INTL A","1108395","2022-10-04 01:00","2022","10","04","01:00","12.9","","12.9","","100","","","","8","","6","","32.2","","101.64","","","","","","Mainly Clear"
"-123.18","49.19","VANCOUVER INTL A","1108395","2022-10-04 02:00","2022","10","04","02:00","11.6","","11.6","","100","","","","8","","8","","32.2","","101.63","","","","","","NA"
"-123.18","49.19","VANCOUVER INTL A","1108395","2022-10-04 03:00","2022","10","04","03:00","12.2","","12.2","","100","","","","10","","5","","24.1","","101.64","","","","","","NA"
"-123.18","49.19","VANCOUVER INTL A","1108395","2022-10-04 04:00","2022","10","04","04:00","11.8","","11.8","","100","","","","9","","16","","24.1","","101.62","","","","","","Mainly Clear"
"-123.18","49.19","VANCOUVER INTL A","1108395","2022-10-04 05:00","2022","10","04","05:00","11.7","","11.7","","100","","","","10","","11","","24.1","","101.66","","","","","","NA"
"-123.18","49.19","VANCOUVER INTL A","1108395","2022-10-04 06:00","2022","10","04","06:00","12.3","","12.3","","100","","","","11","","11","","24.1","","101.68","","","","","","NA"
"-123.18","49.19","VANCOUVER INTL A","1108395","2022-10-04 07:00","2022","10","04","07:00","11.9","","11.9","","100","","","","13","","9","","9.7","","101.72","","","","","","Fog,Haze"
"-123.18","49.19","VANCOUVER INTL A","1108395","2022-10-04 08:00","2022","10","04","08:00","13.3","","13.3","","100","","","","12","","14","","9.7","","101.72","","","","","","Fog,Haze"
"-123.18","49.19","VANCOUVER INTL A","1108395","2022-10-04 09:00","2022","10","04","09:00","14.4","","14.0","","97","","","","13","","16","","24.1","","101.74","","","","","","NA"
"-123.18","49.19","VANCOUVER INTL A","1108395","2022-10-04 10:00","2022","10","04","10:00","15.4","","13.6","","89","","","","12","","16","","12.9","","101.77","","","","","","Mostly Cloudy"
"-123.18","49.19","VANCOUVER INTL A","1108395","2022-10-04 11:00","2022","10","04","11:00","15.6","","13.8","","89","","","","10","","18","","16.1","","101.74","","","","","","NA"
"-123.18","49.19","VANCOUVER INTL A","1108395","2022-10-04 12:00","2022","10","04","12:00","16.4","","13.6","","84","","","","10","","18","","24.1","","101.70","","","","","","NA"
"-123.18","49.19","VANCOUVER INTL A","1108395","2022-10-04 13:00","2022","10","04","13:00","17.7","","13.2","","75","","","","14","","13","","24.1","","101.67","","","","","","Mostly Cloudy"
"-123.18","49.19","VANCOUVER INTL A","1108395","2022-10-04 14:00","2022","10","04","14:00","18.8","","13.4","","70","","","","10","","10","","24.1","","101.64","","","","","","NA"
"-123.18","49.19","VANCOUVER INTL A","1108395","2022-10-04 15:00","2022","10","04","15:00","17.6","","14.6","","82","","","","20","","14","","24.1","","101.62","","","","","","NA"
"-123.18","49.19","VANCOUVER INTL A","1108395","2022-10-04 16:00","2022","10","04","16:00","17.0","","15.2","","89","","","","20","","12","","32.2","","101.60","","","","","","Mainly Clear"
"-123.18","49.19","VANCOUVER INTL A","1108395","2022-10-04 17:00","2022","10","04","17:00","16.8","","13.7","","81","","","","13","","16","","40.2","","101.58","","","","","","NA"
"-123.18","49.19","VANCOUVER INTL A","1108395","2022-10-04 18:00","2022","10","04","18:00","14.6","","13.4","","93","","","","11","","12","","24.1","","101.66","","","","","","NA"
"-123.18","49.19","VANCOUVER INTL A","1108395","2022-10-04 19:00","2022","10","04","19:00","13.7","","13.4","","98","","","","10","","19","","24.1","","101.70","","","","","","Mainly Clear"
"-123.18","49.19","VANCOUVER INTL A","1108395","2022-10-04 20:00","2022","10","04","20:00","12.9","","12.9","","100","","","","10","","14","","24.1","","101.72","","","","","","NA"
"-123.18","49.19","VANCOUVER INTL A","1108395","2022-10-04 21:00","2022","10","04","21:00","13.1","","13.1","","100","","","","9","","16","","24.1","","101.78","","","","","","NA"
"-123.18","49.19","VANCOUVER INTL A","1108395","2022-10-04 22:00","2022","10","04","22:00","13.6","","13.2","","97","","","","9","","17","","24.1","","101.81","","","","","","Mainly Clear"
"-123.18","49.19","VANCOUVER INTL A","1108395","2022-10-04 23:00","2022","10","04","23:00","13.7","","13.3","","98","","","","9","","18","","24.1","","101.84","","","","","","NA"
"-123.18","49.19","VANCOUVER INTL A","1108395","2022-10-05 00:00","2022","10","05","00:00","13.3","","13.2","","99","","","","11","","18","","24.1","","101.91","","","","","","NA"
"-123.18","49.19","VANCOUVER INTL A","1108395","2022-10-05 01:00","2022","10","05","01:00","13.4","","13.2","","99","","","","10","","20","","24.1","","101.95","","","","","","Mainly Clear"
"-123.18","49.19","VANCOUVER INTL A","1108395","2022-10-05 02:00","2022","10","05","02:00","13.9","","13.3","","96","","","","8","","17","","24.1","","101.99","","","","","","NA"
"-123.18","49.19","VANCOUVER INTL A","1108395","2022-10-05 03:00","2022","10","05","03:00","12.8","","12.8","","100","","","","10","","18","","24.1","","102.04","","","","","","NA"
"-123.18","49.19","VANCOUVER INTL A","1108395","2022-10-05 04:00","2022","10","05","04:00","12.5","","12.5","","100","","","","10","","20","","24.1","","102.05","","","","","","Mainly Clear"
"-123.18","49.19","VANCOUVER INTL A","1108395","2022-10-05 05:00","2022","10","05","05:00","12.2","","12.2","","100","","","","10","","11","","24.1","","102.09","","","","","","NA"
"-123.18","49.19","VANCOUVER INTL A","1108395","2022-10-05 06:00","2022","10","05","06:00","12.0","","12.0","","100","","","","9","","12","","24.1","","102.13","","","","","","NA"
"-123.18","49.19","VANCOUVER INTL A","1108395","2022-10-05 07:00","2022","10","05","07:00","12.9","","12.8","","99","","","","8","","8","","40.2","","102.17","","","","","","Mainly Clear"
"-123.18","49.19","VANCOUVER INTL A","1108395","2022-10-05 08:00","2022","10","05","08:00","15.0","","13.7","","92","","","","10","","10","","40.2","","102.24","","","","","","NA"
"-123.18","49.19","VANCOUVER INTL A","1108395","2022-10-05 09:00","2022","10","05","09:00","16.0","","13.4","","85","","","","12","","10","","32.2","","102.28","","","","","","NA"
"-123.18","49.19","VANCOUVER INTL A","1108395","2022-10-05 10:00","2022","10","05","10:00","16.2","","13.8","","86","","","","19","","4","","32.2","","102.29","","","","","","Mostly Cloudy"
"-123.18","49.19","VANCOUVER INTL A","1108395","2022-10-05 11:00","2022","10","05","11:00","16.6","","14.5","","87","","","","25","","13","","32.2","","102.26","","","","","","NA"
"-123.18","49.19","VANCOUVER INTL A","1108395","2022-10-05 12:00","2022","10","05","12:00","17.3","","13.8","","79","","","","24","","15","","40.2","","102.25","","","","","","NA"
"-123.18","49.19","VANCOUVER INTL A","1108395","2022-10-05 13:00","2022","10","05","13:00","17.1","","14.2","","83","","","","24","","14","","40.2","","102.22","","","","","","Mainly Clear"
"-123.18","49.19","VANCOUVER INTL A","1108395","2022-10-05 14:00","2022","10","05","14:00","17.0","","14.5","","85","","","","26","","8","","48.3","","102.17","","","","","","NA"
"-123.18","49.19","VANCOUVER INTL A","1108395","2022-10-05 15:00","2022","10","05","15:00","17.0","","14.1","","83","","","","24","","12","","48.3","","102.13","","","","","","NA"
"-123.18","49.19","VANCOUVER INTL A","1108395","2022-10-05 16:00","2022","10","05","16:00","16.5","","15.0","","91","","","","27","","10","","48.3","","102.11","","","","","","Mainly Clear"
"-123.18","49.19","VANCOUVER INTL A","1108395","2022-10-05 17:00","2022","10","05","17:00","15.8","","15.4","","97","","","","29","","6","","48.3","","102.08","","","","","","NA"
"-123.18","49.19","VANCOUVER INTL A","1108395","2022-10-05 18:00","2022","10","05","18:00","14.7","","14.7","","100","","","","25","","5","","32.2","","102.06","","","","","","NA"
"-123.18","49.19","VANCOUVER INTL A","1108395","2022-10-05 19:00","2022","10","05","19:00","14.5","","14.5","","100","","","","27","","9","","32.2","","102.07","","","","","","Mainly Clear"
"-123.18","49.19","VANCOUVER INTL A","1108395","2022-10-05 20:00","2022","10","05","20:00","13.6","","13.6","","100","","","","34","","4","","32.2","","102.08","","","","","","NA"
"-123.18","49.19","VANCOUVER INTL A","1108395","2022-10-05 21:00","2022","10","05","21:00","14.3","","14.3","","100","","","","31","","3","","32.2","","102.10","","","","","","NA"
"-123.18","49.19","VANCOUVER INTL A","1108395","2022-10-05 22:00","2022","10","05","22:00","12.8","","12.8","","100","","","","36","","2","","32.2","","102.13","","","","","","Mainly Clear"
"-123.18","49.19","VANCOUVER INTL A","1108395","2022-10-05 23:00","2022","10","05","23:00","13.9","","13.9","","100","","","","7","","11","","24.1","","102.15","","","","","","NA"
"-123.18","49.19","VANCOUVER INTL A","1108395","2022-10-06 00:00","2022","10","06","00:00","12.6","","12.6","","100","","","","10","","4","","24.1","","102.16","","","","","","NA"
"-123.18","49.19","VANCOUVER INTL A","1108395","2022-10-06 01:00","2022","10","06","01:00","12.5","","12.5","","100","","","","11","","9","","24.1","","102.17","","","","","","Mainly Clear"
"-123.18","49.19","VANCOUVER INTL A","1108395","2022-10-06 02:00","2022","10","06","02:00","11.6","","11.6","","100","","","","9","","5","","19.3","","102.18","","","","","","NA"
"-123.18","49.19","VANCOUVER INTL A","1108395","2022-10-06 03:00","2022","10","06","03:00","9.9","","9.9","","100","","","","33","","4","","16.1","","102.17","","","","","","NA"
"-123.18","49.19","VANCOUVER INTL A","1108395","2022-10-06 04:00","2022","10","06","04:00","11.5","","11.5","","100","","","","36","","3","","16.1","","102.15","","","","","","Mainly Clear"
"-123.18","49.19","VANCOUVER INTL A","1108395","2022-10-06 05:00","2022","10","06","05:00","10.8","","10.8","","100","","","","36","","2","","16.1","","102.15","","","","","","NA"
"-123.18","49.19","VANCOUVER INTL A","1108395","2022-10-06 06:00","2022","10","06","06:00","10.9","","10.9","","100","","","","9","","5","","16.1","","102.16","","","","","","NA"
"-123.18","49.19","VANCOUVER INTL A","1108395","2022-10-06 07:00","2022","10","06","07:00","10.7","","10.7","","100","","","","14","","7","","11.3","","102.18","","","","","","Mostly Cloudy"
"-123.18","49.19","VANCOUVER INTL A","1108395","2022-10-06 08:00","2022","10","06","08:00","13.3","","13.3","","100","","","","11","","3","","16.1","","102.20","","","","","","NA"
"-123.18","49.19","VANCOUVER INTL A","1108395","2022-10-06 09:00","2022","10","06","09:00","15.2","","15.2","","100","","","","34","","4","","16.1","","102.21","","","","","","NA"
"-123.18","49.19","VANCOUVER INTL A","1108395","2022-10-06 10:00","2022","10","06","10:00","17.2","","14.9","","86","","","","36","","3","","24.1","","102.19","","","","","","Mainly Clear"
"-123.18","49.19","VANCOUVER INTL A","1108395","2022-10-06 11:00","2022","10","06","11:00","17.8","","15.4","","86","","","","29","","14","","24.1","","102.15","","","","","","NA"
"-123.18","49.19","VANCOUVER INTL A","1108395","2022-10-06 12:00","2022","10","06","12:00","18.9","","16.0","","83","","","","30","","15","","24.1","","102.12","","","","","","NA"
"-123.18","49.19","VANCOUVER INTL A","1108395","2022-10-06 13:00","2022","10","06","13:00","19.0","","15.5","","80","","","","29","","18","","24.1","","102.04","","","","","","Mostly Cloudy"
"-123.18","49.19","VANCOUVER INTL A","1108395","2022-10-06 14:00","2022","10","06","14:00","19.0","","15.3","","79","","","","30","","18","","24.1","","102.00","","","","","","NA"
"-123.18","49.19","VANCOUVER INTL A","1108395","2022-10-06 15:00","2022","10","06","15:00","18.4","","15.5","","83","","","","29","","17","","24.1","","101.95","","","","","","NA"
"-123.18","49.19","VANCOUVER INTL A","1108395","2022-10-06 16:00","2022","10","06","16:00","17.5","","15.8","","90","","","","29","","14","","24.1","","101.93","","","","","","Mostly Cloudy"
"-123.18","49.19","VANCOUVER INTL A","1108395","2022-10-06 17:00","2022","10","06","17:00","16.6","","15.6","","93","","","","32","","8","","24.1","","101.87","","","","","","NA"
"-123.18","49.19","VANCOUVER INTL A","1108395","2022-10-06 18:00","2022","10","06","18:00","15.3","","15.3","","100","","","","29","","5","","24.1","","101.85","","","","","","NA"
"-123.18","49.19","VANCOUVER INTL A","1108395","2022-10-06 19:00","2022","10","06","19:00","14.2","","14.2","","100","","","","30","","7","","24.1","","101.89","","","","","","Mostly Cloudy"
"-123.18","49.19","VANCOUVER INTL A","1108395","2022-10-06 20:00","2022","10","06","20:00","12.8","","12.8","","100","","","","31","","6","","24.1","","101.91","","","","","","NA"
"-123.18","49.19","VANCOUVER INTL A","1108395","2022-10-06 21:00","2022","10","06","21:00","14.3","","14.3","","100","","","","35","","6","","24.1","","101.94","","","","","","NA"
"-123.18","49.19","VANCOUVER INTL A","1108395","2022-10-06 22:00","2022","10","06","22:00","16.1","","13.5","","84","","","","10","","5","","24.1","","101.96","","","","","","Mostly Cloudy"
"-123.18","49.19","VANCOUVER INTL A","1108395","2022-10-06 23:00","2022","10","06","23:00","13.7","","13.6","","99","","","","0","","1","","24.1","","102.01","","","","","","NA"
"-123.18","49.19","VANCOUVER INTL A","1108395","2022-10-07 00:00","2022","10","07","00:00","14.0","","14.0","","100","","","","9","","7","","24.1","","102.03","","","","","","NA"
"-123.18","49.19","VANCOUVER INTL A","1108395","2022-10-07 01:00","2022","10","07","01:00","13.8","","13.8","","100","","","","13","","5","","24.1","","102.05","","","","","","Mostly Cloudy"
"-123.18","49.19","VANCOUVER INTL A","1108395","2022-10-07 02:00","2022","10","07","02:00","12.4","","12.4","","100","","","","15","","3","","24.1","","102.10","","","","","","NA"
"-123.18","49.19","VANCOUVER INTL A","1108395","2022-10-07 03:00","2022","10","07","03:00","12.3","","12.3","","100","","","","8","","7","","24.1","","102.11","","","","","","NA"
"-123.18","49.19","VANCOUVER INTL A","1108395","2022-10-07 04:00","2022","10","07","04:00","11.4","","11.4","","100","","","","13","","3","","24.1","","102.14","","","","","","Mainly Clear"
"-123.18","49.19","VANCOUVER INTL A","1108395","2022-10-07 05:00","2022","10","07","05:00","11.9","","11.9","","100","","","","9","","7","","16.1","","102.15","","","","","","NA"
"-123.18","49.19","VANCOUVER INTL A","1108395","2022-10-07 06:00","2022","10","07","06:00","12.9","","12.9","","100","","","","21","","5","","16.1","","102.20","","","","","","NA"
"-123.18","49.19","VANCOUVER INTL A","1108395","2022-10-07 07:00","2022","10","07","07:00","11.7","","11.7","","100","","","","36","","3","","16.1","","102.24","","","","","","Mostly Cloudy"
"-123.18","49.19","VANCOUVER INTL A","1108395","2022-10-07 08:00","2022","10","07","08:00","14.9","","14.9","","100","","","","36","","3","","16.1","","102.27","","","","","","NA"
"-123.18","49.19","VANCOUVER INTL A","1108395","2022-10-07 09:00","2022","10","07","09:00","16.8","","15.3","","91","","","","21","","6","","24.1","","102.29","","","","","","NA"
"-123.18","49.19","VANCOUVER INTL A","1108395","2022-10-07 10:00","2022","10","07","10:00","17.6","","15.9","","90","","","","24","","8","","24.1","","102.32","","","","","","Mostly Cloudy"
"-123.18","49.19","VANCOUVER INTL A","1108395","2022-10-07 11:00","2022","10","07","11:00","18.9","","15.4","","80","","","","24","","8","","24.1","","102.29","","","","","","NA"
"-123.18","49.19","VANCOUVER INTL A","1108395","2022-10-07 12:00","2022","10","07","12:00","20.0","","14.2","","69","","","","28","","10","","24.1","","102.27","","","","","","NA"
"-123.18","49.19","VANCOUVER INTL A","1108395","2022-10-07 13:00","2022","10","07","13:00","19.8","","15.4","","75","","","","29","","9","","24.1","","102.20","","","","","","Mainly Clear"
"-123.18","49.19","VANCOUVER INTL A","1108395","2022-10-07 14:00","2022","10","07","14:00","19.5","","15.8","","79","","","","27","","10","","24.1","","102.14","","","","","","NA"
"-123.18","49.19","VANCOUVER INTL A","1108395","2022-10-07 15:00","2022","10","07","15:00","19.4","","15.2","","76","","","","28","","10","","24.1","","102.10","","","","","","NA"
"-123.18","49.19","VANCOUVER INTL A","1108395","2022-10-07 16:00","2022","10","07","16:00","18.4","","15.9","","85","","","","28","","9","","24.1","","102.06","","","","","","Mainly Clear"
"-123.18","49.19","VANCOUVER INTL A","1108395","2022-10-07 17:00","2022","10","07","17:00","17.0","","16.3","","95","","","","24","","7","","24.1","","102.04","","","","","","NA"
"-123.18","49.19","VANCOUVER INTL A","1108395","2022-10-07 18:00","2022","10","07","18:00","16.4","","15.8","","96","","","","27","","5","","19.3","","102.05","","","","","","NA"
"-123.18","49.19","VANCOUVER INTL A","1108395","2022-10-07 19:00","2022","10","07","19:00","15.7","","15.7","","100","","","","23","","5","","24.1","","102.06","","","","","","Clear"
"-123.18","49.19","VANCOUVER INTL A","1108395","2022-10-07 20:00","2022","10","07","20:00","14.9","","14.9","","100","","","","22","","8","","24.1","","102.11","","","","","","NA"
"-123.18","49.19","VANCOUVER INTL A","1108395","2022-10-07 21:00","2022","10","07","21:00","14.9","","14.9","","100","","","","28","","5","","24.1","","102.12","","","","","","NA"
"-123.18","49.19","VANCOUVER INTL A","1108395","2022-10-07 22:00","2022","10","07","22:00","13.8","","13.8","","100","","","","24","","3","","24.1","","102.14","","","","","","Mainly Clear"
"-123.18","49.19","VANCOUVER INTL A","1108395","2022-10-07 23:00","2022","10","07","23:00","13.6","","13.6","","100","","","","36","","1","","24.1","","102.15","","","","","","NA"
"-123.18","49.19","VANCOUVER INTL A","1108395","2022-10-08 00:00","2022","10","08","00:00","13.5","","13.5","","100","","","","36","","1","","24.1","","102.18","","","","","","NA"
"-123.18","49.19","VANCOUVER INTL A","1108395","2022-10-08 01:00","2022","10","08","01:00","11.5","","11.5","","100","","","","30","","5","","19.3","","102.20","","","","","","Clear"
"-123.18","49.19","VANCOUVER INTL A","1108395","2022-10-08 02:00","2022","10","08","02:00","12.7","","12.7","","100","","","","10","","5","","19.3","","102.20","","","","","","NA"
"-123.18","49.19","VANCOUVER INTL A","1108395","2022-10-08 03:00","2022","10","08","03:00","12.2","","12.2","","100","","","","9","","5","","19.3","","102.21","","","","","","NA"
"-123.18","49.19","VANCOUVER INTL A","1108395","2022-10-08 04:00","2022","10","08","04:00","12.2","","12.2","","100","","","","7","","7","","19.3","","102.21","","","","","","Mainly Clear"
"-123.18","49.19","VANCOUVER INTL A","1108395","2022-10-08 05:00","2022","10","08","05:00","10.8","","10.8","","100","","","","36","","2","","16.1","","102.23","","","","","","NA"
"-123.18","49.19","VANCOUVER INTL A","1108395","2022-10-08 06:00","2022","10","08","06:00","10.4","","10.4","","100","","","","36","","3","","16.1","","102.23","","","","","","NA"
"-123.18","49.19","VANCOUVER INTL A","1108395","2022-10-08 07:00","2022","10","08","07:00","10.2","","10.2","","100","","","","36","","1","","24.1","","102.26","","","","","","Clear"
"-123.18","49.19","VANCOUVER INTL A","1108395","2022-10-08 08:00","2022","10","08","08:00","14.6","","14.6","","100","","","","36","","1","","24.1","","102.27","","","","","","NA"
"-123.18","49.19","VANCOUVER INTL A","1108395","2022-10-08 09:00","2022","10","08","09:00","16.1","","15.8","","98","","","","31","","16","","24.1","","102.28","","","","","","NA"
"-123.18","49.19","VANCOUVER INTL A","1108395","2022-10-08 10:00","2022","10","08","10:00","17.4","","15.4","","88","","","","30","","15","","24.1","","102.25","","","","","","Clear"
"-123.18","49.19","VANCOUVER INTL A","1108395","2022-10-08 11:00","2022","10","08","11:00","18.5","","14.3","","76","","","","30","","16","","24.1","","102.22","","","","","","NA"
"-123.18","49.19","VANCOUVER INTL A","1108395","2022-10-08 12:00","2022","10","08","12:00","19.1","","14.7","","75","","","","30","","15","","24.1","","102.17","","","","","","NA"
"-123.18","49.19","VANCOUVER INTL A","1108395","2022-10-08 13:00","2022","10","08","13:00","18.7","","15.0","","79","","","","29","","20","","24.1","","102.11","","","","","","Clear"
"-123.18","49.19","VANCOUVER INTL A","1108395","2022-10-08 14:00","2022","10","08","14:00","18.6","","15.5","","82","","","","29","","19","","24.1","","102.05","","","","","","NA"
"-123.18","49.19","VANCOUVER INTL A","1108395","2022-10-08 15:00","2022","10","08","15:00","18.3","","14.9","","80","","","","29","","17","","24.1","","101.99","","","","","","NA"
"-123.18","49.19","VANCOUVER INTL A","1108395","2022-10-08 16:00","2022","10","08","16:00","17.9","","14.8","","82","","","","30","","12","","24.1","","101.94","","","","","","Clear"
"-123.18","49.19","VANCOUVER INTL A","1108395","2022-10-08 17:00","2022","10","08","17:00","16.8","","14.7","","87","","","","28","","4","","24.1","","101.91","","","","","","NA"
"-123.18","49.19","VANCOUVER INTL A","1108395","2022-10-08 18:00","2022","10","08","18:00","15.4","","14.6","","94","","","","28","","6","","24.1","","101.90","","","","","","NA"
"-123.18","49.19","VANCOUVER INTL A","1108395","2022-10-08 19:00","2022","10","08","19:00","15.5","","15.3","","99","","","","23","","8","","24.1","","101.92","","","","","","Clear"
"-123.18","49.19","VANCOUVER INTL A","1108395","2022-10-08 20:00","2022","10","08","20:00","14.1","","14.1","","100","","","","20","","3","","24.1","","101.94","","","","","","NA"
"-123.18","49.19","VANCOUVER INTL A","1108395","2022-10-08 21:00","2022","10","08","21:00","13.8","","13.8","","100","","","","0","","1","","24.1","","101.95","","","","","","NA"
"-123.18","49.19","VANCOUVER INTL A","1108395","2022-10-08 22:00","2022","10","08","22:00","13.0","","13.0","","100","","","","7","","6","","24.1","","101.97","","","","","","Clear"
"-123.18","49.19","VANCOUVER INTL A","1108395","2022-10-08 23:00","2022","10","08","23:00","12.4","","12.4","","100","","","","8","","6","","24.1","","101.99","","","","","","NA"
"-123.18","49.19","VANCOUVER INTL A","1108395","2022-10-09 00:00","2022","10","09","00:00","13.5","","13.5","","100","","","","1","","5","","24.1","","102.02","","","","","","NA"
"-123.18","49.19","VANCOUVER INTL A","1108395","2022-10-09 01:00","2022","10","09","01:00","11.5","","11.5","","100","","","","27","","4","","24.1","","102.03","","","","","","Clear"
"-123.18","49.19","VANCOUVER INTL A","1108395","2022-10-09 02:00","2022","10","09","02:00","11.8","","11.8","","100","","","","31","","12","","19.3","","102.03","","","","","","NA"
"-123.18","49.19","VANCOUVER INTL A","1108395","2022-10-09 03:00","2022","10","09","03:00","13.3","","13.3","","100","","","","31","","12","","24.1","","102.02","","","","","","NA"
"-123.18","49.19","VANCOUVER INTL A","1108395","2022-10-09 04:00","2022","10","09","04:00","13.2","","13.2","","100","","","","31","","12","","24.1","","102.05","","","","","","Clear"
"-123.18","49.19","VANCOUVER INTL A","1108395","2022-10-09 05:00","2022","10","09","05:00","11.5","","11.5","","100","","","","31","","8","","24.1","","102.07","","","","","","NA"
"-123.18","49.19","VANCOUVER INTL A","1108395","2022-10-09 06:00","2022","10","09","06:00","12.7","","12.7","","100","","","","32","","10","","24.1","","102.07","","","","","","NA"
"-123.18","49.19","VANCOUVER INTL A","1108395","2022-10-09 07:00","2022","10","09","07:00","12.6","","12.6","","100","","","","32","","10","","24.1","","102.10","","","","","","Clear"
"-123.18","49.19","VANCOUVER INTL A","1108395","2022-10-09 08:00","2022","10","09","08:00","14.2","","14.2","","100","","","","33","","7","","24.1","","102.14","","","","","","NA"
"-123.18","49.19","VANCOUVER INTL A","1108395","2022-10-09 09:00","2022","10","09","09:00","15.4","","15.4","","100","","","","31","","16","","24.1","","102.16","","","","","","NA"
"-123.18","49.19","VANCOUVER INTL A","1108395","2022-10-09 10:00","2022","10","09","10:00","16.0","","15.2","","95","","","","30","","22","","24.1","","102.17","","","","","","Mainly Clear"
"-123.18","49.19","VANCOUVER INTL A","1108395","2022-10-09 11:00","2022","10","09","11:00","17.0","","15.3","","90","","","","30","","19","","24.1","","102.16","","","","","","NA"
"-123.18","49.19","VANCOUVER INTL A","1108395","2022-10-09 12:00","2022","10","09","12:00","17.3","","15.0","","86","","","","29","","14","","24.1","","102.11","","","","","","NA"
"-123.18","49.19","VANCOUVER INTL A","1108395","2022-10-09 13:00","2022","10","09","13:00","17.2","","14.9","","86","","","","29","","14","","24.1","","102.03","","","","","","Mainly Clear"
"-123.18","49.19","VANCOUVER INTL A","1108395","2022-10-09 14:00","2022","10","09","14:00","17.8","","15.2","","85","","","","28","","12","","24.1","","101.97","","","","","","NA"
"-123.18","49.19","VANCOUVER INTL A","1108395","2022-10-09 15:00","2022","10","09","15:00","17.8","","14.1","","78","","","","29","","16","","24.1","","101.92","","","","","","NA"
"-123.18","49.19","VANCOUVER INTL A","1108395","2022-10-09 16:00","2022","10","09","16:00","16.9","","14.1","","83","","","","26","","9","","24.1","","101.86","","","","","","Mainly Clear"
"-123.18","49.19","VANCOUVER INTL A","1108395","2022-10-09 17:00","2022","10","09","17:00","15.5","","14.4","","93","","","","25","","7","","24.1","","101.83","","","","","","NA"
"-123.18","49.19","VANCOUVER INTL A","1108395","2022-10-09 18:00","2022","10","09","18:00","14.6","","14.6","","100","","","","36","","2","","32.2","","101.82","","","","","","NA"
"-123.18","49.19","VANCOUVER INTL A","1108395","2022-10-09 19:00","2022","10","09","19:00","14.2","","13.3","","95","","","","14","","5","","32.2","","101.81","","","","","","Clear"
"-123.18","49.19","VANCOUVER INTL A","1108395","2022-10-09 20:00","2022","10","09","20:00","13.9","","13.7","","99","","","","18","","7","","32.2","","101.82","","","","","","NA"
"-123.18","49.19","VANCOUVER INTL A","1108395","2022-10-09 21:00","2022","10","09","21:00","14.0","","13.1","","94","","","","12","","3","","32.2","","101.81","","","","","","NA"
"-123.18","49.19","VANCOUVER INTL A","1108395","2022-10-09 22:00","2022","10","09","22:00","13.2","","13.2","","100","","","","36","","3","","32.2","","101.83","","","","","","Mainly Clear"
"-123.18","49.19","VANCOUVER INTL A","1108395","2022-10-09 23:00","2022","10","09","23:00","12.2","","12.2","","100","","","","0","","1","","32.2","","101.82","","","","","","NA"
"-123.18","49.19","VANCOUVER INTL A","1108395","2022-10-10 00:00","2022","10","10","00:00","11.8","","11.8","","100","","","","12","","4","","32.2","","101.81","","","","","","NA"
"-123.18","49.19","VANCOUVER INTL A","1108395","2022-10-10 01:00","2022","10","10","01:00","10.4","","10.4","","100","","","","9","","9","","32.2","","101.80","","","","","","Mainly Clear"
"-123.18","49.19","VANCOUVER INTL A","1108395","2022-10-10 02:00","2022","10","10","02:00","10.8","","10.8","","100","","","","10","","13","","32.2","","101.77","","","","","","NA"
"-123.18","49.19","VANCOUVER INTL A","1108395","2022-10-10 03:00","2022","10","10","03:00","10.4","","10.4","","100","","","","9","","11","","32.2","","101.74","","","","","","NA"
"-123.18","49.19","VANCOUVER INTL A","1108395","2022-10-10 04:00","2022","10","10","04:00","9.6","","9.6","","100","","","","10","","11","","32.2","","101.75","","","","","","Mainly Clear"
"-123.18","49.19","VANCOUVER INTL A","1108395","2022-10-10 05:00","2022","10","10","05:00","11.3","","11.3","","100","","","","8","","7","","32.2","","101.74","","","","","","NA"
"-123.18","49.19","VANCOUVER INTL A","1108395","2022-10-10 06:00","2022","10","10","06:00","11.0","","11.0","","100","","","","11","","13","","32.2","","101.71","","","","","","NA"
"-123.18","49.19","VANCOUVER INTL A","1108395","2022-10-10 07:00","2022","10","10","07:00","11.9","","11.9","","100","","","","11","","12","","40.2","","101.67","","","","","","Mainly Clear"
"-123.18","49.19","VANCOUVER INTL A","1108395","2022-10-10 08:00","2022","10","10","08:00","13.3","","13.2","","99","","","","11","","16","","48.3","","101.60","","","","","","NA"
"-123.18","49.19","VANCOUVER INTL A","1108395","2022-10-10 09:00","2022","10","10","09:00","14.9","","14.2","","96","","","","10","","15","","48.3","","101.65","","","","","","NA"
"-123.18","49.19","VANCOUVER INTL A","1108395","2022-10-10 10:00","2022","10","10","10:00","17.2","","13.7","","80","","","","11","","15","","48.3","","101.64","","","","","","Mostly Cloudy"
"-123.18","49.19","VANCOUVER INTL A","1108395","2022-10-10 11:00","2022","10","10","11:00","18.3","","13.2","","72","","","","11","","8","","48.3","","101.60","","","","","","NA"
"-123.18","49.19","VANCOUVER INTL A","1108395","2022-10-10 12:00","2022","10","10","12:00","18.7","","11.9","","64","","","","16","","9","","48.3","","101.53","","","","","","NA"
"-123.18","49.19","VANCOUVER INTL A","1108395","2022-10-10 13:00","2022","10","10","13:00","18.4","","14.1","","76","","","","22","","14","","48.3","","101.48","","","","","","Mostly Cloudy"
"-123.18","49.19","VANCOUVER INTL A","1108395","2022-10-10 14:00","2022","10","10","14:00","17.7","","13.4","","76","","","","23","","12","","48.3","","101.44","","","","","","NA"
"-123.18","49.19","VANCOUVER INTL A","1108395","2022-10-10 15:00","2022","10","10","15:00","17.5","","12.8","","74","","","","23","","9","","48.3","","101.42","","","","","","NA"
"-123.18","49.19","VANCOUVER INTL A","1108395","2022-10-10 16:00","2022","10","10","16:00","15.7","","14.4","","92","","","","20","","14","","48.3","","101.44","","","","","","Mainly Clear"
"-123.18","49.19","VANCOUVER INTL A","1108395","2022-10-10 17:00","2022","10","10","17:00","16.0","","10.6","","70","","","","27","","31","","48.3","","101.39","","","","","","NA"
"-123.18","49.19","VANCOUVER INTL A","1108395","2022-10-10 18:00","2022","10","10","18:00","15.5","","8.4","","62","","","","27","","37","","32.2","","101.42","","","","","","NA"
"-123.18","49.19","VANCOUVER INTL A","1108395","2022-10-10 19:00","2022","10","10","19:00","14.6","","10.3","","75","","","","28","","39","","32.2","","101.45","","","","","","Mainly Clear"
"-123.18","49.19","VANCOUVER INTL A","1108395","2022-10-10 20:00","2022","10","10","20:00","14.2","","10.4","","78","","","","28","","34","","32.2","","101.50","","","","","","NA"
"-123.18","49.19","VANCOUVER INTL A","1108395","2022-10-10 21:00","2022","10","10","21:00","13.6","","10.1","","79","","","","28","","44","","32.2","","101.60","","","","","","NA"
"-123.18","49.19","VANCOUVER INTL A","1108395","2022-10-10 22:00","2022","10","10","22:00","12.9","","10.9","","87","","","","28","","28","","32.2","","101.65","","","","","","Clear"
"-123.18","49.19","VANCOUVER INTL A","1108395","2022-10-10 23:00","2022","10","10","23:00","12.5","","10.2","","86","","","","28","","32","","32.2","","101.70","","","","","","NA"
"-123.18","49.19","VANCOUVER INTL A","1108395","2022-10-11 00:00","2022","10","11","00:00","12.1","","10.3","","89","","","","29","","27","","32.2","","101.75","","","","","","NA"
"-123.18","49.19","VANCOUVER INTL A","1108395","2022-10-11 01:00","2022","10","11","01:00","11.9","","10.1","","89","","","","31","","27","","32.2","","101.82","","","","","","Clear"
"-123.18","49.19","VANCOUVER INTL A","1108395","2022-10-11 02:00","2022","10","11","02:00","11.7","","9.6","","87","","","","31","","19","","32.2","","101.95","","","","","","NA"
"-123.18","49.19","VANCOUVER INTL A","1108395","2022-10-11 03:00","2022","10","11","03:00","11.5","","10.2","","91","","","","30","","17","","32.2","","102.03","","","","","","NA"
"-123.18","49.19","VANCOUVER INTL A","1108395","2022-10-11 04:00","2022","10","11","04:00","10.9","","10.0","","94","","","","30","","16","","32.2","","102.09","","","","","","Clear"
"-123.18","49.19","VANCOUVER INTL A","1108395","2022-10-11 05:00","2022","10","11","05:00","10.2","","9.5","","95","","","","36","","4","","32.2","","102.08","","","","","","NA"
"-123.18","49.19","VANCOUVER INTL A","1108395","2022-10-11 06:00","2022","10","11","06:00","9.0","","9.0","","100","","","","34","","7","","32.2","","102.16","","","","","","NA"
"-123.18","49.19","VANCOUVER INTL A","1108395","2022-10-11 07:00","2022","10","11","07:00","8.6","","8.6","","100","","","","6","","4","","48.3","","102.26","","","","","","Clear"
"-123.18","49.19","VANCOUVER INTL A","1108395","2022-10-11 08:00","2022","10","11","08:00","12.0","","10.5","","90","","","","9","","7","","48.3","","102.31","","","","","","NA"
"-123.18","49.19","VANCOUVER INTL A","1108395","2022-10-11 09:00","2022","10","11","09:00"
"-123.18","49.19","VANCOUVER INTL A","1108395","2022-10-11 10:00","2022","10","11","10:00","14.8","","10.8","","77","","","","21","","7","","48.3","","102.36","","","","","","Mainly Clear"
"-123.18","49.19","VANCOUVER INTL A","1108395","2022-10-11 11:00","2022","10","11","11:00","15.1","","10.6","","74","","","","29","","17","","48.3","","102.37","","","","","","NA"
"-123.18","49.19","VANCOUVER INTL A","1108395","2022-10-11 12:00","2022","10","11","12:00","15.3","","10.4","","72","","","","29","","17","","48.3","","102.36","","","","","","NA"
"-123.18","49.19","VANCOUVER INTL A","1108395","2022-10-11 13:00","2022","10","11","13:00","15.6","","9.9","","69","","","","29","","12","","48.3","","102.31","","","","","","Clear"
"-123.18","49.19","VANCOUVER INTL A","1108395","2022-10-11 14:00","2022","10","11","14:00","15.1","","9.4","","68","","","","28","","15","","72.4","","102.26","","","","","","NA"
"-123.18","49.19","VANCOUVER INTL A","1108395","2022-10-11 15:00","2022","10","11","15:00","14.4","","9.7","","73","","","","28","","14","","48.3","","102.24","","","","","","NA"
"-123.18","49.19","VANCOUVER INTL A","1108395","2022-10-11 16:00","2022","10","11","16:00","13.9","","9.6","","75","","","","27","","10","","48.3","","102.22","","","","","","Clear"
"-123.18","49.19","VANCOUVER INTL A","1108395","2022-10-11 17:00","2022","10","11","17:00","12.8","","9.7","","82","","","","27","","9","","48.3","","102.20","","","","","","NA"
"-123.18","49.19","VANCOUVER INTL A","1108395","2022-10-11 18:00","2022","10","11","18:00","10.6","","10.2","","97","","","","28","","7","","32.2","","102.21","","","","","","NA"
"-123.18","49.19","VANCOUVER INTL A","1108395","2022-10-11 19:00","2022","10","11","19:00","10.4","","10.4","","100","","","","30","","8","","32.2","","102.24","","","","","","Clear"
"-123.18","49.19","VANCOUVER INTL A","1108395","2022-10-11 20:00","2022","10","11","20:00","11.1","","10.8","","98","","","","35","","5","","32.2","","102.23","","","","","","NA"
"-123.18","49.19","VANCOUVER INTL A","1108395","2022-10-11 21:00","2022","10","11","21:00","11.1","","10.2","","94","","","","5","","4","","32.2","","102.29","","","","","","NA"
"-123.18","49.19","VANCOUVER INTL A","1108395","2022-10-11 22:00","2022","10","11","22:00","10.8","","10.8","","100","","","","17","","6","","32.2","","102.32","","","","","","Mainly Clear"
"-123.18","49.19","VANCOUVER INTL A","1108395","2022-10-11 23:00","2022","10","11","23:00","10.2","","10.2","","100","","","","15","","8","","32.2","","102.38","","","","","","NA"
"-123.18","49.19","VANCOUVER INTL A","1108395","2022-10-12 00:00","2022","10","12","00:00","9.8","","9.8","","100","","","","8","","6","","32.2","","102.41","","","","","","NA"
"-123.18","49.19","VANCOUVER INTL A","1108395","2022-10-12 01:00","2022","10","12","01:00","8.9","","8.9","","100","","","","2","","4","","32.2","","102.42","","","","","","Clear"
"-123.18","49.19","VANCOUVER INTL A","1108395","2022-10-12 02:00","2022","10","12","02:00","9.0","","9.0","","100","","","","36","","2","","32.2","","102.44","","","","","","NA"
"-123.18","49.19","VANCOUVER INTL A","1108395","2022-10-12 03:00","2022","10","12","03:00","7.2","","7.2","","100","","","","36","","3","","32.2","","102.43","","","","","","NA"
"-123.18","49.19","VANCOUVER INTL A","1108395","2022-10-12 04:00","2022","10","12","04:00","7.7","","7.7","","100","","","","30","","4","","32.2","","102.45","","","","","","Clear"
"-123.18","49.19","VANCOUVER INTL A","1108395","2022-10-12 05:00","2022","10","12","05:00","6.6","","6.6","","100","","","","31","","4","","32.2","","102.46","","","","","","NA"
"-123.18","49.19","VANCOUVER INTL A","1108395","2022-10-12 06:00","2022","10","12","06:00","7.8","","7.8","","100","","","","32","","13","","40.2","","102.48","","","","","","NA"
"-123.18","49.19","VANCOUVER INTL A","1108395","2022-10-12 07:00","2022","10","12","07:00","10.5","","10.5","","100","","","","30","","14","","48.3","","102.47","","","","","","Mainly Clear"
"-123.18","49.19","VANCOUVER INTL A","1108395","2022-10-12 08:00","2022","10","12","08:00","12.2","","11.4","","95","","","","31","","14","","48.3","","102.51","","","","","","NA"
"-123.18","49.19","VANCOUVER INTL A","1108395","2022-10-12 09:00","2022","10","12","09:00","13.0","","11.8","","92","","","","29","","17","","48.3","","102.54","","","","","","NA"
"-123.18","49.19","VANCOUVER INTL A","1108395","2022-10-12 10:00","2022","10","12","10:00","14.0","","11.2","","83","","","","28","","22","","48.3","","102.54","","","","","","Mainly Clear"
"-123.18","49.19","VANCOUVER INTL A","1108395","2022-10-12 11:00","2022","10","12","11:00","14.7","","11.5","","81","","","","29","","22","","48.3","","102.52","","","","","","NA"
"-123.18","49.19","VANCOUVER INTL A","1108395","2022-10-12 12:00","2022","10","12","12:00","15.2","","11.5","","79","","","","29","","21","","48.3","","102.47","","","","","","NA"
"-123.18","49.19","VANCOUVER INTL A","1108395","2022-10-12 13:00","2022","10","12","13:00","15.4","","11.5","","77","","","","30","","21","","48.3","","102.41","","","","","","Mainly Clear"
"-123.18","49.19","VANCOUVER INTL A","1108395","2022-10-12 14:00","2022","10","12","14:00","15.6","","11.2","","75","","","","30","","15","","48.3","","102.37","","","","","","NA"
"-123.18","49.19","VANCOUVER INTL A","1108395","2022-10-12 15:00","2022","10","12","15:00","15.3","","12.3","","82","","","","29","","17","","48.3","","102.33","","","","","","NA"
"-123.18","49.19","VANCOUVER INTL A","1108395","2022-10-12 16:00","2022","10","12","16:00","14.9","","11.8","","81","","","","29","","13","","48.3","","102.30","","","","","","Clear"
"-123.18","49.19","VANCOUVER INTL A","1108395","2022-10-12 17:00","2022","10","12","17:00","13.2","","12.0","","92","","","","29","","8","","48.3","","102.26","","","","","","NA"
"-123.18","49.19","VANCOUVER INTL A","1108395","2022-10-12 18:00","2022","10","12","18:00","11.3","","11.3","","100","","","","31","","7","","32.2","","102.25","","","","","","NA"
"-123.18","49.19","VANCOUVER INTL A","1108395","2022-10-12 19:00","2022","10","12","19:00","11.0","","11.0","","100","","","","28","","10","","32.2","","102.24","","","","","","Clear"
"-123.18","49.19","VANCOUVER INTL A","1108395","2022-10-12 20:00","2022","10","12","20:00","10.7","","10.7","","100","","","","32","","5","","32.2","","102.22","","","","","","NA"
"-123.18","49.19","VANCOUVER INTL A","1108395","2022-10-12 21:00","2022","10","12","21:00","10.7","","10.7","","100","","","","29","","8","","32.2","","102.22","","","","","","NA"
"-123.18","49.19","VANCOUVER INTL A","1108395","2022-10-12 22:00","2022","10","12","22:00","10.4","","10.4","","100","","","","24","","3","","32.2","","102.23","","","","","","Clear"
"-123.18","49.19","VANCOUVER INTL A","1108395","2022-10-12 23:00","2022","10","12","23:00","11.3","","11.3","","100","","","","28","","4","","32.2","","102.24","","","","","","NA"
"-123.18","49.19","VANCOUVER INTL A","1108395","2022-10-13 00:00","2022","10","13","00:00","8.6","","8.6","","100","","","","32","","7","","32.2","","102.25","","","","","","NA"
"-123.18","49.19","VANCOUVER INTL A","1108395","2022-10-13 01:00","2022","10","13","01:00","10.3","","10.3","","100","","","","33","","5","","32.2","","102.26","","","","","","Clear"
"-123.18","49.19","VANCOUVER INTL A","1108395","2022-10-13 02:00","2022","10","13","02:00","11.3","","11.3","","100","","","","36","","2","","32.2","","102.26","","","","","","NA"
"-123.18","49.19","VANCOUVER INTL A","1108395","2022-10-13 03:00","2022","10","13","03:00","9.7","","9.7","","100","","","","12","","8","","32.2","","102.25","","","","","","NA"
"-123.18","49.19","VANCOUVER INTL A","1108395","2022-10-13 04:00","2022","10","13","04:00","10.4","","10.4","","100","","","","7","","6","","32.2","","102.23","","","","","","Clear"
"-123.18","49.19","VANCOUVER INTL A","1108395","2022-10-13 05:00","2022","10","13","05:00","8.7","","8.7","","100","","","","36","","1","","32.2","","102.24","","","","","","NA"
"-123.18","49.19","VANCOUVER INTL A","1108395","2022-10-13 06:00","2022","10","13","06:00","9.9","","9.9","","100","","","","10","","5","","32.2","","102.24","","","","","","NA"
"-123.18","49.19","VANCOUVER INTL A","1108395","2022-10-13 07:00","2022","10","13","07:00","8.7","","8.7","","100","","","","36","","1","","32.2","","102.27","","","","","","Clear"
"-123.18","49.19","VANCOUVER INTL A","1108395","2022-10-13 08:00","2022","10","13","08:00","10.9","","10.9","","100","","","","35","","3","","32.2","","102.29","","","","","","NA"
"-123.18","49.19","VANCOUVER INTL A","1108395","2022-10-13 09:00","2022","10","13","09:00","13.6","","13.2","","98","","","","27","","5","","32.2","","102.28","","","","","","NA"
"-123.18","49.19","VANCOUVER INTL A","1108395","2022-10-13 10:00","2022","10","13","10:00","14.9","","12.9","","87","","","","24","","7","","32.2","","102.25","","","","","","Clear"
"-123.18","49.19","VANCOUVER INTL A","1108395","2022-10-13 11:00","2022","10","13","11:00","15.7","","12.7","","82","","","","30","","11","","32.2","","102.22","","","","","","NA"
"-123.18","49.19","VANCOUVER INTL A","1108395","2022-10-13 12:00","2022","10","13","12:00","16.9","","11.4","","70","","","","29","","10","","32.2","","102.17","","","","","","NA"
"-123.18","49.19","VANCOUVER INTL A","1108395","2022-10-13 13:00","2022","10","13","13:00","17.1","","12.7","","75","","","","28","","15","","32.2","","102.12","","","","","","Mainly Clear"
"-123.18","49.19","VANCOUVER INTL A","1108395","2022-10-13 14:00","2022","10","13","14:00","17.1","","12.7","","75","","","","30","","14","","32.2","","102.06","","","","","","NA"
"-123.18","49.19","VANCOUVER INTL A","1108395","2022-10-13 15:00","2022","10","13","15:00","16.3","","12.5","","78","","","","28","","16","","32.2","","101.98","","","","","","NA"
"-123.18","49.19","VANCOUVER INTL A","1108395","2022-10-13 16:00","2022","10","13","16:00","15.9","","13.0","","83","","","","28","","7","","32.2","","101.92","","","","","","Mainly Clear"
"-123.18","49.19","VANCOUVER INTL A","1108395","2022-10-13 17:00","2022","10","13","17:00","13.6","","12.5","","93","","","","27","","7","","32.2","","101.87","","","","","","NA"
"-123.18","49.19","VANCOUVER INTL A","1108395","2022-10-13 18:00","2022","10","13","18:00","12.7","","12.7","","100","","","","29","","3","","24.1","","101.84","","","","","","NA"
"-123.18","49.19","VANCOUVER INTL A","1108395","2022-10-13 19:00","2022","10","13","19:00","12.5","","12.5","","100","","","","22","","5","","24.1","","101.83","","","","","","Mainly Clear"
"-123.18","49.19","VANCOUVER INTL A","1108395","2022-10-13 20:00","2022","10","13","20:00","12.2","","12.2","","100","","","","20","","4","","24.1","","101.84","","","","","","NA"
"-123.18","49.19","VANCOUVER INTL A","1108395","2022-10-13 21:00","2022","10","13","21:00","11.8","","11.8","","100","","","","0","","1","","24.1","","101.83","","","","","","NA"
"-123.18","49.19","VANCOUVER INTL A","1108395","2022-10-13 22:00","2022","10","13","22:00","10.1","","10.1","","100","","","","36","","3","","24.1","","101.84","","","","","","Clear"
"-123.18","49.19","VANCOUVER INTL A","1108395","2022-10-13 23:00","2022","10","13","23:00","10.0","","10.0","","100","","","","8","","3","","24.1","","101.84","","","","","","NA"
"-123.18","49.19","VANCOUVER INTL A","1108395","2022-10-14 00:00","2022","10","14","00:00","10.6","","10.6","","100","","","","12","","3","","24.1","","101.83","","","","","","NA"
"-123.18","49.19","VANCOUVER INTL A","1108395","2022-10-14 01:00","2022","10","14","01:00","10.3","","10.3","","100","","","","6","","4","","24.1","","101.82","","","","","","Clear"
"-123.18","49.19","VANCOUVER INTL A","1108395","2022-10-14 02:00","2022","10","14","02:00","10.5","","10.5","","100","","","","13","","4","","24.1","","101.80","","","","","","NA"
"-123.18","49.19","VANCOUVER INTL A","1108395","2022-10-14 03:00","2022","10","14","03:00","8.8","","8.8","","100","","","","8","","8","","24.1","","101.80","","","","","","NA"
"-123.18","49.19","VANCOUVER INTL A","1108395","2022-10-14 04:00","2022","10","14","04:00","9.0","","9.0","","100","","","","36","","2","","24.1","","101.80","","","","","","Clear"
"-123.18","49.19","VANCOUVER INTL A","1108395","2022-10-14 05:00","2022","10","14","05:00","9.1","","9.1","","100","","","","6","","4","","3.2","","101.80","","","","","","NA"
"-123.18","49.19","VANCOUVER INTL A","1108395","2022-10-14 06:00","2022","10","14","06:00","8.6","","8.6","","100","","","","9","","5","","16.1","","101.78","","","","","","NA"
"-123.18","49.19","VANCOUVER INTL A","1108395","2022-10-14 07:00","2022","10","14","07:00","8.0","","8.0","","100","","","","36","","1","","24.1","","101.78","","","","","","Mainly Clear"
"-123.18","49.19","VANCOUVER INTL A","1108395","2022-10-14 08:00","2022","10","14","08:00","11.1","","11.1","","100","","","","36","","2","","16.1","","101.82","","","","","","NA"
"-123.18","49.19","VANCOUVER INTL A","1108395","2022-10-14 09:00","2022","10","14","09:00","13.1","","13.1","","100","","","","22","","7","","16.1","","101.82","","","","","","NA"
"-123.18","49.19","VANCOUVER INTL A","1108395","2022-10-14 10:00","2022","10","14","10:00","14.8","","12.3","","85","","","","27","","6","","24.1","","101.78","","","","","","Mainly Clear"
"-123.18","49.19","VANCOUVER INTL A","1108395","2022-10-14 11:00","2022","10","14","11:00","16.1","","12.3","","78","","","","30","","8","","24.1","","101.78","","","","","","NA"
"-123.18","49.19","VANCOUVER INTL A","1108395","2022-10-14 12:00","2022","10","14","12:00","18.2","","12.0","","67","","","","23","","9","","24.1","","101.70","","","","","","NA"
"-123.18","49.19","VANCOUVER INTL A","1108395","2022-10-14 13:00","2022","10","14","13:00","16.7","","12.5","","76","","","","29","","11","","24.1","","101.67","","","","","","Mostly Cloudy"
"-123.18","49.19","VANCOUVER INTL A","1108395","2022-10-14 14:00","2022","10","14","14:00","16.8","","12.6","","76","","","","30","","16","","24.1","","101.59","","","","","","NA"
"-123.18","49.19","VANCOUVER INTL A","1108395","2022-10-14 15:00","2022","10","14","15:00","16.6","","12.4","","76","","","","27","","14","","24.1","","101.51","","","","","","NA"
"-123.18","49.19","VANCOUVER INTL A","1108395","2022-10-14 16:00","2022","10","14","16:00","16.2","","12.8","","80","","","","32","","10","","24.1","","101.51","","","","","","Mainly Clear"
"-123.18","49.19","VANCOUVER INTL A","1108395","2022-10-14 17:00","2022","10","14","17:00","14.4","","12.6","","89","","","","35","","8","","24.1","","101.48","","","","","","NA"
"-123.18","49.19","VANCOUVER INTL A","1108395","2022-10-14 18:00","2022","10","14","18:00","14.3","","12.0","","86","","","","24","","9","","24.1","","101.45","","","","","","NA"
"-123.18","49.19","VANCOUVER INTL A","1108395","2022-10-14 19:00","2022","10","14","19:00","13.2","","12.8","","98","","","","36","","3","","24.1","","101.48","","","","","","Mainly Clear"
"-123.18","49.19","VANCOUVER INTL A","1108395","2022-10-14 20:00","2022","10","14","20:00","13.9","","12.0","","88","","","","7","","5","","24.1","","101.49","","","","","","NA"
"-123.18","49.19","VANCOUVER INTL A","1108395","2022-10-14 21:00","2022","10","14","21:00","11.4","","11.4","","100","","","","13","","3","","19.3","","101.52","","","","","","NA"
"-123.18","49.19","VANCOUVER INTL A","1108395","2022-10-14 22:00","2022","10","14","22:00","11.5","","9.8","","89","","","","36","","2","","24.1","","101.56","","","","","","Clear"
"-123.18","49.19","VANCOUVER INTL A","1108395","2022-10-14 23:00","2022","10","14","23:00","12.9","","11.4","","90","","","","0","","1","","24.1","","101.55","","","","","","NA"
"-123.18","49.19","VANCOUVER INTL A","1108395","2022-10-15 00:00","2022","10","15","00:00","9.0","","9.0","","100","","","","31","","5","","24.1","","101.56","","","","","","NA"
"-123.18","49.19","VANCOUVER INTL A","1108395","2022-10-15 01:00","2022","10","15","01:00","8.5","","8.5","","100","","","","28","","5","","24.1","","101.55","","","","","","Clear"
"-123.18","49.19","VANCOUVER INTL A","1108395","2022-10-15 02:00","2022","10","15","02:00","10.7","","10.7","","100","","","","36","","3","","24.1","","101.57","","","","","","NA"
"-123.18","49.19","VANCOUVER INTL A","1108395","2022-10-15 03:00","2022","10","15","03:00","8.3","","8.3","","100","","","","36","","1","","16.1","","101.57","","","","","","NA"
"-123.18","49.19","VANCOUVER INTL A","1108395","2022-10-15 04:00","2022","10","15","04:00","10.8","","10.8","","100","","","","36","","3","","24.1","","101.57","","","","","","Clear"
"-123.18","49.19","VANCOUVER INTL A","1108395","2022-10-15 05:00","2022","10","15","05:00","8.0","","8.0","","100","","","","31","","7","","24.1","","101.59","","","","","","NA"
"-123.18","49.19","VANCOUVER INTL A","1108395","2022-10-15 06:00","2022","10","15","06:00","8.3","","8.3","","100","","","","33","","5","","24.1","","101.59","","","","","","NA"
"-123.18","49.19","VANCOUVER INTL A","1108395","2022-10-15 07:00","2022","10","15","07:00","8.5","","8.5","","100","","","","30","","8","","32.2","","101.59","","","","","","Clear"
"-123.18","49.19","VANCOUVER INTL A","1108395","2022-10-15 08:00","2022","10","15","08:00","13.1","","13.1","","100","","","","31","","6","","32.2","","101.62","","","","","","NA"
"-123.18","49.19","VANCOUVER INTL A","1108395","2022-10-15 09:00","2022","10","15","09:00","14.9","","13.3","","90","","","","32","","10","","32.2","","101.63","","","","","","NA"
"-123.18","49.19","VANCOUVER INTL A","1108395","2022-10-15 10:00","2022","10","15","10:00","15.5","","12.5","","82","","","","30","","19","","32.2","","101.63","","","","","","Mainly Clear"
"-123.18","49.19","VANCOUVER INTL A","1108395","2022-10-15 11:00","2022","10","15","11:00","16.6","","12.8","","78","","","","30","","17","","32.2","","101.62","","","","","","NA"
"-123.18","49.19","VANCOUVER INTL A","1108395","2022-10-15 12:00","2022","10","15","12:00","16.9","","13.0","","78","","","","29","","17","","32.2","","101.58","","","","","","NA"
"-123.18","49.19","VANCOUVER INTL A","1108395","2022-10-15 13:00","2022","10","15","13:00","17.3","","12.5","","73","","","","29","","17","","32.2","","101.52","","","","","","Mainly Clear"
"-123.18","49.19","VANCOUVER INTL A","1108395","2022-10-15 14:00","2022","10","15","14:00","17.2","","12.6","","74","","","","30","","17","","32.2","","101.46","","","","","","NA"
"-123.18","49.19","VANCOUVER INTL A","1108395","2022-10-15 15:00","2022","10","15","15:00","17.2","","12.6","","74","","","","31","","16","","32.2","","101.42","","","","","","NA"
"-123.18","49.19","VANCOUVER INTL A","1108395","2022-10-15 16:00","2022","10","15","16:00","16.2","","12.6","","79","","","","31","","13","","32.2","","101.40","","","","","","Mainly Clear"
"-123.18","49.19","VANCOUVER INTL A","1108395","2022-10-15 17:00","2022","10","15","17:00","14.2","","12.8","","92","","","","30","","5","","32.2","","101.37","","","","","","NA"
"-123.18","49.19","VANCOUVER INTL A","1108395","2022-10-15 18:00","2022","10","15","18:00","12.5","","12.2","","98","","","","32","","8","","19.3","","101.38","","","","","","NA"
"-123.18","49.19","VANCOUVER INTL A","1108395","2022-10-15 19:00","2022","10","15","19:00","12.8","","12.7","","99","","","","33","","7","","24.1","","101.36","","","","","","Clear"
"-123.18","49.19","VANCOUVER INTL A","1108395","2022-10-15 20:00","2022","10","15","20:00","12.1","","12.1","","100","","","","28","","3","","24.1","","101.39","","","","","","NA"
"-123.18","49.19","VANCOUVER INTL A","1108395","2022-10-15 21:00","2022","10","15","21:00","10.4","","10.4","","100","","","","35","","8","","24.1","","101.38","","","","","","NA"
"-123.18","49.19","VANCOUVER INTL A","1108395","2022-10-15 22:00","2022","10","15","22:00","11.3","","11.2","","99","","","","28","","3","","24.1","","101.41","","","","","","Mainly Clear"
"-123.18","49.19","VANCOUVER INTL A","1108395","2022-10-15 23:00","2022","10","15","23:00","10.1","","10.1","","100","","","","26","","3","","24.1","","101.41","","","","","","NA"
"-123.18","49.19","VANCOUVER INTL A","1108395","2022-10-16 00:00","2022","10","16","00:00","10.8","","10.0","","95","","","","34","","5","","24.1","","101.44","","","","","","NA"
"-123.18","49.19","VANCOUVER INTL A","1108395","2022-10-16 01:00","2022","10","16","01:00","8.6","","8.6","","100","","","","36","","3","","24.1","","101.44","","","","","","Clear"
"-123.18","49.19","VANCOUVER INTL A","1108395","2022-10-16 02:00","2022","10","16","02:00","9.2","","8.4","","95","","","","36","","3","","24.1","","101.46","","","","","","NA"
"-123.18","49.19","VANCOUVER INTL A","1108395","2022-10-16 03:00","2022","10","16","03:00","7.7","","7.0","","95","","","","0","","1","","24.1","","101.44","","","","","","NA"
"-123.18","49.19","VANCOUVER INTL A","1108395","2022-10-16 04:00","2022","10","16","04:00","7.4","","6.6","","94","","","","36","","2","","24.1","","101.43","","","","","","Clear"
"-123.18","49.19","VANCOUVER INTL A","1108395","2022-10-16 05:00","2022","10","16","05:00","8.0","","7.9","","99","","","","12","","3","","24.1","","101.41","","","","","","NA"
"-123.18","49.19","VANCOUVER INTL A","1108395","2022-10-16 06:00","2022","10","16","06:00","8.3","","8.3","","100","","","","31","","4","","24.1","","101.44","","","","","","NA"
"-123.18","49.19","VANCOUVER INTL A","1108395","2022-10-16 07:00","2022","10","16","07:00","7.0","","6.7","","97","","","","10","","8","","24.1","","101.46","","","","","","Clear"
"-123.18","49.19","VANCOUVER INTL A","1108395","2022-10-16 08:00","2022","10","16","08:00","11.5","","11.5","","100","","","","27","","3","","24.1","","101.48","","","","","","NA"
"-123.18","49.19","VANCOUVER INTL A","1108395","2022-10-16 09:00","2022","10","16","09:00","15.1","","13.6","","91","","","","27","","4","","24.1","","101.51","","","","","","NA"
"-123.18","49.19","VANCOUVER INTL A","1108395","2022-10-16 10:00","2022","10","16","10:00","17.3","","9.9","","62","","","","28","","5","","24.1","","101.52","","","","","","Clear"
"-123.18","49.19","VANCOUVER INTL A","1108395","2022-10-16 11:00","2022","10","16","11:00","17.8","","11.2","","65","","","","31","","7","","24.1","","101.51","","","","","","NA"
"-123.18","49.19","VANCOUVER INTL A","1108395","2022-10-16 12:00","2022","10","16","12:00","18.5","","10.3","","59","","","","30","","9","","24.1","","101.47","","","","","","NA"
"-123.18","49.19","VANCOUVER INTL A","1108395","2022-10-16 13:00","2022","10","16","13:00","19.9","","8.7","","48","","","","27","","8","","19.3","","101.41","","","","","","Clear"
"-123.18","49.19","VANCOUVER INTL A","1108395","2022-10-16 14:00","2022","10","16","14:00","19.0","","9.6","","54","","","","29","","8","","19.3","","101.36","","","","","","NA"
"-123.18","49.19","VANCOUVER INTL A","1108395","2022-10-16 15:00","2022","10","16","15:00","18.2","","9.1","","55","","","","28","","8","","19.3","","101.32","","","","","","NA"
"-123.18","49.19","VANCOUVER INTL A","1108395","2022-10-16 16:00","2022","10","16","16:00","16.7","","10.7","","67","","","","29","","6","","24.1","","101.29","","","","","","Mainly Clear"
"-123.18","49.19","VANCOUVER INTL A","1108395","2022-10-16 17:00","2022","10","16","17:00","14.3","","11.1","","81","","","","34","","6","","24.1","","101.26","","","","","","NA"
"-123.18","49.19","VANCOUVER INTL A","1108395","2022-10-16 18:00","2022","10","16","18:00","12.2","","11.1","","93","","","","31","","5","","16.1","","101.28","","","","","","NA"
"-123.18","49.19","VANCOUVER INTL A","1108395","2022-10-16 19:00","2022","10","16","19:00","11.7","","9.9","","89","","","","3","","4","","19.3","","101.29","","","","","","Mainly Clear"
"-123.18","49.19","VANCOUVER INTL A","1108395","2022-10-16 20:00","2022","10","16","20:00","13.0","","9.7","","80","","","","13","","5","","16.1","","101.32","","","","","","NA"
"-123.18","49.19","VANCOUVER INTL A","1108395","2022-10-16 21:00","2022","10","16","21:00","12.6","","9.3","","80","","","","12","","7","","16.1","","101.41","","","","","","NA"
"-123.18","49.19","VANCOUVER INTL A","1108395","2022-10-16 22:00","2022","10","16","22:00","10.6","","8.7","","88","","","","8","","12","","16.1","","101.47","","","","","","Mainly Clear"
"-123.18","49.19","VANCOUVER INTL A","1108395","2022-10-16 23:00","2022","10","16","23:00","12.7","","10.8","","88","","","","12","","19","","16.1","","101.55","","","","","","NA"
"-123.18","49.19","VANCOUVER INTL A","1108395","2022-10-17 00:00","2022","10","17","00:00","11.2","","10.0","","93","","","","10","","15","","19.3","","101.62","","","","","","NA"
"-123.18","49.19","VANCOUVER INTL A","1108395","2022-10-17 01:00","2022","10","17","01:00","10.8","","9.8","","93","","","","9","","19","","19.3","","101.70","","","","","","Mainly Clear"
"-123.18","49.19","VANCOUVER INTL A","1108395","2022-10-17 02:00","2022","10","17","02:00","12.1","","10.3","","88","","","","9","","21","","19.3","","101.73","","","","","","NA"
"-123.18","49.19","VANCOUVER INTL A","1108395","2022-10-17 03:00","2022","10","17","03:00","11.2","","10.5","","96","","","","9","","17","","19.3","","101.77","","","","","","NA"
"-123.18","49.19","VANCOUVER INTL A","1108395","2022-10-17 04:00","2022","10","17","04:00","11.4","","10.8","","96","","","","8","","12","","19.3","","101.79","","","","","","Clear"
"-123.18","49.19","VANCOUVER INTL A","1108395","2022-10-17 05:00","2022","10","17","05:00","10.7","","10.6","","99","","","","10","","19","","19.3","","101.81","","","","","","NA"
"-123.18","49.19","VANCOUVER INTL A","1108395","2022-10-17 06:00","2022","10","17","06:00","11.2","","11.0","","98","","","","9","","19","","16.1","","101.86","","","","","","NA"
"-123.18","49.19","VANCOUVER INTL A","1108395","2022-10-17 07:00","2022","10","17","07:00","11.2","","11.2","","100","","","","9","","14","","16.1","","101.94","","","","","","Mainly Clear"
"-123.18","49.19","VANCOUVER INTL A","1108395","2022-10-17 08:00","2022","10","17","08:00","12.9","","12.3","","96","","","","9","","18","","16.1","","101.98","","","","","","NA"
"-123.18","49.19","VANCOUVER INTL A","1108395","2022-10-17 09:00","2022","10","17","09:00","13.9","","12.7","","92","","","","9","","21","","19.3","","102.00","","","","","","NA"
"-123.18","49.19","VANCOUVER INTL A","1108395","2022-10-17 10:00","2022","10","17","10:00","15.2","","12.7","","85","","","","11","","22","","16.1","","102.01","","","","","","Mostly Cloudy"
"-123.18","49.19","VANCOUVER INTL A","1108395","2022-10-17 11:00","2022","10","17","11:00","16.3","","12.6","","78","","","","12","","17","","24.1","","102.01","","","","","","NA"
"-123.18","49.19","VANCOUVER INTL A","1108395","2022-10-17 12:00","2022","10","17","12:00","16.6","","11.9","","73","","","","14","","16","","24.1","","102.00","","","","","","NA"
"-123.18","49.19","VANCOUVER INTL A","1108395","2022-10-17 13:00","2022","10","17","13:00","17.0","","12.1","","72","","","","12","","16","","24.1","","101.95","","","","","","Mostly Cloudy"
"-123.18","49.19","VANCOUVER INTL A","1108395","2022-10-17 14:00","2022","10","17","14:00","17.5","","11.9","","70","","","","12","","17","","24.1","","101.90","","","","","","NA"
"-123.18","49.19","VANCOUVER INTL A","1108395","2022-10-17 15:00","2022","10","17","15:00","17.7","","12.0","","69","","","","12","","12","","24.1","","101.89","","","","","","NA"
"-123.18","49.19","VANCOUVER INTL A","1108395","2022-10-17 16:00","2022","10","17","16:00","16.9","","11.7","","71","","","","11","","11","","24.1","","101.87","","","","","","Clear"
"-123.18","49.19","VANCOUVER INTL A","1108395","2022-10-17 17:00","2022","10","17","17:00","15.7","","12.0","","79","","","","14","","6","","24.1","","101.89","","","","","","NA"
"-123.18","49.19","VANCOUVER INTL A","1108395","2022-10-17 18:00","2022","10","17","18:00","13.7","","11.6","","87","","","","9","","8","","24.1","","101.89","","","","","","NA"
"-123.18","49.19","VANCOUVER INTL A","1108395","2022-10-17 19:00","2022","10","17","19:00","14.1","","11.6","","85","","","","8","","5","","24.1","","101.97","","","","","","Mostly Cloudy"
"-123.18","49.19","VANCOUVER INTL A","1108395","2022-10-17 20:00","2022","10","17","20:00","13.0","","11.0","","87","","","","9","","9","","24.1","","101.97","","","","","","NA"
"-123.18","49.19","VANCOUVER INTL A","1108395","2022-10-17 21:00","2022","10","17","21:00","11.6","","10.8","","95","","","","10","","8","","24.1","","102.01","","","","","","NA"
"-123.18","49.19","VANCOUVER INTL A","1108395","2022-10-17 22:00","2022","10","17","22:00","11.6","","11.3","","98","","","","10","","9","","24.1","","102.04","","","","","","Mainly Clear"
"-123.18","49.19","VANCOUVER INTL A","1108395","2022-10-17 23:00","2022","10","17","23:00","11.5","","11.5","","100","","","","10","","13","","24.1","","102.04","","","","","","NA"
"-123.18","49.19","VANCOUVER INTL A","1108395","2022-10-18 00:00","2022","10","18","00:00","11.5","","11.5","","100","","","","10","","9","","19.3","","102.06","","","","","","NA"
"-123.18","49.19","VANCOUVER INTL A","1108395","2022-10-18 01:00","2022","10","18","01:00","10.2","","10.2","","100","","","","10","","4","","19.3","","102.07","","","","","","Mainly Clear"
"-123.18","49.19","VANCOUVER INTL A","1108395","2022-10-18 02:00","2022","10","18","02:00","9.3","","9.3","","100","","","","2","","4","","19.3","","102.10","","","","","","NA"
"-123.18","49.19","VANCOUVER INTL A","1108395","2022-10-18 03:00","2022","10","18","03:00","9.7","","9.7","","100","","","","36","","1","","19.3","","102.12","","","","","","NA"
"-123.18","49.19","VANCOUVER INTL A","1108395","2022-10-18 04:00","2022","10","18","04:00","8.9","","8.9","","100","","","","34","","4","","19.3","","102.16","","","","","","Mainly Clear"
"-123.18","49.19","VANCOUVER INTL A","1108395","2022-10-18 05:00","2022","10","18","05:00","8.2","","8.2","","100","","","","8","","4","","19.3","","102.19","","","","","","NA"
"-123.18","49.19","VANCOUVER INTL A","1108395","2022-10-18 06:00","2022","10","18","06:00","9.5","","9.5","","100","","","","10","","10","","16.1","","102.20","","","","","","NA"
"-123.18","49.19","VANCOUVER INTL A","1108395","2022-10-18 07:00","2022","10","18","07:00","9.1","","9.1","","100","","","","9","","8","","8.1","","102.28","","","","","","Fog"
"-123.18","49.19","VANCOUVER INTL A","1108395","2022-10-18 08:00","2022","10","18","08:00","10.7","","10.7","","100","","","","36","","6","","9.7","","102.35","","","","","","Fog,Haze"
"-123.18","49.19","VANCOUVER INTL A","1108395","2022-10-18 09:00","2022","10","18","09:00","13.6","","12.8","","95","","","","18","","5","","9.7","","102.38","","","","","","Fog"
"-123.18","49.19","VANCOUVER INTL A","1108395","2022-10-18 10:00","2022","10","18","10:00","14.5","","12.8","","89","","","","28","","7","","9.7","","102.41","","","","","","Fog"
"-123.18","49.19","VANCOUVER INTL A","1108395","2022-10-18 11:00","2022","10","18","11:00","15.0","","11.5","","79","","","","25","","11","","9.7","","102.41","","","","","","Fog,Smoke"
"-123.18","49.19","VANCOUVER INTL A","1108395","2022-10-18 12:00","2022","10","18","12:00","16.0","","11.6","","75","","","","27","","8","","9.7","","102.36","","","","","","Fog,Smoke"
"-123.18","49.19","VANCOUVER INTL A","1108395","2022-10-18 13:00","2022","10","18","13:00","15.6","","12.4","","81","","","","24","","10","","16.1","","102.32","","","","","","Mainly Clear"
"-123.18","49.19","VANCOUVER INTL A","1108395","2022-10-18 14:00","2022","10","18","14:00","15.9","","11.4","","75","","","","25","","8","","16.1","","102.32","","","","","","NA"
"-123.18","49.19","VANCOUVER INTL A","1108395","2022-10-18 15:00","2022","10","18","15:00","16.2","","12.0","","76","","","","29","","9","","4.8","","102.31","","","","","","Fog,Smoke"
"-123.18","49.19","VANCOUVER INTL A","1108395","2022-10-18 16:00","2022","10","18","16:00","15.0","","13.0","","88","","","","30","","8","","4.8","","102.32","","","","","","Fog,Smoke"
"-123.18","49.19","VANCOUVER INTL A","1108395","2022-10-18 17:00","2022","10","18","17:00","13.6","","13.4","","99","","","","25","","5","","3.6","","102.30","","","","","","Fog,Smoke"
"-123.18","49.19","VANCOUVER INTL A","1108395","2022-10-18 18:00","2022","10","18","18:00","10.2","","10.2","","100","","","","29","","5","","8.1","","102.32","","","","","","Smoke"
"-123.18","49.19","VANCOUVER INTL A","1108395","2022-10-18 19:00","2022","10","18","19:00","10.3","","10.3","","100","","","","35","","4","","8.1","","102.38","","","","","","Smoke"
"-123.18","49.19","VANCOUVER INTL A","1108395","2022-10-18 20:00","2022","10","18","20:00","11.8","","11.6","","99","","","","11","","3","","6.4","","102.42","","","","","","Smoke"
"-123.18","49.19","VANCOUVER INTL A","1108395","2022-10-18 21:00","2022","10","18","21:00","9.4","","9.4","","100","","","","30","","4","","6.4","","102.46","","","","","","Smoke"
"-123.18","49.19","VANCOUVER INTL A","1108395","2022-10-18 22:00","2022","10","18","22:00","11.0","","11.0","","100","","","","20","","3","","6.4","","102.47","","","","","","Smoke"
"-123.18","49.19","VANCOUVER INTL A","1108395","2022-10-18 23:00","2022","10","18","23:00","9.9","","9.9","","100","","","","32","","5","","6.4","","102.55","","","","","","Smoke"
"-123.18","49.19","VANCOUVER INTL A","1108395","2022-10-19 00:00","2022","10","19","00:00","8.8","","8.8","","100","","","","14","","5","","4.8","","102.54","","","","","","Smoke"
"-123.18","49.19","VANCOUVER INTL A","1108395","2022-10-19 01:00","2022","10","19","01:00","8.2","","8.2","","100","","","","9","","5","","4.8","","102.59","","","","","","Smoke"
"-123.18","49.19","VANCOUVER INTL A","1108395","2022-10-19 02:00","2022","10","19","02:00","9.1","","9.1","","100","","","","11","","6","","4.8","","102.60","","","","","","Smoke"
"-123.18","49.19","VANCOUVER INTL A","1108395","2022-10-19 03:00","2022","10","19","03:00","7.6","","7.6","","100","","","","36","","3","","4.8","","102.59","","","","","","Smoke"
"-123.18","49.19","VANCOUVER INTL A","1108395","2022-10-19 04:00","2022","10","19","04:00","7.6","","7.6","","100","","","","10","","4","","4.8","","102.57","","","","","","Smoke"
"-123.18","49.19","VANCOUVER INTL A","1108395","2022-10-19 05:00","2022","10","19","05:00","7.9","","7.9","","100","","","","36","","2","","4.0","","102.61","","","","","","Smoke"
"-123.18","49.19","VANCOUVER INTL A","1108395","2022-10-19 06:00","2022","10","19","06:00","8.6","","8.6","","100","","","","11","","4","","3.2","","102.61","","","","","","Smoke"
"-123.18","49.19","VANCOUVER INTL A","1108395","2022-10-19 07:00","2022","10","19","07:00","7.2","","7.2","","100","","","","36","","3","","3.2","","102.64","","","","","","Fog,Smoke"
"-123.18","49.19","VANCOUVER INTL A","1108395","2022-10-19 08:00","2022","10","19","08:00","9.1","","9.1","","100","","","","14","","7","","3.2","","102.66","","","","","","Fog,Smoke"
"-123.18","49.19","VANCOUVER INTL A","1108395","2022-10-19 09:00","2022","10","19","09:00","11.1","","11.1","","100","","","","21","","5","","1.6","","102.73","","","","","","Fog,Smoke"
"-123.18","49.19","VANCOUVER INTL A","1108395","2022-10-19 10:00","2022","10","19","10:00","12.7","","12.7","","100","","","","22","","7","","3.2","","102.70","","","","","","Fog,Smoke"
"-123.18","49.19","VANCOUVER INTL A","1108395","2022-10-19 11:00","2022","10","19","11:00","12.5","","12.5","","100","","","","25","","10","","4.8","","102.71","","","","","","Fog,Smoke"
"-123.18","49.19","VANCOUVER INTL A","1108395","2022-10-19 12:00","2022","10","19","12:00","13.0","","13.0","","100","","","","23","","10","","9.7","","102.66","","","","","","Fog,Smoke"
"-123.18","49.19","VANCOUVER INTL A","1108395","2022-10-19 13:00","2022","10","19","13:00","12.9","","12.9","","100","","","","22","","8","","9.7","","102.56","","","","","","Fog,Smoke"
"-123.18","49.19","VANCOUVER INTL A","1108395","2022-10-19 14:00","2022","10","19","14:00","13.7","","13.6","","99","","","","25","","9","","9.7","","102.52","","","","","","Smoke"
"-123.18","49.19","VANCOUVER INTL A","1108395","2022-10-19 15:00","2022","10","19","15:00","12.6","","12.6","","100","","","","24","","9","","19.3","","102.47","","","","","","NA"
"-123.18","49.19","VANCOUVER INTL A","1108395","2022-10-19 16:00","2022","10","19","16:00","12.1","","12.1","","100","","","","19","","5","","24.1","","102.39","","","","","","Mostly Cloudy"
"-123.18","49.19","VANCOUVER INTL A","1108395","2022-10-19 17:00","2022","10","19","17:00","11.4","","11.4","","100","","","","23","","7","","24.1","","102.38","","","","","","NA"
"-123.18","49.19","VANCOUVER INTL A","1108395","2022-10-19 18:00","2022","10","19","18:00","10.3","","10.3","","100","","","","30","","4","","24.1","","102.36","","","","","","NA"
"-123.18","49.19","VANCOUVER INTL A","1108395","2022-10-19 19:00","2022","10","19","19:00","10.5","","10.5","","100","","","","36","","2","","24.1","","102.32","","","","","","Mainly Clear"
"-123.18","49.19","VANCOUVER INTL A","1108395","2022-10-19 20:00","2022","10","19","20:00","10.6","","10.6","","100","","","","7","","4","","24.1","","102.30","","","","","","NA"
"-123.18","49.19","VANCOUVER INTL A","1108395","2022-10-19 21:00","2022","10","19","21:00","11.4","","11.4","","100","","","","11","","5","","24.1","","102.24","","","","","","NA"
"-123.18","49.19","VANCOUVER INTL A","1108395","2022-10-19 22:00","2022","10","19","22:00","11.2","","11.2","","100","","","","13","","3","","24.1","","102.25","","","","","","Mainly Clear"
"-123.18","49.19","VANCOUVER INTL A","1108395","2022-10-19 23:00","2022","10","19","23:00","10.9","","10.9","","100","","","","11","","7","","24.1","","102.19","","","","","","NA"
"-123.18","49.19","VANCOUVER INTL A","1108395","2022-10-20 00:00","2022","10","20","00:00","11.1","","11.1","","100","","","","5","","4","","19.3","","102.18","","","","","","NA"
"-123.18","49.19","VANCOUVER INTL A","1108395","2022-10-20 01:00","2022","10","20","01:00","9.7","","9.7","","100","","","","8","","7","","12.9","","102.15","","","","","","Mainly Clear"
"-123.18","49.19","VANCOUVER INTL A","1108395","2022-10-20 02:00","2022","10","20","02:00","10.6","","10.6","","100","","","","11","","12","","6.4","","102.08","","","","","","Fog"
"-123.18","49.19","VANCOUVER INTL A","1108395","2022-10-20 03:00","2022","10","20","03:00","10.7","","10.7","","100","","","","10","","8","","6.4","","102.03","","","","","","Fog"
"-123.18","49.19","VANCOUVER INTL A","1108395","2022-10-20 04:00","2022","10","20","04:00","10.1","","10.1","","100","","","","10","","12","","6.4","","101.96","","","","","","Fog"
"-123.18","49.19","VANCOUVER INTL A","1108395","2022-10-20 05:00","2022","10","20","05:00","11.3","","11.3","","100","","","","9","","7","","6.4","","101.95","","","","","","Fog"
"-123.18","49.19","VANCOUVER INTL A","1108395","2022-10-20 06:00","2022","10","20","06:00","12.0","","12.0","","100","","","","13","","5","","6.4","","101.92","","","","","","Fog"
"-123.18","49.19","VANCOUVER INTL A","1108395","2022-10-20 07:00","2022","10","20","07:00","11.8","","11.8","","100","","","","36","","2","","6.4","","101.95","","","","","","Fog"
"-123.18","49.19","VANCOUVER INTL A","1108395","2022-10-20 08:00","2022","10","20","08:00","12.1","","12.1","","100","","","","14","","8","","4.8","","101.92","","","","","","Fog"
"-123.18","49.19","VANCOUVER INTL A","1108395","2022-10-20 09:00","2022","10","20","09:00","12.8","","12.8","","100","","","","12","","9","","6.4","","101.92","","","","","","Fog"
"-123.18","49.19","VANCOUVER INTL A","1108395","2022-10-20 10:00","2022","10","20","10:00","13.9","","13.4","","97","","","","11","","6","","6.4","","101.89","","","","","","Fog"
"-123.18","49.19","VANCOUVER INTL A","1108395","2022-10-20 11:00","2022","10","20","11:00","15.7","","13.4","","86","","","","10","","7","","16.1","","101.84","","","","","","NA"
"-123.18","49.19","VANCOUVER INTL A","1108395","2022-10-20 12:00","2022","10","20","12:00","16.2","","12.9","","80","","","","22","","11","","16.1","","101.76","","","","","","NA"
"-123.18","49.19","VANCOUVER INTL A","1108395","2022-10-20 13:00","2022","10","20","13:00","16.7","","12.3","","75","","","","22","","10","","24.1","","101.68","","","","","","Mainly Clear"
"-123.18","49.19","VANCOUVER INTL A","1108395","2022-10-20 14:00","2022","10","20","14:00","16.4","","11.9","","74","","","","21","","14","","24.1","","101.62","","","","","","NA"
"-123.18","49.19","VANCOUVER INTL A","1108395","2022-10-20 15:00","2022","10","20","15:00","15.6","","11.4","","76","","","","21","","13","","32.2","","101.59","","","","","","NA"
"-123.18","49.19","VANCOUVER INTL A","1108395","2022-10-20 16:00","2022","10","20","16:00","14.7","","10.8","","77","","","","19","","8","","32.2","","101.54","","","","","","Mostly Cloudy"
"-123.18","49.19","VANCOUVER INTL A","1108395","2022-10-20 17:00","2022","10","20","17:00","15.0","","6.7","","57","","","","22","","13","","32.2","","101.54","","","","","","NA"
"-123.18","49.19","VANCOUVER INTL A","1108395","2022-10-20 18:00","2022","10","20","18:00","14.2","","7.4","","64","","","","26","","12","","24.1","","101.52","","","","","","NA"
"-123.18","49.19","VANCOUVER INTL A","1108395","2022-10-20 19:00","2022","10","20","19:00","13.1","","8.0","","71","","","","30","","9","","24.1","","101.51","","","","","","Mostly Cloudy"
"-123.18","49.19","VANCOUVER INTL A","1108395","2022-10-20 20:00","2022","10","20","20:00","13.1","","6.5","","64","","","","27","","22","","24.1","","101.41","","","","","","NA"
"-123.18","49.19","VANCOUVER INTL A","1108395","2022-10-20 21:00","2022","10","20","21:00","12.9","","7.1","","67","","","","29","","20","","24.1","","101.47","","","","","","NA"
"-123.18","49.19","VANCOUVER INTL A","1108395","2022-10-20 22:00","2022","10","20","22:00","12.3","","7.9","","74","","","","29","","16","","24.1","","101.31","","","","","","Mainly Clear"
"-123.18","49.19","VANCOUVER INTL A","1108395","2022-10-20 23:00","2022","10","20","23:00","12.6","","6.4","","66","","","","32","","17","","24.1","","101.34","","","","","","NA"
"-123.18","49.19","VANCOUVER INTL A","1108395","2022-10-21 00:00","2022","10","21","00:00","11.9","","5.7","","66","","","","29","","32","","24.1","","101.33","","","","","","NA"
"-123.18","49.19","VANCOUVER INTL A","1108395","2022-10-21 01:00","2022","10","21","01:00","11.7","","6.6","","71","","","","28","","35","","24.1","","101.31","","","","","","Mainly Clear"
"-123.18","49.19","VANCOUVER INTL A","1108395","2022-10-21 02:00","2022","10","21","02:00","11.7","","6.5","","70","","","","29","","30","","24.1","","101.30","","","","","","NA"
"-123.18","49.19","VANCOUVER INTL A","1108395","2022-10-21 03:00","2022","10","21","03:00","11.7","","5.9","","67","","","","28","","28","","24.1","","101.20","","","","","","NA"
"-123.18","49.19","VANCOUVER INTL A","1108395","2022-10-21 04:00","2022","10","21","04:00","11.6","","5.6","","67","","","","27","","24","","24.1","","101.20","","","","","","Cloudy"
"-123.18","49.19","VANCOUVER INTL A","1108395","2022-10-21 05:00","2022","10","21","05:00","10.7","","6.8","","76","","","","27","","24","","24.1","","101.25","","","","","","Rain"
"-123.18","49.19","VANCOUVER INTL A","1108395","2022-10-21 06:00","2022","10","21","06:00","10.0","","7.5","","84","","","","30","","15","","24.1","","101.20","","","","","","Rain"
"-123.18","49.19","VANCOUVER INTL A","1108395","2022-10-21 07:00","2022","10","21","07:00","9.9","","7.9","","87","","","","3","","12","","11.3","","101.17","","","","","","Rain"
"-123.18","49.19","VANCOUVER INTL A","1108395","2022-10-21 08:00","2022","10","21","08:00","8.7","","8.3","","97","","","","32","","9","","8.1","","101.19","","","","","","Rain,Fog"
"-123.18","49.19","VANCOUVER INTL A","1108395","2022-10-21 09:00","2022","10","21","09:00","8.8","","7.5","","91","","","","36","","1","","16.1","","101.11","","","","","","Rain,Fog"
"-123.18","49.19","VANCOUVER INTL A","1108395","2022-10-21 10:00","2022","10","21","10:00","9.3","","8.0","","91","","","","16","","3","","9.7","","101.07","","","","","","Rain,Fog"
"-123.18","49.19","VANCOUVER INTL A","1108395","2022-10-21 11:00","2022","10","21","11:00","9.6","","7.7","","87","","","","18","","7","","19.3","","100.97","","","","","","Rain"
"-123.18","49.19","VANCOUVER INTL A","1108395","2022-10-21 12:00","2022","10","21","12:00","10.7","","7.4","","80","","","","20","","5","","24.1","","100.87","","","","","","NA"
"-123.18","49.19","VANCOUVER INTL A","1108395","2022-10-21 13:00","2022","10","21","13:00","10.6","","6.4","","75","","","","21","","7","","24.1","","100.80","","","","","","Mostly Cloudy"
"-123.18","49.19","VANCOUVER INTL A","1108395","2022-10-21 14:00","2022","10","21","14:00","10.6","","6.9","","78","","","","20","","11","","24.1","","100.73","","","","","","NA"
"-123.18","49.19","VANCOUVER INTL A","1108395","2022-10-21 15:00","2022","10","21","15:00","10.4","","6.5","","77","","","","21","","10","","24.1","","100.65","","","","","","NA"
"-123.18","49.19","VANCOUVER INTL A","1108395","2022-10-21 16:00","2022","10","21","16:00","9.8","","7.0","","83","","","","18","","11","","24.1","","100.61","","","","","","Cloudy"
"-123.18","49.19","VANCOUVER INTL A","1108395","2022-10-21 17:00","2022","10","21","17:00","9.4","","7.9","","90","","","","18","","6","","24.1","","100.55","","","","","","NA"
"-123.18","49.19","VANCOUVER INTL A","1108395","2022-10-21 18:00","2022","10","21","18:00","9.1","","7.7","","91","","","","17","","7","","24.1","","100.51","","","","","","NA"
"-123.18","49.19","VANCOUVER INTL A","1108395","2022-10-21 19:00","2022","10","21","19:00","9.2","","8.3","","94","","","","13","","6","","24.1","","100.46","","","","","","Mostly Cloudy"
"-123.18","49.19","VANCOUVER INTL A","1108395","2022-10-21 20:00","2022","10","21","20:00","9.0","","8.5","","97","","","","12","","7","","19.3","","100.42","","","","","","Rain"
"-123.18","49.19","VANCOUVER INTL A","1108395","2022-10-21 21:00","2022","10","21","21:00","7.9","","7.9","","100","","","","12","","8","","24.1","","100.41","","","","","","NA"
"-123.18","49.19","VANCOUVER INTL A","1108395","2022-10-21 22:00","2022","10","21","22:00","8.6","","8.6","","100","","","","14","","7","","19.3","","100.40","","","","","","Mostly Cloudy"
"-123.18","49.19","VANCOUVER INTL A","1108395","2022-10-21 23:00","2022","10","21","23:00","8.7","","8.7","","100","","","","9","","4","","19.3","","100.40","","","","","","NA"
"-123.18","49.19","VANCOUVER INTL A","1108395","2022-10-22 00:00","2022","10","22","00:00","8.4","","8.4","","100","","","","14","","6","","19.3","","100.39","","","","","","NA"
"-123.18","49.19","VANCOUVER INTL A","1108395","2022-10-22 01:00","2022","10","22","01:00","8.4","","8.4","","100","","","","9","","5","","19.3","","100.41","","","","","","Mostly Cloudy"
"-123.18","49.19","VANCOUVER INTL A","1108395","2022-10-22 02:00","2022","10","22","02:00","8.4","","8.4","","100","","","","10","","9","","19.3","","100.44","","","","","","NA"
"-123.18","49.19","VANCOUVER INTL A","1108395","2022-10-22 03:00","2022","10","22","03:00","8.4","","8.4","","100","","","","10","","7","","19.3","","100.44","","","","","","NA"
"-123.18","49.19","VANCOUVER INTL A","1108395","2022-10-22 04:00","2022","10","22","04:00","8.1","","8.1","","100","","","","10","","7","","19.3","","100.45","","","","","","Cloudy"
"-123.18","49.19","VANCOUVER INTL A","1108395","2022-10-22 05:00","2022","10","22","05:00","7.9","","7.9","","100","","","","10","","8","","19.3","","100.49","","","","","","NA"
"-123.18","49.19","VANCOUVER INTL A","1108395","2022-10-22 06:00","2022","10","22","06:00","8.1","","8.1","","100","","","","10","","10","","19.3","","100.54","","","","","","NA"
"-123.18","49.19","VANCOUVER INTL A","1108395","2022-10-22 07:00","2022","10","22","07:00","8.4","","8.4","","100","","","","9","","12","","16.1","","100.58","","","","","","Mostly Cloudy"
"-123.18","49.19","VANCOUVER INTL A","1108395","2022-10-22 08:00","2022","10","22","08:00","8.9","","8.6","","98","","","","9","","11","","16.1","","100.62","","","","","","NA"
"-123.18","49.19","VANCOUVER INTL A","1108395","2022-10-22 09:00","2022","10","22","09:00","9.3","","8.7","","96","","","","10","","12","","16.1","","100.66","","","","","","NA"
"-123.18","49.19","VANCOUVER INTL A","1108395","2022-10-22 10:00","2022","10","22","10:00","9.1","","8.8","","98","","","","14","","9","","11.3","","100.70","","","","","","Rain"
"-123.18","49.19","VANCOUVER INTL A","1108395","2022-10-22 11:00","2022","10","22","11:00","9.9","","8.6","","91","","","","15","","7","","16.1","","100.72","","","","","","NA"
"-123.18","49.19","VANCOUVER INTL A","1108395","2022-10-22 12:00","2022","10","22","12:00","11.3","","9.1","","86","","","","36","","2","","16.1","","100.74","","","","","","NA"
"-123.18","49.19","VANCOUVER INTL A","1108395","2022-10-22 13:00","2022","10","22","13:00","10.6","","7.6","","81","","","","27","","8","","16.1","","100.72","","","","","","Mostly Cloudy"
"-123.18","49.19","VANCOUVER INTL A","1108395","2022-10-22 14:00","2022","10","22","14:00","11.8","","6.7","","71","","","","26","","8","","16.1","","100.75","","","","","","NA"
"-123.18","49.19","VANCOUVER INTL A","1108395","2022-10-22 15:00","2022","10","22","15:00","11.4","","6.8","","73","","","","29","","11","","24.1","","100.78","","","","","","NA"
"-123.18","49.19","VANCOUVER INTL A","1108395","2022-10-22 16:00","2022","10","22","16:00","10.7","","6.8","","77","","","","29","","10","","24.1","","100.82","","","","","","Mainly Clear"
"-123.18","49.19","VANCOUVER INTL A","1108395","2022-10-22 17:00","2022","10","22","17:00","9.1","","6.0","","81","","","","35","","9","","24.1","","100.85","","","","","","NA"
"-123.18","49.19","VANCOUVER INTL A","1108395","2022-10-22 18:00","2022","10","22","18:00","8.7","","6.4","","86","","","","36","","2","","24.1","","100.91","","","","","","NA"
"-123.18","49.19","VANCOUVER INTL A","1108395","2022-10-22 19:00","2022","10","22","19:00","7.8","","6.5","","92","","","","29","","3","","24.1","","100.98","","","","","","Mainly Clear"
"-123.18","49.19","VANCOUVER INTL A","1108395","2022-10-22 20:00","2022","10","22","20:00","7.3","","6.2","","92","","","","5","","4","","24.1","","101.04","","","","","","NA"
"-123.18","49.19","VANCOUVER INTL A","1108395","2022-10-22 21:00","2022","10","22","21:00","6.7","","6.1","","96","","","","3","","5","","24.1","","101.10","","","","","","NA"
"-123.18","49.19","VANCOUVER INTL A","1108395","2022-10-22 22:00","2022","10","22","22:00","8.3","","6.6","","89","","","","6","","10","","24.1","","101.18","","","","","","Mainly Clear"
"-123.18","49.19","VANCOUVER INTL A","1108395","2022-10-22 23:00","2022","10","22","23:00","6.1","","6.1","","100","","","","0","","1","","24.1","","101.24","","","","","","NA"
"-123.18","49.19","VANCOUVER INTL A","1108395","2022-10-23 00:00","2022","10","23","00:00","5.9","","5.9","","100","","","","8","","7","","19.3","","101.29","","","","","","NA"
"-123.18","49.19","VANCOUVER INTL A","1108395","2022-10-23 01:00","2022","10","23","01:00","5.8","","5.8","","100","","","","8","","7","","19.3","","101.35","","","","","","Mainly Clear"
"-123.18","49.19","VANCOUVER INTL A","1108395","2022-10-23 02:00","2022","10","23","02:00","3.8","","3.8","","100","","","","33","","12","","19.3","","101.42","","","","","","NA"
"-123.18","49.19","VANCOUVER INTL A","1108395","2022-10-23 03:00","2022","10","23","03:00","6.8","","6.3","","97","","","","4","","4","","19.3","","101.48","","","","","","NA"
"-123.18","49.19","VANCOUVER INTL A","1108395","2022-10-23 04:00","2022","10","23","04:00","7.0","","7.0","","100","","","","11","","5","","19.3","","101.57","","","","","","Mostly Cloudy"
"-123.18","49.19","VANCOUVER INTL A","1108395","2022-10-23 05:00","2022","10","23","05:00","6.9","","6.9","","100","","","","32","","3","","19.3","","101.67","","","","","","NA"
"-123.18","49.19","VANCOUVER INTL A","1108395","2022-10-23 06:00","2022","10","23","06:00","8.0","","7.3","","95","","","","7","","7","","19.3","","101.74","","","","","","NA"
"-123.18","49.19","VANCOUVER INTL A","1108395","2022-10-23 07:00","2022","10","23","07:00","7.6","","7.4","","99","","","","10","","10","","24.1","","101.81","","","","","","Mostly Cloudy"
"-123.18","49.19","VANCOUVER INTL A","1108395","2022-10-23 08:00","2022","10","23","08:00","8.3","","7.8","","96","","","","11","","9","","24.1","","101.86","","","","","","NA"
"-123.18","49.19","VANCOUVER INTL A","1108395","2022-10-23 09:00","2022","10","23","09:00","8.7","","7.0","","89","","","","10","","10","","24.1","","101.92","","","","","","NA"
"-123.18","49.19","VANCOUVER INTL A","1108395","2022-10-23 10:00","2022","10","23","10:00","9.7","","6.5","","80","","","","11","","10","","24.1","","102.02","","","","","","Cloudy"
"-123.18","49.19","VANCOUVER INTL A","1108395","2022-10-23 11:00","2022","10","23","11:00","10.2","","5.9","","74","","","","10","","12","","24.1","","102.06","","","","","","NA"
"-123.18","49.19","VANCOUVER INTL A","1108395","2022-10-23 12:00","2022","10","23","12:00","10.8","","6.5","","74","","","","11","","10","","24.1","","102.03","","","","","","NA"
"-123.18","49.19","VANCOUVER INTL A","1108395","2022-10-23 13:00","2022","10","23","13:00","11.8","","5.8","","66","","","","11","","15","","24.1","","102.01","","","","","","Mostly Cloudy"
"-123.18","49.19","VANCOUVER INTL A","1108395","2022-10-23 14:00","2022","10","23","14:00","11.5","","6.3","","70","","","","13","","16","","24.1","","102.01","","","","","","NA"
"-123.18","49.19","VANCOUVER INTL A","1108395","2022-10-23 15:00","2022","10","23","15:00","11.5","","6.8","","73","","","","14","","13","","24.1","","102.03","","","","","","NA"
"-123.18","49.19","VANCOUVER INTL A","1108395","2022-10-23 16:00","2022","10","23","16:00","10.8","","7.8","","82","","","","11","","16","","24.1","","102.04","","","","","","Cloudy"
"-123.18","49.19","VANCOUVER INTL A","1108395","2022-10-23 17:00","2022","10","23","17:00","10.2","","7.7","","84","","","","11","","16","","24.1","","102.00","","","","","","NA"
"-123.18","49.19","VANCOUVER INTL A","1108395","2022-10-23 18:00","2022","10","23","18:00","10.3","","7.9","","85","","","","11","","16","","24.1","","102.00","","","","","","NA"
"-123.18","49.19","VANCOUVER INTL A","1108395","2022-10-23 19:00","2022","10","23","19:00","10.1","","8.5","","89","","","","11","","15","","20.9","","101.90","","","","","","Rain"
"-123.18","49.19","VANCOUVER INTL A","1108395","2022-10-23 20:00","2022","10","23","20:00","9.8","","8.6","","93","","","","12","","4","","24.1","","101.89","","","","","","Rain"
"-123.18","49.19","VANCOUVER INTL A","1108395","2022-10-23 21:00","2022","10","23","21:00","8.1","","8.1","","100","","","","16","","7","","19.3","","101.90","","","","","","Moderate Rain"
"-123.18","49.19","VANCOUVER INTL A","1108395","2022-10-23 22:00","2022","10","23","22:00","7.6","","7.2","","98","","","","15","","8","","19.3","","101.82","","","","","","Moderate Rain"
"-123.18","49.19","VANCOUVER INTL A","1108395","2022-10-23 23:00","2022","10","23","23:00","7.5","","7.5","","100","","","","7","","13","","19.3","","101.71","","","","","","Moderate Rain"
"-123.18","49.19","VANCOUVER INTL A","1108395","2022-10-24 00:00","2022","10","24","00:00","7.6","","7.6","","100","","","","6","","20","","19.3","","101.56","","","","","","Rain"
"-123.18","49.19","VANCOUVER INTL A","1108395","2022-10-24 01:00","2022","10","24","01:00","8.0","","8.0","","100","","","","8","","20","","24.1","","101.43","","","","","","Rain"
"-123.18","49.19","VANCOUVER INTL A","1108395","2022-10-24 02:00","2022","10","24","02:00","8.1","","8.1","","100","","","","12","","26","","19.3","","101.33","","","","","","Rain"
"-123.18","49.19","VANCOUVER INTL A","1108395","2022-10-24 03:00","2022","10","24","03:00","8.2","","8.2","","100","","","","11","","21","","16.1","","101.25","","","","","","Moderate Rain"
"-123.18","49.19","VANCOUVER INTL A","1108395","2022-10-24 04:00","2022","10","24","04:00","8.4","","8.4","","100","","","","12","","23","","24.1","","101.16","","","","","","Rain"
"-123.18","49.19","VANCOUVER INTL A","1108395","2022-10-24 05:00","2022","10","24","05:00","8.5","","8.5","","100","","","","9","","16","","24.1","","101.10","","","","","","NA"
"-123.18","49.19","VANCOUVER INTL A","1108395","2022-10-24 06:00","2022","10","24","06:00","8.2","","8.2","","100","","","","7","","17","","24.1","","101.08","","","","","","Rain"
"-123.18","49.19","VANCOUVER INTL A","1108395","2022-10-24 07:00","2022","10","24","07:00","8.4","","8.4","","100","","","","6","","16","","19.3","","101.07","","","","","","Cloudy"
"-123.18","49.19","VANCOUVER INTL A","1108395","2022-10-24 08:00","2022","10","24","08:00","7.6","","7.6","","100","","","","6","","14","","19.3","","101.09","","","","","","NA"
"-123.18","49.19","VANCOUVER INTL A","1108395","2022-10-24 09:00","2022","10","24","09:00","7.7","","7.7","","100","","","","6","","16","","16.1","","101.13","","","","","","NA"
"-123.18","49.19","VANCOUVER INTL A","1108395","2022-10-24 10:00","2022","10","24","10:00","8.8","","8.7","","100","","","","6","","14","","16.1","","101.17","","","","","","Cloudy"
"-123.18","49.19","VANCOUVER INTL A","1108395","2022-10-24 11:00","2022","10","24","11:00","10.1","","9.3","","95","","","","8","","13","","24.1","","101.20","","","","","","NA"
"-123.18","49.19","VANCOUVER INTL A","1108395","2022-10-24 12:00","2022","10","24","12:00","11.5","","10.4","","93","","","","8","","14","","24.1","","101.20","","","","","","NA"
"-123.18","49.19","VANCOUVER INTL A","1108395","2022-10-24 13:00","2022","10","24","13:00","11.6","","9.9","","89","","","","10","","13","","24.1","","101.22","","","","","","Mostly Cloudy"
"-123.18","49.19","VANCOUVER INTL A","1108395","2022-10-24 14:00","2022","10","24","14:00","11.8","","10.4","","91","","","","10","","12","","24.1","","101.24","","","","","","NA"
"-123.18","49.19","VANCOUVER INTL A","1108395","2022-10-24 15:00","2022","10","24","15:00","13.0","","9.4","","78","","","","5","","6","","24.1","","101.26","","","","","","NA"
"-123.18","49.19","VANCOUVER INTL A","1108395","2022-10-24 16:00","2022","10","24","16:00","12.5","","7.6","","72","","","","24","","5","","24.1","","101.30","","","","","","Mainly Clear"
"-123.18","49.19","VANCOUVER INTL A","1108395","2022-10-24 17:00","2022","10","24","17:00","10.7","","7.8","","82","","","","30","","32","","4.8","","101.40","","","","","","Rain,Fog"
"-123.18","49.19","VANCOUVER INTL A","1108395","2022-10-24 18:00","2022","10","24","18:00","9.4","","9.1","","98","","","","28","","22","","24.1","","101.50","","","","","","Rain"
"-123.18","49.19","VANCOUVER INTL A","1108395","2022-10-24 19:00","2022","10","24","19:00","10.1","","9.9","","99","","","","25","","28","","24.1","","101.51","","","","","","Mostly Cloudy"
"-123.18","49.19","VANCOUVER INTL A","1108395","2022-10-24 20:00","2022","10","24","20:00","9.8","","9.2","","96","","","","27","","32","","32.2","","101.61","","","","","","NA"
"-123.18","49.19","VANCOUVER INTL A","1108395","2022-10-24 21:00","2022","10","24","21:00","9.3","","8.2","","93","","","","28","","27","","32.2","","101.68","","","","","","NA"
"-123.18","49.19","VANCOUVER INTL A","1108395","2022-10-24 22:00","2022","10","24","22:00","9.4","","8.4","","94","","","","27","","27","","32.2","","101.74","","","","","","Mainly Clear"
"-123.18","49.19","VANCOUVER INTL A","1108395","2022-10-24 23:00","2022","10","24","23:00","9.6","","7.8","","88","","","","26","","27","","32.2","","101.79","","","","","","NA"
"-123.18","49.19","VANCOUVER INTL A","1108395","2022-10-25 00:00","2022","10","25","00:00","9.9","","8.8","","93","","","","26","","23","","32.2","","101.89","","","","","","NA"
"-123.18","49.19","VANCOUVER INTL A","1108395","2022-10-25 01:00","2022","10","25","01:00","9.8","","8.2","","90","","","","23","","17","","32.2","","101.92","","","","","","Mostly Cloudy"
"-123.18","49.19","VANCOUVER INTL A","1108395","2022-10-25 02:00","2022","10","25","02:00","9.8","","8.5","","91","","","","23","","8","","32.2","","101.93","","","","","","NA"
"-123.18","49.19","VANCOUVER INTL A","1108395","2022-10-25 03:00","2022","10","25","03:00","9.4","","7.8","","90","","","","25","","10","","32.2","","101.93","","","","","","NA"
"-123.18","49.19","VANCOUVER INTL A","1108395","2022-10-25 04:00","2022","10","25","04:00","8.2","","8.2","","100","","","","7","","11","","32.2","","101.89","","","","","","Cloudy"
"-123.18","49.19","VANCOUVER INTL A","1108395","2022-10-25 05:00","2022","10","25","05:00","7.9","","7.9","","100","","","","7","","10","","32.2","","101.93","","","","","","NA"
"-123.18","49.19","VANCOUVER INTL A","1108395","2022-10-25 06:00","2022","10","25","06:00","8.3","","8.3","","100","","","","8","","12","","32.2","","101.88","","","","","","NA"
"-123.18","49.19","VANCOUVER INTL A","1108395","2022-10-25 07:00","2022","10","25","07:00","8.1","","8.1","","100","","","","7","","13","","19.3","","101.86","","","","","","Cloudy"
"-123.18","49.19","VANCOUVER INTL A","1108395","2022-10-25 08:00","2022","10","25","08:00","8.8","","8.8","","100","","","","8","","15","","24.1","","101.81","","","","","","NA"
"-123.18","49.19","VANCOUVER INTL A","1108395","2022-10-25 09:00","2022","10","25","09:00","9.4","","7.3","","87","","","","17","","23","","24.1","","101.77","","","","","","Rain"
"-123.18","49.19","VANCOUVER INTL A","1108395","2022-10-25 10:00","2022","10","25","10:00","8.7","","8.2","","97","","","","12","","22","","12.9","","101.69","","","","","","Rain"
"-123.18","49.19","VANCOUVER INTL A","1108395","2022-10-25 11:00","2022","10","25","11:00","9.3","","9.3","","100","","","","11","","25","","19.3","","101.56","","","","","","NA"
"-123.18","49.19","VANCOUVER INTL A","1108395","2022-10-25 12:00","2022","10","25","12:00","9.7","","9.3","","98","","","","12","","32","","24.1","","101.38","","","","","","NA"
"-123.18","49.19","VANCOUVER INTL A","1108395","2022-10-25 13:00","2022","10","25","13:00","9.6","","9.4","","98","","","","10","","28","","16.1","","101.23","","","","","","Rain"
"-123.18","49.19","VANCOUVER INTL A","1108395","2022-10-25 14:00","2022","10","25","14:00","9.8","","9.2","","96","","","","13","","31","","16.1","","101.06","","","","","","Rain"
"-123.18","49.19","VANCOUVER INTL A","1108395","2022-10-25 15:00","2022","10","25","15:00","9.4","","9.4","","100","","","","14","","27","","6.4","","100.93","","","","","","Moderate Rain,Fog"
"-123.18","49.19","VANCOUVER INTL A","1108395","2022-10-25 16:00","2022","10","25","16:00","9.2","","9.2","","100","","","","15","","22","","4.8","","100.84","","","","","","Moderate Rain,Fog"
"-123.18","49.19","VANCOUVER INTL A","1108395","2022-10-25 17:00","2022","10","25","17:00","8.9","","8.9","","100","","","","15","","14","","6.4","","100.75","","","","","","Moderate Rain,Fog"
"-123.18","49.19","VANCOUVER INTL A","1108395","2022-10-25 18:00","2022","10","25","18:00","8.7","","8.7","","100","","","","12","","8","","19.3","","100.72","","","","","","Rain"
"-123.18","49.19","VANCOUVER INTL A","1108395","2022-10-25 19:00","2022","10","25","19:00","8.6","","8.6","","100","","","","11","","10","","19.3","","100.75","","","","","","Rain"
"-123.18","49.19","VANCOUVER INTL A","1108395","2022-10-25 20:00","2022","10","25","20:00","8.3","","8.3","","100","","","","31","","9","","24.1","","100.80","","","","","","NA"
"-123.18","49.19","VANCOUVER INTL A","1108395","2022-10-25 21:00","2022","10","25","21:00","7.6","","7.6","","100","","","","31","","8","","19.3","","100.86","","","","","","NA"
"-123.18","49.19","VANCOUVER INTL A","1108395","2022-10-25 22:00","2022","10","25","22:00","7.5","","7.5","","100","","","","30","","9","","24.1","","100.92","","","","","","Cloudy"
"-123.18","49.19","VANCOUVER INTL A","1108395","2022-10-25 23:00","2022","10","25","23:00","7.7","","7.7","","100","","","","29","","12","","24.1","","100.98","","","","","","NA"
"-123.18","49.19","VANCOUVER INTL A","1108395","2022-10-26 00:00","2022","10","26","00:00","7.7","","7.2","","97","","","","28","","28","","24.1","","101.01","","","","","","NA"
"-123.18","49.19","VANCOUVER INTL A","1108395","2022-10-26 01:00","2022","10","26","01:00","7.5","","7.0","","97","","","","30","","22","","24.1","","101.06","","","","","","Mostly Cloudy"
"-123.18","49.19","VANCOUVER INTL A","1108395","2022-10-26 02:00","2022","10","26","02:00","7.0","","6.5","","97","","","","30","","26","","24.1","","101.14","","","","","","NA"
"-123.18","49.19","VANCOUVER INTL A","1108395","2022-10-26 03:00","2022","10","26","03:00","6.5","","6.0","","97","","","","33","","11","","24.1","","101.21","","","","","","NA"
"-123.18","49.19","VANCOUVER INTL A","1108395","2022-10-26 04:00","2022","10","26","04:00","5.4","","5.2","","99","","","","30","","9","","32.2","","101.28","","","","","","Mainly Clear"
"-123.18","49.19","VANCOUVER INTL A","1108395","2022-10-26 05:00","2022","10","26","05:00","5.2","","5.1","","99","","","","32","","11","","32.2","","101.38","","","","","","NA"
"-123.18","49.19","VANCOUVER INTL A","1108395","2022-10-26 06:00","2022","10","26","06:00","5.8","","5.4","","97","","","","33","","10","","32.2","","101.44","","","","","","NA"
"-123.18","49.19","VANCOUVER INTL A","1108395","2022-10-26 07:00","2022","10","26","07:00","6.0","","5.6","","97","","","","29","","10","","24.1","","101.54","","","","","","Mainly Clear"
"-123.18","49.19","VANCOUVER INTL A","1108395","2022-10-26 08:00","2022","10","26","08:00","8.1","","6.8","","92","","","","29","","13","","40.2","","101.60","","","","","","NA"
"-123.18","49.19","VANCOUVER INTL A","1108395","2022-10-26 09:00","2022","10","26","09:00","8.8","","7.4","","91","","","","29","","9","","40.2","","101.68","","","","","","NA"
"-123.18","49.19","VANCOUVER INTL A","1108395","2022-10-26 10:00","2022","10","26","10:00","9.7","","6.4","","80","","","","25","","16","","40.2","","101.75","","","","","","Mostly Cloudy"
"-123.18","49.19","VANCOUVER INTL A","1108395","2022-10-26 11:00","2022","10","26","11:00","10.0","","5.2","","72","","","","24","","13","","48.3","","101.83","","","","","","NA"
"-123.18","49.19","VANCOUVER INTL A","1108395","2022-10-26 12:00","2022","10","26","12:00","9.9","","4.8","","70","","","","21","","13","","48.3","","101.85","","","","","","NA"
"-123.18","49.19","VANCOUVER INTL A","1108395","2022-10-26 13:00","2022","10","26","13:00","10.0","","4.9","","70","","","","14","","10","","48.3","","101.83","","","","","","Cloudy"
"-123.18","49.19","VANCOUVER INTL A","1108395","2022-10-26 14:00","2022","10","26","14:00","9.9","","5.2","","73","","","","10","","17","","48.3","","101.81","","","","","","NA"
"-123.18","49.19","VANCOUVER INTL A","1108395","2022-10-26 15:00","2022","10","26","15:00","9.7","","5.9","","77","","","","13","","16","","48.3","","101.82","","","","","","NA"
"-123.18","49.19","VANCOUVER INTL A","1108395","2022-10-26 16:00","2022","10","26","16:00","9.4","","6.6","","82","","","","13","","9","","40.2","","101.80","","","","","","Rain"
"-123.18","49.19","VANCOUVER INTL A","1108395","2022-10-26 17:00","2022","10","26","17:00","8.9","","7.5","","91","","","","11","","13","","12.9","","101.81","","","","","","Rain"
"-123.18","49.19","VANCOUVER INTL A","1108395","2022-10-26 18:00","2022","10","26","18:00","8.6","","8.6","","100","","","","12","","15","","12.9","","101.79","","","","","","Rain"
"-123.18","49.19","VANCOUVER INTL A","1108395","2022-10-26 19:00","2022","10","26","19:00","8.4","","8.4","","100","","","","12","","15","","12.9","","101.81","","","","","","Rain"
"-123.18","49.19","VANCOUVER INTL A","1108395","2022-10-26 20:00","2022","10","26","20:00","8.5","","8.5","","100","","","","8","","14","","16.1","","101.78","","","","","","Rain"
"-123.18","49.19","VANCOUVER INTL A","1108395","2022-10-26 21:00","2022","10","26","21:00","8.4","","8.4","","100","","","","8","","16","","12.9","","101.75","","","","","","Rain"
"-123.18","49.19","VANCOUVER INTL A","1108395","2022-10-26 22:00","2022","10","26","22:00","8.4","","8.4","","100","","","","8","","16","","19.3","","101.72","","","","","","Rain"
"-123.18","49.19","VANCOUVER INTL A","1108395","2022-10-26 23:00","2022","10","26","23:00","8.6","","8.6","","100","","","","6","","15","","19.3","","101.68","","","","","","NA"
"-123.18","49.19","VANCOUVER INTL A","1108395","2022-10-27 00:00","2022","10","27","00:00","8.9","","8.9","","100","","","","7","","12","","19.3","","101.64","","","","","","NA"
"-123.18","49.19","VANCOUVER INTL A","1108395","2022-10-27 01:00","2022","10","27","01:00","9.6","","9.6","","100","","","","13","","14","","24.1","","101.63","","","","","","Cloudy"
"-123.18","49.19","VANCOUVER INTL A","1108395","2022-10-27 02:00","2022","10","27","02:00","9.5","","9.2","","98","","","","15","","22","","24.1","","101.60","","","","","","NA"
"-123.18","49.19","VANCOUVER INTL A","1108395","2022-10-27 03:00","2022","10","27","03:00","9.5","","9.4","","99","","","","14","","25","","24.1","","101.51","","","","","","NA"
"-123.18","49.19","VANCOUVER INTL A","1108395","2022-10-27 04:00","2022","10","27","04:00","9.5","","9.4","","100","","","","14","","27","","24.1","","101.44","","","","","","Cloudy"
"-123.18","49.19","VANCOUVER INTL A","1108395","2022-10-27 05:00","2022","10","27","05:00","9.4","","9.4","","100","","","","13","","21","","24.1","","101.34","","","","","","NA"
"-123.18","49.19","VANCOUVER INTL A","1108395","2022-10-27 06:00","2022","10","27","06:00","9.8","","9.7","","99","","","","13","","32","","24.1","","101.29","","","","","","Rain"
"-123.18","49.19","VANCOUVER INTL A","1108395","2022-10-27 07:00","2022","10","27","07:00","9.8","","9.8","","100","","","","14","","29","","9.7","","101.23","","","","","","Rain,Fog"
"-123.18","49.19","VANCOUVER INTL A","1108395","2022-10-27 08:00","2022","10","27","08:00","10.2","","10.2","","100","","","","13","","30","","16.1","","101.15","","","","","","NA"
"-123.18","49.19","VANCOUVER INTL A","1108395","2022-10-27 09:00","2022","10","27","09:00","10.5","","10.5","","100","","","","13","","33","","8.1","","101.06","","","","","","Rain,Fog"
"-123.18","49.19","VANCOUVER INTL A","1108395","2022-10-27 10:00","2022","10","27","10:00","11.0","","10.2","","95","","","","13","","31","","16.1","","101.06","","","","","","Cloudy"
"-123.18","49.19","VANCOUVER INTL A","1108395","2022-10-27 11:00","2022","10","27","11:00","11.4","","10.1","","92","","","","14","","36","","16.1","","101.03","","","","","","NA"
"-123.18","49.19","VANCOUVER INTL A","1108395","2022-10-27 12:00","2022","10","27","12:00","11.9","","9.7","","86","","","","15","","37","","11.3","","101.03","","","","","","Rain"
"-123.18","49.19","VANCOUVER INTL A","1108395","2022-10-27 13:00","2022","10","27","13:00","11.9","","10.1","","89","","","","13","","38","","16.1","","100.97","","","","","","Cloudy"
"-123.18","49.19","VANCOUVER INTL A","1108395","2022-10-27 14:00","2022","10","27","14:00","11.7","","10.6","","93","","","","13","","16","","8.1","","100.95","","","","","","Rain,Fog"
"-123.18","49.19","VANCOUVER INTL A","1108395","2022-10-27 15:00","2022","10","27","15:00","11.6","","10.8","","95","","","","15","","30","","4.8","","100.93","","","","","","Rain,Fog"
"-123.18","49.19","VANCOUVER INTL A","1108395","2022-10-27 16:00","2022","10","27","16:00","11.2","","11.2","","100","","","","16","","30","","3.2","","100.98","","","","","","Rain,Fog"
"-123.18","49.19","VANCOUVER INTL A","1108395","2022-10-27 17:00","2022","10","27","17:00","10.8","","10.8","","100","","","","15","","29","","3.2","","101.02","","","","","","Moderate Rain,Fog"
"-123.18","49.19","VANCOUVER INTL A","1108395","2022-10-27 18:00","2022","10","27","18:00","10.9","","10.9","","100","","","","25","","13","","6.4","","101.13","","","","","","Moderate Rain,Fog"
"-123.18","49.19","VANCOUVER INTL A","1108395","2022-10-27 19:00","2022","10","27","19:00","10.3","","10.3","","100","","","","10","","14","","11.3","","101.12","","","","","","Moderate Rain"
"-123.18","49.19","VANCOUVER INTL A","1108395","2022-10-27 20:00","2022","10","27","20:00","10.1","","10.1","","100","","","","11","","12","","16.1","","101.11","","","","","","Rain"
"-123.18","49.19","VANCOUVER INTL A","1108395","2022-10-27 21:00","2022","10","27","21:00","10.9","","10.9","","100","","","","9","","10","","12.9","","101.17","","","","","","NA"
"-123.18","49.19","VANCOUVER INTL A","1108395","2022-10-27 22:00","2022","10","27","22:00","11.1","","11.1","","100","","","","36","","2","","12.9","","101.24","","","","","","Cloudy"
"-123.18","49.19","VANCOUVER INTL A","1108395","2022-10-27 23:00","2022","10","27","23:00","10.8","","10.8","","100","","","","29","","5","","12.9","","101.30","","","","","","Rain"
"-123.18","49.19","VANCOUVER INTL A","1108395","2022-10-28 00:00","2022","10","28","00:00","10.6","","10.6","","100","","","","11","","18","","16.1","","101.21","","","","","","Rain"
"-123.18","49.19","VANCOUVER INTL A","1108395","2022-10-28 01:00","2022","10","28","01:00","9.8","","9.3","","97","","","","8","","5","","24.1","","101.34","","","","","","Cloudy"
"-123.18","49.19","VANCOUVER INTL A","1108395","2022-10-28 02:00","2022","10","28","02:00","9.4","","9.4","","100","","","","9","","10","","19.3","","101.37","","","","","","NA"
"-123.18","49.19","VANCOUVER INTL A","1108395","2022-10-28 03:00","2022","10","28","03:00","9.2","","9.2","","100","","","","10","","9","","19.3","","101.42","","","","","","Rain"
"-123.18","49.19","VANCOUVER INTL A","1108395","2022-10-28 04:00","2022","10","28","04:00","9.1","","9.1","","100","","","","6","","7","","19.3","","101.44","","","","","","Cloudy"
"-123.18","49.19","VANCOUVER INTL A","1108395","2022-10-28 05:00","2022","10","28","05:00","9.6","","9.6","","100","","","","9","","6","","19.3","","101.54","","","","","","NA"
"-123.18","49.19","VANCOUVER INTL A","1108395","2022-10-28 06:00","2022","10","28","06:00","9.1","","9.1","","100","","","","11","","6","","19.3","","101.63","","","","","","NA"
"-123.18","49.19","VANCOUVER INTL A","1108395","2022-10-28 07:00","2022","10","28","07:00","8.3","","8.3","","100","","","","9","","10","","24.1","","101.71","","","","","","Mostly Cloudy"
"-123.18","49.19","VANCOUVER INTL A","1108395","2022-10-28 08:00","2022","10","28","08:00","9.1","","9.1","","100","","","","8","","11","","24.1","","101.81","","","","","","NA"
"-123.18","49.19","VANCOUVER INTL A","1108395","2022-10-28 09:00","2022","10","28","09:00","10.1","","10.0","","100","","","","11","","14","","24.1","","101.90","","","","","","NA"
"-123.18","49.19","VANCOUVER INTL A","1108395","2022-10-28 10:00","2022","10","28","10:00","11.3","","9.2","","87","","","","11","","8","","24.1","","101.97","","","","","","Mainly Clear"
"-123.18","49.19","VANCOUVER INTL A","1108395","2022-10-28 11:00","2022","10","28","11:00","12.0","","9.7","","86","","","","14","","7","","24.1","","102.02","","","","","","NA"
"-123.18","49.19","VANCOUVER INTL A","1108395","2022-10-28 12:00","2022","10","28","12:00","12.8","","8.7","","76","","","","11","","6","","24.1","","102.04","","","","","","NA"
"-123.18","49.19","VANCOUVER INTL A","1108395","2022-10-28 13:00","2022","10","28","13:00","13.4","","8.8","","74","","","","11","","7","","24.1","","102.06","","","","","","Mainly Clear"
"-123.18","49.19","VANCOUVER INTL A","1108395","2022-10-28 14:00","2022","10","28","14:00","13.1","","7.8","","70","","","","14","","11","","24.1","","102.08","","","","","","NA"
"-123.18","49.19","VANCOUVER INTL A","1108395","2022-10-28 15:00","2022","10","28","15:00","13.2","","7.8","","70","","","","15","","18","","24.1","","102.08","","","","","","NA"
"-123.18","49.19","VANCOUVER INTL A","1108395","2022-10-28 16:00","2022","10","28","16:00","12.5","","8.7","","78","","","","16","","16","","24.1","","102.10","","","","","","Mostly Cloudy"
"-123.18","49.19","VANCOUVER INTL A","1108395","2022-10-28 17:00","2022","10","28","17:00","11.3","","8.7","","84","","","","15","","13","","24.1","","102.14","","","","","","NA"
"-123.18","49.19","VANCOUVER INTL A","1108395","2022-10-28 18:00","2022","10","28","18:00","10.8","","8.7","","87","","","","13","","11","","24.1","","102.16","","","","","","NA"
"-123.18","49.19","VANCOUVER INTL A","1108395","2022-10-28 19:00","2022","10","28","19:00","10.6","","9.2","","91","","","","15","","14","","24.1","","102.21","","","","","","Mostly Cloudy"
"-123.18","49.19","VANCOUVER INTL A","1108395","2022-10-28 20:00","2022","10","28","20:00","9.7","","9.2","","97","","","","14","","12","","24.1","","102.21","","","","","","NA"
"-123.18","49.19","VANCOUVER INTL A","1108395","2022-10-28 21:00","2022","10","28","21:00","10.0","","9.6","","98","","","","9","","9","","24.1","","102.27","","","","","","NA"
"-123.18","49.19","VANCOUVER INTL A","1108395","2022-10-28 22:00","2022","10","28","22:00","9.8","","9.3","","97","","","","8","","11","","24.1","","102.28","","","","","","Mostly Cloudy"
"-123.18","49.19","VANCOUVER INTL A","1108395","2022-10-28 23:00","2022","10","28","23:00","9.0","","9.0","","100","","","","14","","14","","24.1","","102.27","","","","","","NA"
"-123.18","49.19","VANCOUVER INTL A","1108395","2022-10-29 00:00","2022","10","29","00:00","9.4","","9.4","","100","","","","8","","12","","24.1","","102.32","","","","","","NA"
"-123.18","49.19","VANCOUVER INTL A","1108395","2022-10-29 01:00","2022","10","29","01:00","9.5","","9.5","","100","","","","7","","14","","24.1","","102.33","","","","","","Mostly Cloudy"
"-123.18","49.19","VANCOUVER INTL A","1108395","2022-10-29 02:00","2022","10","29","02:00","9.4","","9.4","","100","","","","8","","9","","24.1","","102.37","","","","","","NA"
"-123.18","49.19","VANCOUVER INTL A","1108395","2022-10-29 03:00","2022","10","29","03:00","8.7","","8.7","","100","","","","8","","10","","24.1","","102.33","","","","","","NA"
"-123.18","49.19","VANCOUVER INTL A","1108395","2022-10-29 04:00","2022","10","29","04:00","8.8","","8.8","","100","","","","8","","9","","24.1","","102.28","","","","","","Mostly Cloudy"
"-123.18","49.19","VANCOUVER INTL A","1108395","2022-10-29 05:00","2022","10","29","05:00","8.7","","8.7","","100","","","","8","","13","","24.1","","102.31","","","","","","NA"
"-123.18","49.19","VANCOUVER INTL A","1108395","2022-10-29 06:00","2022","10","29","06:00","8.9","","8.9","","100","","","","8","","13","","24.1","","102.31","","","","","","NA"
"-123.18","49.19","VANCOUVER INTL A","1108395","2022-10-29 07:00","2022","10","29","07:00","9.0","","9.0","","100","","","","9","","13","","19.3","","102.34","","","","","","Mostly Cloudy"
"-123.18","49.19","VANCOUVER INTL A","1108395","2022-10-29 08:00","2022","10","29","08:00","9.7","","9.7","","100","","","","10","","18","","19.3","","102.38","","","","","","NA"
"-123.18","49.19","VANCOUVER INTL A","1108395","2022-10-29 09:00","2022","10","29","09:00","10.4","","10.0","","97","","","","12","","20","","19.3","","102.40","","","","","","NA"
"-123.18","49.19","VANCOUVER INTL A","1108395","2022-10-29 10:00","2022","10","29","10:00","10.9","","9.7","","92","","","","11","","19","","19.3","","102.42","","","","","","Cloudy"
"-123.18","49.19","VANCOUVER INTL A","1108395","2022-10-29 11:00","2022","10","29","11:00","11.1","","9.2","","88","","","","16","","23","","19.3","","102.44","","","","","","NA"
"-123.18","49.19","VANCOUVER INTL A","1108395","2022-10-29 12:00","2022","10","29","12:00","11.4","","9.3","","87","","","","15","","22","","19.3","","102.44","","","","","","NA"
"-123.18","49.19","VANCOUVER INTL A","1108395","2022-10-29 13:00","2022","10","29","13:00","12.1","","9.2","","83","","","","16","","26","","19.3","","102.38","","","","","","Cloudy"
"-123.18","49.19","VANCOUVER INTL A","1108395","2022-10-29 14:00","2022","10","29","14:00","12.7","","7.8","","72","","","","15","","22","","19.3","","102.33","","","","","","NA"
"-123.18","49.19","VANCOUVER INTL A","1108395","2022-10-29 15:00","2022","10","29","15:00","12.2","","8.2","","76","","","","15","","19","","19.3","","102.30","","","","","","NA"
"-123.18","49.19","VANCOUVER INTL A","1108395","2022-10-29 16:00","2022","10","29","16:00","12.0","","7.8","","75","","","","15","","14","","19.3","","102.28","","","","","","Mostly Cloudy"
"-123.18","49.19","VANCOUVER INTL A","1108395","2022-10-29 17:00","2022","10","29","17:00","11.5","","8.0","","79","","","","15","","22","","19.3","","102.22","","","","","","NA"
"-123.18","49.19","VANCOUVER INTL A","1108395","2022-10-29 18:00","2022","10","29","18:00","11.3","","7.7","","78","","","","14","","16","","24.1","","102.20","","","","","","NA"
"-123.18","49.19","VANCOUVER INTL A","1108395","2022-10-29 19:00","2022","10","29","19:00","11.2","","8.2","","82","","","","15","","21","","24.1","","102.15","","","","","","Cloudy"
"-123.18","49.19","VANCOUVER INTL A","1108395","2022-10-29 20:00","2022","10","29","20:00","11.1","","8.4","","83","","","","15","","18","","24.1","","102.13","","","","","","NA"
"-123.18","49.19","VANCOUVER INTL A","1108395","2022-10-29 21:00","2022","10","29","21:00","10.6","","9.1","","90","","","","11","","15","","24.1","","102.10","","","","","","NA"
"-123.18","49.19","VANCOUVER INTL A","1108395","2022-10-29 22:00","2022","10","29","22:00","11.0","","9.4","","90","","","","11","","18","","24.1","","102.07","","","","","","Cloudy"
"-123.18","49.19","VANCOUVER INTL A","1108395","2022-10-29 23:00","2022","10","29","23:00","10.9","","9.4","","90","","","","13","","18","","24.1","","102.02","","","","","","NA"
"-123.18","49.19","VANCOUVER INTL A","1108395","2022-10-30 00:00","2022","10","30","00:00","11.8","","8.1","","78","","","","15","","23","","19.3","","101.98","","","","","","NA"
"-123.18","49.19","VANCOUVER INTL A","1108395","2022-10-30 01:00","2022","10","30","01:00","11.1","","8.9","","86","","","","11","","28","","19.3","","101.92","","","","","","Cloudy"
"-123.18","49.19","VANCOUVER INTL A","1108395","2022-10-30 02:00","2022","10","30","02:00","10.7","","9.3","","91","","","","11","","21","","19.3","","101.90","","","","","","NA"
"-123.18","49.19","VANCOUVER INTL A","1108395","2022-10-30 03:00","2022","10","30","03:00","10.9","","9.1","","89","","","","12","","24","","19.3","","101.82","","","","","","NA"
"-123.18","49.19","VANCOUVER INTL A","1108395","2022-10-30 04:00","2022","10","30","04:00","10.5","","10.0","","97","","","","11","","22","","19.3","","101.77","","","","","","Rain"
"-123.18","49.19","VANCOUVER INTL A","1108395","2022-10-30 05:00","2022","10","30","05:00","10.2","","10.1","","99","","","","11","","26","","16.1","","101.72","","","","","","Rain"
"-123.18","49.19","VANCOUVER INTL A","1108395","2022-10-30 06:00","2022","10","30","06:00","10.1","","10.1","","100","","","","12","","31","","16.1","","101.64","","","","","","Rain"
"-123.18","49.19","VANCOUVER INTL A","1108395","2022-10-30 07:00","2022","10","30","07:00","10.1","","10.1","","100","","","","12","","26","","8.1","","101.60","","","","","","Moderate Rain,Fog"
"-123.18","49.19","VANCOUVER INTL A","1108395","2022-10-30 08:00","2022","10","30","08:00","10.0","","10.0","","100","","","","13","","21","","3.2","","101.58","","","","","","Moderate Rain,Fog"
"-123.18","49.19","VANCOUVER INTL A","1108395","2022-10-30 09:00","2022","10","30","09:00","10.2","","10.2","","100","","","","14","","21","","4.8","","101.61","","","","","","Rain,Fog"
"-123.18","49.19","VANCOUVER INTL A","1108395","2022-10-30 10:00","2022","10","30","10:00","10.2","","10.2","","100","","","","7","","17","","6.4","","101.63","","","","","","Rain,Fog"
"-123.18","49.19","VANCOUVER INTL A","1108395","2022-10-30 11:00","2022","10","30","11:00","10.5","","10.5","","100","","","","6","","13","","4.8","","101.63","","","","","","Rain,Fog"
"-123.18","49.19","VANCOUVER INTL A","1108395","2022-10-30 12:00","2022","10","30","12:00","10.4","","10.4","","100","","","","11","","27","","4.8","","101.56","","","","","","Rain,Fog"
"-123.18","49.19","VANCOUVER INTL A","1108395","2022-10-30 13:00","2022","10","30","13:00","10.7","","10.7","","100","","","","13","","11","","3.2","","101.52","","","","","","Moderate Rain,Fog"
"-123.18","49.19","VANCOUVER INTL A","1108395","2022-10-30 14:00","2022","10","30","14:00","10.6","","10.6","","100","","","","15","","19","","3.2","","101.50","","","","","","Moderate Rain,Fog"
"-123.18","49.19","VANCOUVER INTL A","1108395","2022-10-30 15:00","2022","10","30","15:00","10.6","","10.6","","100","","","","11","","6","","8.1","","101.47","","","","","","Rain,Fog"
"-123.18","49.19","VANCOUVER INTL A","1108395","2022-10-30 16:00","2022","10","30","16:00","10.7","","10.7","","100","","","","15","","15","","9.7","","101.40","","","","","","Rain,Fog"
"-123.18","49.19","VANCOUVER INTL A","1108395","2022-10-30 17:00","2022","10","30","17:00","10.6","","10.6","","100","","","","17","","10","","4.8","","101.35","","","","","","Moderate Rain,Fog"
"-123.18","49.19","VANCOUVER INTL A","1108395","2022-10-30 18:00","2022","10","30","18:00","10.5","","10.5","","100","","","","15","","10","","12.9","","101.27","","","","","","Rain"
"-123.18","49.19","VANCOUVER INTL A","1108395","2022-10-30 19:00","2022","10","30","19:00","10.4","","10.4","","100","","","","17","","15","","12.9","","101.24","","","","","","Rain"
"-123.18","49.19","VANCOUVER INTL A","1108395","2022-10-30 20:00","2022","10","30","20:00","10.3","","10.3","","100","","","","16","","18","","19.3","","101.17","","","","","","Rain"
"-123.18","49.19","VANCOUVER INTL A","1108395","2022-10-30 21:00","2022","10","30","21:00","10.3","","10.3","","100","","","","16","","14","","19.3","","101.12","","","","","","Rain"
"-123.18","49.19","VANCOUVER INTL A","1108395","2022-10-30 22:00","2022","10","30","22:00","10.2","","10.2","","100","","","","16","","22","","19.3","","101.07","","","","","","Rain"
"-123.18","49.19","VANCOUVER INTL A","1108395","2022-10-30 23:00","2022","10","30","23:00","10.2","","10.2","","100","","","","15","","16","","24.1","","101.04","","","","","","NA"
"-123.18","49.19","VANCOUVER INTL A","1108395","2022-10-31 00:00","2022","10","31","00:00","10.0","","10.0","","100","","","","16","","8","","24.1","","101.00","","","","","","NA"
"-123.18","49.19","VANCOUVER INTL A","1108395","2022-10-31 01:00","2022","10","31","01:00","10.0","","10.0","","100","","","","12","","10","","24.1","","100.97","","","","","","Cloudy"
"-123.18","49.19","VANCOUVER INTL A","1108395","2022-10-31 02:00","2022","10","31","02:00","9.4","","9.4","","100","","","","10","","10","","24.1","","100.92","","","","","","NA"
"-123.18","49.19","VANCOUVER INTL A","1108395","2022-10-31 03:00","2022","10","31","03:00","9.6","","9.6","","100","","","","9","","16","","24.1","","100.82","","","","","","NA"
"-123.18","49.19","VANCOUVER INTL A","1108395","2022-10-31 04:00","2022","10","31","04:00","9.5","","9.5","","100","","","","11","","16","","24.1","","100.76","","","","","","Rain"
"-123.18","49.19","VANCOUVER INTL A","1108395","2022-10-31 05:00","2022","10","31","05:00","9.3","","9.3","","100","","","","9","","16","","12.9","","100.68","","","","","","Rain"
"-123.18","49.19","VANCOUVER INTL A","1108395","2022-10-31 06:00","2022","10","31","06:00","9.1","","9.1","","100","","","","8","","18","","12.9","","100.61","","","","","","Rain"
"-123.18","49.19","VANCOUVER INTL A","1108395","2022-10-31 07:00","2022","10","31","07:00","9.4","","9.4","","100","","","","10","","5","","9.7","","100.58","","","","","","Rain,Fog"
"-123.18","49.19","VANCOUVER INTL A","1108395","2022-10-31 08:00","2022","10","31","08:00","10.1","","10.1","","100","","","","19","","12","","4.8","","100.57","","","","","","Rain,Fog"
"-123.18","49.19","VANCOUVER INTL A","1108395","2022-10-31 09:00","2022","10","31","09:00","10.5","","10.5","","100","","","","23","","15","","12.9","","100.57","","","","","","NA"
"-123.18","49.19","VANCOUVER INTL A","1108395","2022-10-31 10:00","2022","10","31","10:00","11.7","","11.7","","100","","","","27","","14","","12.9","","100.66","","","","","","Mainly Clear"
"-123.18","49.19","VANCOUVER INTL A","1108395","2022-10-31 11:00","2022","10","31","11:00","11.9","","10.8","","93","","","","26","","13","","40.2","","100.77","","","","","","NA"
"-123.18","49.19","VANCOUVER INTL A","1108395","2022-10-31 12:00","2022","10","31","12:00","10.7","","9.7","","93","","","","22","","10","","40.2","","100.79","","","","","","NA"
"-123.18","49.19","VANCOUVER INTL A","1108395","2022-10-31 13:00","2022","10","31","13:00","11.2","","8.8","","85","","","","28","","9","","40.2","","100.81","","","","","","Mostly Cloudy"
"-123.18","49.19","VANCOUVER INTL A","1108395","2022-10-31 14:00","2022","10","31","14:00","10.6","","7.6","","82","","","","28","","19","","40.2","","100.85","","","","","","NA"
"-123.18","49.19","VANCOUVER INTL A","1108395","2022-10-31 15:00","2022","10","31","15:00","10.6","","8.2","","85","","","","28","","19","","40.2","","100.88","","","","","","NA"
"-123.18","49.19","VANCOUVER INTL A","1108395","2022-10-31 16:00","2022","10","31","16:00","9.1","","6.3","","82","","","","28","","14","","40.2","","100.87","","","","","","Mostly Cloudy"
"-123.18","49.19","VANCOUVER INTL A","1108395","2022-10-31 17:00","2022","10","31","17:00","7.9","","6.5","","90","","","","27","","11","","40.2","","100.85","","","","","","NA"
"-123.18","49.19","VANCOUVER INTL A","1108395","2022-10-31 18:00","2022","10","31","18:00","8.6","","6.3","","85","","","","26","","11","","32.2","","100.84","","","","","","NA"
"-123.18","49.19","VANCOUVER INTL A","1108395","2022-10-31 19:00","2022","10","31","19:00","8.0","","6.3","","89","","","","26","","8","","32.2","","100.87","","","","","","Mostly Cloudy"
"-123.18","49.19","VANCOUVER INTL A","1108395","2022-10-31 20:00","2022","10","31","20:00","6.6","","5.5","","93","","","","36","","2","","32.2","","100.87","","","","","","NA"
"-123.18","49.19","VANCOUVER INTL A","1108395","2022-10-31 21:00","2022","10","31","21:00","6.2","","6.0","","98","","","","9","","9","","32.2","","100.84","","","","","","NA"
"-123.18","49.19","VANCOUVER INTL A","1108395","2022-10-31 22:00","2022","10","31","22:00","5.9","","5.4","","96","","","","10","","8","","32.2","","100.83","","","","","","Mainly Clear"
"-123.18","49.19","VANCOUVER INTL A","1108395","2022-10-31 23:00","2022","10","31","23:00","6.1","","6.1","","100","","","","5","","5","","32.2","","100.83","","","","","","NA"
