"Longitude (x)","Latitude (y)","Station Name","Climate ID","Date/Time (LST)","Year","Month","Day","Time (LST)","Temp (°C)","Temp Flag","Dew Point Temp (°C)","Dew Point Temp Flag","Rel Hum (%)","Rel Hum Flag","Precip. Amount (mm)","Precip. Amount Flag","Wind Dir (10s deg)","Wind Dir Flag","Wind Spd (km/h)","Wind Spd Flag","Visibility (km)","Visibility Flag","Stn Press (kPa)","Stn Press Flag","Hmdx","Hmdx Flag","Wind Chill","Wind Chill Flag","Weather"
"-123.18","49.19","VANCOUVER INTL A","1108395","2022-01-01 00:00","2022","01","01","00:00","-6.2","","-9.8","","76","","","","8","","11","","24.1","","102.36","","","","-11","","NA"
"-123.18","49.19","VANCOUVER INTL A","1108395","2022-01-01 01:00","2022","01","01","01:00","-6.2","","-9.1","","80","","","","10","","18","","24.1","","102.38","","","","-13","","Mostly Cloudy"
"-123.18","49.19","VANCOUVER INTL A","1108395","2022-01-01 02:00","2022","01","01","02:00","-5.5","","-8.1","","82","","","","10","","16","","24.1","","102.42","","","","-11","","NA"
"-123.18","49.19","VANCOUVER INTL A","1108395","2022-01-01 03:00","2022","01","01","03:00","-5.8","","-8.6","","81","","","","11","","13","","24.1","","102.42","","","","-11","","NA"
"-123.18","49.19","VANCOUVER INTL A","1108395","2022-01-01 04:00","2022","01","01","04:00","-5.4","","-8.4","","79","","","","10","","16","","24.1","","102.43","","","","-11","","Cloudy"
"-123.18","49.19","VANCOUVER INTL A","1108395","2022-01-01 05:00","2022","01","01","05:00","-5.3","","-8.0","","81","","","","10","","15","","24.1","","102.40","","","","-11","","NA"
"-123.18","49.19","VANCOUVER INTL A","1108395","2022-01-01 06:00","2022","01","01","06:00","-5.0","","-7.9","","80","","","","9","","15","","24.1","","102.44","","","","-11","","NA"
"-123.18","49.19","VANCOUVER INTL A","1108395","2022-01-01 07:00","2022","01","01","07:00","-4.9","","-7.6","","81","","","","9","","14","","24.1","","102.41","","","","-10","","Cloudy"
"-123.18","49.19","VANCOUVER INTL A","1108395","2022-01-01 08:00","2022","01","01","08:00","-4.5","","-7.2","","81","","","","9","","12","","48.3","","102.44","","","","-9","","NA"
"-123.18","49.19","VANCOUVER INTL A","1108395","2022-01-01 09:00","2022","01","01","09:00","-4.0","","-7.2","","78","","","","8","","13","","48.3","","102.46","","","","-9","","NA"
"-123.18","49.19","VANCOUVER INTL A","1108395","2022-01-01 10:00","2022","01","01","10:00","-3.1","","-6.8","","76","","","","8","","12","","48.3","","102.43","","","","-8","","Cloudy"
"-123.18","49.19","VANCOUVER INTL A","1108395","2022-01-01 11:00","2022","01","01","11:00","-2.8","","-6.4","","77","","","","9","","13","","48.3","","102.39","","","","-7","","NA"
"-123.18","49.19","VANCOUVER INTL A","1108395","2022-01-01 12:00","2022","01","01","12:00","-1.6","","-7.2","","66","","","","8","","12","","48.3","","102.34","","","","-6","","NA"
"-123.18","49.19","VANCOUVER INTL A","1108395","2022-01-01 13:00","2022","01","01","13:00","-1.3","","-6.7","","67","","","","6","","16","","48.3","","102.25","","","","-6","","Cloudy"
"-123.18","49.19","VANCOUVER INTL A","1108395","2022-01-01 14:00","2022","01","01","14:00","-0.4","","-7.5","","59","","","","7","","18","","48.3","","102.17","","","","-5","","NA"
"-123.18","49.19","VANCOUVER INTL A","1108395","2022-01-01 15:00","2022","01","01","15:00","-0.2","","-6.7","","62","","","","8","","16","","48.3","","102.10","","","","-5","","NA"
"-123.18","49.19","VANCOUVER INTL A","1108395","2022-01-01 16:00","2022","01","01","16:00","0.2","","-6.6","","60","","","","6","","19","","32.2","","102.02","","","","","","Cloudy"
"-123.18","49.19","VANCOUVER INTL A","1108395","2022-01-01 17:00","2022","01","01","17:00","0.3","","-6.2","","62","","","","8","","19","","48.3","","101.88","","","","","","NA"
"-123.18","49.19","VANCOUVER INTL A","1108395","2022-01-01 18:00","2022","01","01","18:00","0.6","","-5.4","","64","","","","8","","21","","24.1","","101.71","","","","","","NA"
"-123.18","49.19","VANCOUVER INTL A","1108395","2022-01-01 19:00","2022","01","01","19:00","1.2","","-4.7","","65","","","","8","","33","","32.2","","101.57","","","","","","Cloudy"
"-123.18","49.19","VANCOUVER INTL A","1108395","2022-01-01 20:00","2022","01","01","20:00","0.8","","-4.1","","70","","","","10","","36","","32.2","","101.44","","","","","","NA"
"-123.18","49.19","VANCOUVER INTL A","1108395","2022-01-01 21:00","2022","01","01","21:00","0.7","","-4.2","","70","","","","10","","27","","32.2","","101.44","","","","","","NA"
"-123.18","49.19","VANCOUVER INTL A","1108395","2022-01-01 22:00","2022","01","01","22:00","1.2","","-4.2","","67","","","","8","","28","","32.2","","101.33","","","","","","Cloudy"
"-123.18","49.19","VANCOUVER INTL A","1108395","2022-01-01 23:00","2022","01","01","23:00","0.8","","-4.2","","69","","","","10","","32","","32.2","","101.23","","","","","","NA"
"-123.18","49.19","VANCOUVER INTL A","1108395","2022-01-02 00:00","2022","01","02","00:00","1.9","","-3.4","","68","","","","8","","30","","32.2","","101.06","","","","","","NA"
"-123.18","49.19","VANCOUVER INTL A","1108395","2022-01-02 01:00","2022","01","02","01:00","3.4","","-1.9","","68","","","","11","","32","","32.2","","101.04","","","","","","Cloudy"
"-123.18","49.19","VANCOUVER INTL A","1108395","2022-01-02 02:00","2022","01","02","02:00","3.0","","-0.9","","76","","","","9","","22","","24.1","","101.07","","","","","","Rain"
"-123.18","49.19","VANCOUVER INTL A","1108395","2022-01-02 03:00","2022","01","02","03:00","0.8","","-0.1","","94","","","","4","","23","","4.8","","101.11","","","","","","Rain,Snow"
"-123.18","49.19","VANCOUVER INTL A","1108395","2022-01-02 04:00","2022","01","02","04:00","0.8","","0.2","","96","","","","6","","23","","9.7","","101.09","","","","","","Snow"
"-123.18","49.19","VANCOUVER INTL A","1108395","2022-01-02 05:00","2022","01","02","05:00","0.8","","0.2","","96","","","","6","","21","","12.9","","101.03","","","","","","Snow"
"-123.18","49.19","VANCOUVER INTL A","1108395","2022-01-02 06:00","2022","01","02","06:00","1.3","","0.2","","93","","","","6","","21","","19.3","","100.96","","","","","","Snow"
"-123.18","49.19","VANCOUVER INTL A","1108395","2022-01-02 07:00","2022","01","02","07:00","2.1","","0.0","","86","","","","7","","21","","24.1","","100.88","","","","","","Cloudy"
"-123.18","49.19","VANCOUVER INTL A","1108395","2022-01-02 08:00","2022","01","02","08:00","2.3","","-0.6","","81","","","","10","","27","","32.2","","100.80","","","","","","NA"
"-123.18","49.19","VANCOUVER INTL A","1108395","2022-01-02 09:00","2022","01","02","09:00","2.7","","-0.8","","78","","","","10","","31","","32.2","","100.80","","","","","","NA"
"-123.18","49.19","VANCOUVER INTL A","1108395","2022-01-02 10:00","2022","01","02","10:00","4.1","","-0.9","","70","","","","11","","32","","32.2","","100.73","","","","","","Cloudy"
"-123.18","49.19","VANCOUVER INTL A","1108395","2022-01-02 11:00","2022","01","02","11:00","3.6","","-0.5","","74","","","","10","","26","","32.2","","100.63","","","","","","NA"
"-123.18","49.19","VANCOUVER INTL A","1108395","2022-01-02 12:00","2022","01","02","12:00","4.0","","0.1","","76","","","","10","","26","","48.3","","100.51","","","","","","NA"
"-123.18","49.19","VANCOUVER INTL A","1108395","2022-01-02 13:00","2022","01","02","13:00","4.2","","0.9","","79","","","","11","","36","","32.2","","100.37","","","","","","Cloudy"
"-123.18","49.19","VANCOUVER INTL A","1108395","2022-01-02 14:00","2022","01","02","14:00","4.4","","1.5","","82","","","","12","","41","","32.2","","100.23","","","","","","NA"
"-123.18","49.19","VANCOUVER INTL A","1108395","2022-01-02 15:00","2022","01","02","15:00","4.3","","1.9","","84","","","","11","","44","","32.2","","100.11","","","","","","NA"
"-123.18","49.19","VANCOUVER INTL A","1108395","2022-01-02 16:00","2022","01","02","16:00","4.5","","1.9","","83","","","","13","","34","","24.1","","99.98","","","","","","Rain Showers"
"-123.18","49.19","VANCOUVER INTL A","1108395","2022-01-02 17:00","2022","01","02","17:00","3.8","","2.8","","93","","","","13","","31","","12.9","","99.93","","","","","","Rain Showers"
"-123.18","49.19","VANCOUVER INTL A","1108395","2022-01-02 18:00","2022","01","02","18:00","3.8","","2.6","","92","","","","13","","40","","9.7","","99.80","","","","","","Moderate Rain"
"-123.18","49.19","VANCOUVER INTL A","1108395","2022-01-02 19:00","2022","01","02","19:00","4.6","","2.8","","88","","","","13","","33","","32.2","","99.68","","","","","","Cloudy"
"-123.18","49.19","VANCOUVER INTL A","1108395","2022-01-02 20:00","2022","01","02","20:00","4.8","","2.5","","86","","","","13","","35","","32.2","","99.62","","","","","","NA"
"-123.18","49.19","VANCOUVER INTL A","1108395","2022-01-02 21:00","2022","01","02","21:00","4.5","","2.3","","86","","","","12","","27","","32.2","","99.58","","","","","","NA"
"-123.18","49.19","VANCOUVER INTL A","1108395","2022-01-02 22:00","2022","01","02","22:00","3.9","","2.4","","90","","","","13","","28","","32.2","","99.52","","","","","","Cloudy"
"-123.18","49.19","VANCOUVER INTL A","1108395","2022-01-02 23:00","2022","01","02","23:00","4.1","","2.2","","88","","","","13","","28","","32.2","","99.45","","","","","","Rain"
"-123.18","49.19","VANCOUVER INTL A","1108395","2022-01-03 00:00","2022","01","03","00:00","3.7","","2.6","","92","","","","13","","42","","19.3","","99.32","","","","","","Moderate Rain"
"-123.18","49.19","VANCOUVER INTL A","1108395","2022-01-03 01:00","2022","01","03","01:00","4.4","","2.8","","90","","","","14","","34","","32.2","","99.31","","","","","","Cloudy"
"-123.18","49.19","VANCOUVER INTL A","1108395","2022-01-03 02:00","2022","01","03","02:00","3.9","","2.3","","89","","","","15","","36","","32.2","","99.34","","","","","","NA"
"-123.18","49.19","VANCOUVER INTL A","1108395","2022-01-03 03:00","2022","01","03","03:00","3.5","","2.0","","90","","","","14","","26","","32.2","","99.32","","","","","","NA"
"-123.18","49.19","VANCOUVER INTL A","1108395","2022-01-03 04:00","2022","01","03","04:00","3.9","","1.9","","87","","","","15","","28","","32.2","","99.33","","","","","","Cloudy"
"-123.18","49.19","VANCOUVER INTL A","1108395","2022-01-03 05:00","2022","01","03","05:00","3.8","","2.4","","91","","","","14","","22","","32.2","","99.29","","","","","","NA"
"-123.18","49.19","VANCOUVER INTL A","1108395","2022-01-03 06:00","2022","01","03","06:00","4.3","","3.1","","92","","","","15","","23","","16.1","","99.27","","","","","","Rain"
"-123.18","49.19","VANCOUVER INTL A","1108395","2022-01-03 07:00","2022","01","03","07:00","3.3","","2.0","","91","","","","17","","24","","9.7","","99.31","","","","","","Moderate Rain"
"-123.18","49.19","VANCOUVER INTL A","1108395","2022-01-03 08:00","2022","01","03","08:00","2.2","","1.6","","96","","","","9","","16","","24.1","","99.29","","","","","","Rain"
"-123.18","49.19","VANCOUVER INTL A","1108395","2022-01-03 09:00","2022","01","03","09:00","3.4","","2.8","","96","","","","14","","20","","32.2","","99.35","","","","","","NA"
"-123.18","49.19","VANCOUVER INTL A","1108395","2022-01-03 10:00","2022","01","03","10:00","4.1","","3.1","","93","","","","13","","13","","24.1","","99.40","","","","","","Rain Showers"
"-123.18","49.19","VANCOUVER INTL A","1108395","2022-01-03 11:00","2022","01","03","11:00","4.5","","2.7","","88","","","","15","","20","","32.2","","99.41","","","","","","Rain Showers"
"-123.18","49.19","VANCOUVER INTL A","1108395","2022-01-03 12:00","2022","01","03","12:00","4.9","","3.0","","87","","","","16","","22","","32.2","","99.45","","","","","","NA"
"-123.18","49.19","VANCOUVER INTL A","1108395","2022-01-03 13:00","2022","01","03","13:00","4.7","","2.3","","84","","","","15","","28","","32.2","","99.51","","","","","","Mostly Cloudy"
"-123.18","49.19","VANCOUVER INTL A","1108395","2022-01-03 14:00","2022","01","03","14:00","4.8","","0.5","","73","","","","19","","30","","32.2","","99.58","","","","","","NA"
"-123.18","49.19","VANCOUVER INTL A","1108395","2022-01-03 15:00","2022","01","03","15:00","3.6","","0.8","","82","","","","20","","32","","32.2","","99.73","","","","","","NA"
"-123.18","49.19","VANCOUVER INTL A","1108395","2022-01-03 16:00","2022","01","03","16:00","2.9","","0.0","","81","","","","20","","33","","32.2","","99.89","","","","","","Mostly Cloudy"
"-123.18","49.19","VANCOUVER INTL A","1108395","2022-01-03 17:00","2022","01","03","17:00","2.9","","-0.6","","78","","","","18","","21","","32.2","","99.98","","","","","","NA"
"-123.18","49.19","VANCOUVER INTL A","1108395","2022-01-03 18:00","2022","01","03","18:00","2.7","","0.0","","82","","","","18","","20","","24.1","","100.07","","","","","","NA"
"-123.18","49.19","VANCOUVER INTL A","1108395","2022-01-03 19:00","2022","01","03","19:00","2.3","","0.2","","86","","","","16","","11","","32.2","","100.17","","","","","","Mostly Cloudy"
"-123.18","49.19","VANCOUVER INTL A","1108395","2022-01-03 20:00","2022","01","03","20:00","2.9","","-0.4","","79","","","","17","","12","","32.2","","100.26","","","","","","NA"
"-123.18","49.19","VANCOUVER INTL A","1108395","2022-01-03 21:00","2022","01","03","21:00","2.3","","-0.3","","83","","","","11","","10","","32.2","","100.36","","","","","","NA"
"-123.18","49.19","VANCOUVER INTL A","1108395","2022-01-03 22:00","2022","01","03","22:00","2.1","","0.3","","88","","","","9","","18","","32.2","","100.46","","","","","","Mostly Cloudy"
"-123.18","49.19","VANCOUVER INTL A","1108395","2022-01-03 23:00","2022","01","03","23:00","1.2","","0.6","","96","","","","6","","19","","32.2","","100.53","","","","","","NA"
"-123.18","49.19","VANCOUVER INTL A","1108395","2022-01-04 00:00","2022","01","04","00:00","1.7","","0.8","","94","","","","9","","20","","32.2","","100.62","","","","","","NA"
"-123.18","49.19","VANCOUVER INTL A","1108395","2022-01-04 01:00","2022","01","04","01:00","1.9","","0.7","","92","","","","10","","23","","24.1","","100.70","","","","","","Rain"
"-123.18","49.19","VANCOUVER INTL A","1108395","2022-01-04 02:00","2022","01","04","02:00","2.3","","1.4","","94","","","","12","","22","","19.3","","100.77","","","","","","Rain"
"-123.18","49.19","VANCOUVER INTL A","1108395","2022-01-04 03:00","2022","01","04","03:00","2.4","","1.1","","92","","","","8","","17","","19.3","","100.83","","","","","","Rain"
"-123.18","49.19","VANCOUVER INTL A","1108395","2022-01-04 04:00","2022","01","04","04:00","1.9","","1.1","","94","","","","9","","23","","24.1","","100.85","","","","","","Cloudy"
"-123.18","49.19","VANCOUVER INTL A","1108395","2022-01-04 05:00","2022","01","04","05:00","1.6","","0.8","","95","","","","9","","27","","24.1","","100.88","","","","","","Rain"
"-123.18","49.19","VANCOUVER INTL A","1108395","2022-01-04 06:00","2022","01","04","06:00","1.3","","0.8","","97","","","","10","","16","","19.3","","100.91","","","","","","Rain"
"-123.18","49.19","VANCOUVER INTL A","1108395","2022-01-04 07:00","2022","01","04","07:00","3.4","","1.5","","87","","","","17","","29","","16.1","","100.95","","","","","","Cloudy"
"-123.18","49.19","VANCOUVER INTL A","1108395","2022-01-04 08:00","2022","01","04","08:00","3.8","","0.4","","79","","","","22","","31","","24.1","","101.08","","","","","","NA"
"-123.18","49.19","VANCOUVER INTL A","1108395","2022-01-04 09:00","2022","01","04","09:00","4.2","","-0.6","","71","","","","20","","31","","40.2","","101.25","","","","","","NA"
"-123.18","49.19","VANCOUVER INTL A","1108395","2022-01-04 10:00","2022","01","04","10:00","4.9","","0.1","","71","","","","18","","19","","40.2","","101.37","","","","","","Mostly Cloudy"
"-123.18","49.19","VANCOUVER INTL A","1108395","2022-01-04 11:00","2022","01","04","11:00","4.4","","0.2","","74","","","","12","","9","","32.2","","101.45","","","","","","NA"
"-123.18","49.19","VANCOUVER INTL A","1108395","2022-01-04 12:00","2022","01","04","12:00","4.3","","1.1","","80","","","","7","","9","","32.2","","101.47","","","","","","NA"
"-123.18","49.19","VANCOUVER INTL A","1108395","2022-01-04 13:00","2022","01","04","13:00","4.1","","1.4","","83","","","","11","","14","","16.1","","101.45","","","","","","Rain"
"-123.18","49.19","VANCOUVER INTL A","1108395","2022-01-04 14:00","2022","01","04","14:00","2.8","","1.6","","91","","","","9","","14","","12.9","","101.44","","","","","","Rain"
"-123.18","49.19","VANCOUVER INTL A","1108395","2022-01-04 15:00","2022","01","04","15:00","2.0","","0.8","","91","","","","12","","17","","4.8","","101.45","","","","","","Rain,Fog"
"-123.18","49.19","VANCOUVER INTL A","1108395","2022-01-04 16:00","2022","01","04","16:00","1.1","","0.3","","94","","","","7","","19","","12.9","","101.45","","","","","","Rain"
"-123.18","49.19","VANCOUVER INTL A","1108395","2022-01-04 17:00","2022","01","04","17:00","1.1","","0.7","","97","","","","7","","18","","12.9","","101.43","","","","","","Rain"
"-123.18","49.19","VANCOUVER INTL A","1108395","2022-01-04 18:00","2022","01","04","18:00","0.5","","0.1","","97","","","","8","","13","","8.1","","101.42","","","","","","Snow"
"-123.18","49.19","VANCOUVER INTL A","1108395","2022-01-04 19:00","2022","01","04","19:00","0.9","","0.5","","97","","","","7","","12","","12.9","","101.39","","","","","","Rain,Snow"
"-123.18","49.19","VANCOUVER INTL A","1108395","2022-01-04 20:00","2022","01","04","20:00","0.4","","0.0","","98","","","","4","","8","","4.8","","101.43","","","","","","Snow"
"-123.18","49.19","VANCOUVER INTL A","1108395","2022-01-04 21:00","2022","01","04","21:00","0.2","","0.0","","98","","","","2","","5","","4.8","","101.51","","","","","","Snow"
"-123.18","49.19","VANCOUVER INTL A","1108395","2022-01-04 22:00","2022","01","04","22:00","0.4","","0.2","","98","","","","36","","2","","12.9","","101.55","","","","","","Snow"
"-123.18","49.19","VANCOUVER INTL A","1108395","2022-01-04 23:00","2022","01","04","23:00","0.5","","0.3","","99","","","","28","","3","","24.1","","101.60","","","","","","NA"
"-123.18","49.19","VANCOUVER INTL A","1108395","2022-01-05 00:00","2022","01","05","00:00","0.6","","0.2","","97","","","","31","","12","","24.1","","101.70","","","","","","NA"
"-123.18","49.19","VANCOUVER INTL A","1108395","2022-01-05 01:00","2022","01","05","01:00","0.8","","0.0","","94","","","","33","","14","","24.1","","101.75","","","","","","Mostly Cloudy"
"-123.18","49.19","VANCOUVER INTL A","1108395","2022-01-05 02:00","2022","01","05","02:00","0.8","","0.2","","96","","","","32","","7","","24.1","","101.83","","","","","","NA"
"-123.18","49.19","VANCOUVER INTL A","1108395","2022-01-05 03:00","2022","01","05","03:00","0.7","","-0.2","","94","","","","30","","10","","32.2","","101.92","","","","","","NA"
"-123.18","49.19","VANCOUVER INTL A","1108395","2022-01-05 04:00","2022","01","05","04:00","0.2","","-0.3","","97","","","","32","","8","","6.4","","102.00","","","","","","Snow"
"-123.18","49.19","VANCOUVER INTL A","1108395","2022-01-05 05:00","2022","01","05","05:00","0.0","","-0.4","","97","","","","9","","16","","9.7","","102.04","","","","-5","","Snow"
"-123.18","49.19","VANCOUVER INTL A","1108395","2022-01-05 06:00","2022","01","05","06:00","-0.8","","-1.1","","98","","","","10","","14","","2.4","","102.12","","","","-5","","Snow"
"-123.18","49.19","VANCOUVER INTL A","1108395","2022-01-05 07:00","2022","01","05","07:00","-1.4","","-1.8","","97","","","","11","","13","","11.3","","102.19","","","","-6","","Snow"
"-123.18","49.19","VANCOUVER INTL A","1108395","2022-01-05 08:00","2022","01","05","08:00","-1.8","","-2.3","","96","","","","10","","14","","11.3","","102.31","","","","-6","","Snow"
"-123.18","49.19","VANCOUVER INTL A","1108395","2022-01-05 09:00","2022","01","05","09:00","-2.0","","-3.9","","87","","","","9","","14","","24.1","","102.36","","","","-7","","NA"
"-123.18","49.19","VANCOUVER INTL A","1108395","2022-01-05 10:00","2022","01","05","10:00","-2.0","","-4.6","","82","","","","10","","16","","32.2","","102.46","","","","-7","","Cloudy"
"-123.18","49.19","VANCOUVER INTL A","1108395","2022-01-05 11:00","2022","01","05","11:00","-1.9","","-4.3","","84","","","","10","","11","","32.2","","102.47","","","","-6","","NA"
"-123.18","49.19","VANCOUVER INTL A","1108395","2022-01-05 12:00","2022","01","05","12:00","-1.7","","-3.6","","87","","","","12","","8","","32.2","","102.42","","","","-5","","NA"
"-123.18","49.19","VANCOUVER INTL A","1108395","2022-01-05 13:00","2022","01","05","13:00","-1.7","","-3.5","","87","","","","10","","13","","32.2","","102.34","","","","-6","","Cloudy"
"-123.18","49.19","VANCOUVER INTL A","1108395","2022-01-05 14:00","2022","01","05","14:00","-1.6","","-3.5","","87","","","","11","","13","","32.2","","102.27","","","","-6","","NA"
"-123.18","49.19","VANCOUVER INTL A","1108395","2022-01-05 15:00","2022","01","05","15:00","-1.9","","-3.9","","86","","","","10","","11","","32.2","","102.27","","","","-6","","NA"
"-123.18","49.19","VANCOUVER INTL A","1108395","2022-01-05 16:00","2022","01","05","16:00","-1.8","","-3.3","","89","","","","11","","11","","32.2","","102.22","","","","-6","","Cloudy"
"-123.18","49.19","VANCOUVER INTL A","1108395","2022-01-05 17:00","2022","01","05","17:00","-2.0","","-3.8","","87","","","","12","","10","","24.1","","102.15","","","","-6","","NA"
"-123.18","49.19","VANCOUVER INTL A","1108395","2022-01-05 18:00","2022","01","05","18:00","-2.3","","-4.2","","87","","","","10","","8","","24.1","","102.08","","","","-5","","NA"
"-123.18","49.19","VANCOUVER INTL A","1108395","2022-01-05 19:00","2022","01","05","19:00","-2.4","","-4.5","","85","","","","9","","12","","24.1","","101.96","","","","-7","","Cloudy"
"-123.18","49.19","VANCOUVER INTL A","1108395","2022-01-05 20:00","2022","01","05","20:00","-2.4","","-4.5","","86","","","","8","","10","","9.7","","101.92","","","","-6","","Snow"
"-123.18","49.19","VANCOUVER INTL A","1108395","2022-01-05 21:00","2022","01","05","21:00","-3.0","","-4.2","","92","","","","10","","16","","2.4","","101.74","","","","-8","","Snow"
"-123.18","49.19","VANCOUVER INTL A","1108395","2022-01-05 22:00","2022","01","05","22:00","-3.4","","-4.2","","95","","","","10","","23","","1.2","","101.52","","","","-10","","Snow"
"-123.18","49.19","VANCOUVER INTL A","1108395","2022-01-05 23:00","2022","01","05","23:00","-3.1","","-3.7","","95","","","","9","","23","","1.0","","101.30","","","","-10","","Snow"
"-123.18","49.19","VANCOUVER INTL A","1108395","2022-01-06 00:00","2022","01","06","00:00","-2.8","","-3.3","","96","","","","9","","20","","0.6","","101.17","","","","-9","","Moderate Snow"
"-123.18","49.19","VANCOUVER INTL A","1108395","2022-01-06 01:00","2022","01","06","01:00","-2.2","","-2.6","","97","","","","9","","13","","0.6","","101.00","","","","-7","","Moderate Snow"
"-123.18","49.19","VANCOUVER INTL A","1108395","2022-01-06 02:00","2022","01","06","02:00","-1.6","","-2.0","","98","","","","4","","4","","0.8","","100.89","","","","-3","","Moderate Snow"
"-123.18","49.19","VANCOUVER INTL A","1108395","2022-01-06 03:00","2022","01","06","03:00","-1.8","","-2.1","","98","","","","23","","9","","3.2","","100.87","","","","-5","","Snow"
"-123.18","49.19","VANCOUVER INTL A","1108395","2022-01-06 04:00","2022","01","06","04:00","-2.5","","-2.9","","97","","","","15","","8","","4.8","","100.73","","","","-6","","Snow"
"-123.18","49.19","VANCOUVER INTL A","1108395","2022-01-06 05:00","2022","01","06","05:00","-2.2","","-2.6","","97","","","","8","","5","","4.8","","100.65","","","","-4","","Snow"
"-123.18","49.19","VANCOUVER INTL A","1108395","2022-01-06 06:00","2022","01","06","06:00","-1.7","","-2.0","","98","","","","10","","12","","4.0","","100.54","","","","-6","","Snow"
"-123.18","49.19","VANCOUVER INTL A","1108395","2022-01-06 07:00","2022","01","06","07:00","-1.4","","-1.7","","98","","","","9","","20","","6.4","","100.51","","","","-7","","Freezing Drizzle"
"-123.18","49.19","VANCOUVER INTL A","1108395","2022-01-06 08:00","2022","01","06","08:00","-1.2","","-1.5","","98","","","","9","","22","","4.0","","100.45","","","","-7","","Freezing Drizzle"
"-123.18","49.19","VANCOUVER INTL A","1108395","2022-01-06 09:00","2022","01","06","09:00","-0.7","","-1.0","","98","","","","9","","17","","4.0","","100.43","","","","-6","","Freezing Drizzle"
"-123.18","49.19","VANCOUVER INTL A","1108395","2022-01-06 10:00","2022","01","06","10:00","-0.1","","-0.5","","98","","","","9","","17","","6.4","","100.39","","","","-5","","Freezing Drizzle"
"-123.18","49.19","VANCOUVER INTL A","1108395","2022-01-06 11:00","2022","01","06","11:00","0.4","","0.1","","97","","","","10","","20","","12.9","","100.31","","","","","","Drizzle"
"-123.18","49.19","VANCOUVER INTL A","1108395","2022-01-06 12:00","2022","01","06","12:00","0.7","","0.4","","98","","","","7","","15","","9.7","","100.21","","","","","","Drizzle"
"-123.18","49.19","VANCOUVER INTL A","1108395","2022-01-06 13:00","2022","01","06","13:00","1.8","","1.4","","98","","","","8","","18","","11.3","","100.09","","","","","","Drizzle"
"-123.18","49.19","VANCOUVER INTL A","1108395","2022-01-06 14:00","2022","01","06","14:00","2.5","","2.2","","98","","","","8","","20","","24.1","","99.98","","","","","","Drizzle"
"-123.18","49.19","VANCOUVER INTL A","1108395","2022-01-06 15:00","2022","01","06","15:00","2.4","","2.0","","97","","","","9","","23","","24.1","","99.92","","","","","","NA"
"-123.18","49.19","VANCOUVER INTL A","1108395","2022-01-06 16:00","2022","01","06","16:00","2.0","","1.6","","97","","","","9","","22","","24.1","","99.83","","","","","","Drizzle"
"-123.18","49.19","VANCOUVER INTL A","1108395","2022-01-06 17:00","2022","01","06","17:00","2.5","","2.3","","98","","","","10","","26","","24.1","","99.74","","","","","","NA"
"-123.18","49.19","VANCOUVER INTL A","1108395","2022-01-06 18:00","2022","01","06","18:00","2.9","","2.6","","98","","","","8","","20","","24.1","","99.63","","","","","","NA"
"-123.18","49.19","VANCOUVER INTL A","1108395","2022-01-06 19:00","2022","01","06","19:00","2.3","","2.0","","98","","","","10","","25","","12.9","","99.57","","","","","","Rain"
"-123.18","49.19","VANCOUVER INTL A","1108395","2022-01-06 20:00","2022","01","06","20:00","2.7","","2.6","","99","","","","8","","17","","9.7","","99.45","","","","","","Moderate Rain,Fog"
"-123.18","49.19","VANCOUVER INTL A","1108395","2022-01-06 21:00","2022","01","06","21:00","3.8","","3.7","","99","","","","7","","23","","9.7","","99.32","","","","","","Rain,Fog"
"-123.18","49.19","VANCOUVER INTL A","1108395","2022-01-06 22:00","2022","01","06","22:00","3.6","","3.5","","99","","","","8","","17","","4.8","","99.20","","","","","","Rain,Fog"
"-123.18","49.19","VANCOUVER INTL A","1108395","2022-01-06 23:00","2022","01","06","23:00","3.0","","2.8","","99","","","","8","","16","","9.7","","99.08","","","","","","Moderate Rain,Fog"
"-123.18","49.19","VANCOUVER INTL A","1108395","2022-01-07 00:00","2022","01","07","00:00","4.0","","3.9","","99","","","","6","","15","","12.9","","98.98","","","","","","Rain"
"-123.18","49.19","VANCOUVER INTL A","1108395","2022-01-07 01:00","2022","01","07","01:00","3.8","","3.6","","99","","","","1","","9","","12.9","","98.97","","","","","","Rain"
"-123.18","49.19","VANCOUVER INTL A","1108395","2022-01-07 02:00","2022","01","07","02:00","4.0","","3.8","","99","","","","5","","17","","24.1","","98.95","","","","","","NA"
"-123.18","49.19","VANCOUVER INTL A","1108395","2022-01-07 03:00","2022","01","07","03:00","4.1","","3.8","","98","","","","6","","16","","24.1","","98.98","","","","","","NA"
"-123.18","49.19","VANCOUVER INTL A","1108395","2022-01-07 04:00","2022","01","07","04:00","3.5","","3.2","","98","","","","10","","7","","19.3","","98.97","","","","","","Cloudy"
"-123.18","49.19","VANCOUVER INTL A","1108395","2022-01-07 05:00","2022","01","07","05:00","3.3","","3.1","","99","","","","31","","12","","16.1","","99.00","","","","","","Drizzle"
"-123.18","49.19","VANCOUVER INTL A","1108395","2022-01-07 06:00","2022","01","07","06:00","3.0","","2.9","","99","","","","31","","12","","9.7","","98.98","","","","","","Drizzle,Fog"
"-123.18","49.19","VANCOUVER INTL A","1108395","2022-01-07 07:00","2022","01","07","07:00","3.2","","3.1","","99","","","","28","","39","","8.1","","99.03","","","","","","Drizzle,Fog"
"-123.18","49.19","VANCOUVER INTL A","1108395","2022-01-07 08:00","2022","01","07","08:00","3.1","","2.9","","99","","","","29","","40","","24.1","","99.07","","","","","","Rain"
"-123.18","49.19","VANCOUVER INTL A","1108395","2022-01-07 09:00","2022","01","07","09:00","3.2","","0.4","","82","","","","28","","58","","32.2","","99.18","","","","","","NA"
"-123.18","49.19","VANCOUVER INTL A","1108395","2022-01-07 10:00","2022","01","07","10:00","2.8","","-0.8","","77","","","","28","","59","","48.3","","99.35","","","","","","Mostly Cloudy"
"-123.18","49.19","VANCOUVER INTL A","1108395","2022-01-07 11:00","2022","01","07","11:00","2.3","","-1.6","","75","","","","28","","56","","48.3","","99.49","","","","","","NA"
"-123.18","49.19","VANCOUVER INTL A","1108395","2022-01-07 12:00","2022","01","07","12:00","2.6","","-3.0","","67","","","","28","","60","","48.3","","99.70","","","","","","NA"
"-123.18","49.19","VANCOUVER INTL A","1108395","2022-01-07 13:00","2022","01","07","13:00","2.3","","-3.1","","68","","","","29","","56","","48.3","","99.86","","","","","","Mostly Cloudy"
"-123.18","49.19","VANCOUVER INTL A","1108395","2022-01-07 14:00","2022","01","07","14:00","2.3","","-3.0","","68","","","","28","","58","","48.3","","100.03","","","","","","NA"
"-123.18","49.19","VANCOUVER INTL A","1108395","2022-01-07 15:00","2022","01","07","15:00","2.7","","-4.5","","59","","","","27","","61","","48.3","","100.17","","","","","","NA"
"-123.18","49.19","VANCOUVER INTL A","1108395","2022-01-07 16:00","2022","01","07","16:00","2.4","","-3.8","","64","","","","28","","46","","48.3","","100.37","","","","","","Mostly Cloudy"
"-123.18","49.19","VANCOUVER INTL A","1108395","2022-01-07 17:00","2022","01","07","17:00","2.6","","-4.1","","61","","","","29","","37","","48.3","","100.52","","","","","","NA"
"-123.18","49.19","VANCOUVER INTL A","1108395","2022-01-07 18:00","2022","01","07","18:00","2.1","","-4.7","","61","","","","29","","36","","24.1","","100.63","","","","","","NA"
"-123.18","49.19","VANCOUVER INTL A","1108395","2022-01-07 19:00","2022","01","07","19:00","2.4","","-5.0","","58","","","","29","","34","","48.3","","100.77","","","","","","Mostly Cloudy"
"-123.18","49.19","VANCOUVER INTL A","1108395","2022-01-07 20:00","2022","01","07","20:00","2.2","","-5.1","","58","","","","29","","28","","48.3","","100.89","","","","","","NA"
"-123.18","49.19","VANCOUVER INTL A","1108395","2022-01-07 21:00","2022","01","07","21:00","1.7","","-4.2","","65","","","","28","","23","","48.3","","101.01","","","","","","NA"
"-123.18","49.19","VANCOUVER INTL A","1108395","2022-01-07 22:00","2022","01","07","22:00","1.3","","-3.5","","70","","","","28","","20","","48.3","","101.13","","","","","","Mainly Clear"
"-123.18","49.19","VANCOUVER INTL A","1108395","2022-01-07 23:00","2022","01","07","23:00","1.3","","-4.0","","68","","","","28","","20","","48.3","","101.26","","","","","","NA"
"-123.18","49.19","VANCOUVER INTL A","1108395","2022-01-08 00:00","2022","01","08","00:00","1.1","","-3.7","","70","","","","28","","16","","48.3","","101.40","","","","","","NA"
"-123.18","49.19","VANCOUVER INTL A","1108395","2022-01-08 01:00","2022","01","08","01:00","1.5","","-3.1","","72","","","","28","","14","","48.3","","101.48","","","","","","Mostly Cloudy"
"-123.18","49.19","VANCOUVER INTL A","1108395","2022-01-08 02:00","2022","01","08","02:00","2.0","","-4.5","","62","","","","36","","5","","48.3","","101.60","","","","","","NA"
"-123.18","49.19","VANCOUVER INTL A","1108395","2022-01-08 03:00","2022","01","08","03:00","1.2","","-4.4","","66","","","","31","","5","","48.3","","101.70","","","","","","NA"
"-123.18","49.19","VANCOUVER INTL A","1108395","2022-01-08 04:00","2022","01","08","04:00","-0.4","","-3.4","","80","","","","8","","8","","32.2","","101.75","","","","-3","","Mostly Cloudy"
"-123.18","49.19","VANCOUVER INTL A","1108395","2022-01-08 05:00","2022","01","08","05:00","-1.2","","-3.4","","85","","","","7","","10","","32.2","","101.82","","","","-5","","NA"
"-123.18","49.19","VANCOUVER INTL A","1108395","2022-01-08 06:00","2022","01","08","06:00","-0.9","","-3.3","","84","","","","7","","10","","32.2","","101.93","","","","-4","","NA"
"-123.18","49.19","VANCOUVER INTL A","1108395","2022-01-08 07:00","2022","01","08","07:00","-0.6","","-2.8","","85","","","","10","","12","","32.2","","102.01","","","","-5","","Mostly Cloudy"
"-123.18","49.19","VANCOUVER INTL A","1108395","2022-01-08 08:00","2022","01","08","08:00","0.5","","-2.3","","82","","","","7","","13","","32.2","","102.09","","","","","","NA"
"-123.18","49.19","VANCOUVER INTL A","1108395","2022-01-08 09:00","2022","01","08","09:00","0.8","","-2.2","","81","","","","8","","10","","32.2","","102.18","","","","","","NA"
"-123.18","49.19","VANCOUVER INTL A","1108395","2022-01-08 10:00","2022","01","08","10:00","1.1","","-1.6","","82","","","","9","","12","","24.1","","102.22","","","","","","Snow"
"-123.18","49.19","VANCOUVER INTL A","1108395","2022-01-08 11:00","2022","01","08","11:00","1.1","","-0.9","","87","","","","9","","24","","12.9","","102.26","","","","","","Snow"
"-123.18","49.19","VANCOUVER INTL A","1108395","2022-01-08 12:00","2022","01","08","12:00","0.8","","0.0","","95","","","","7","","22","","4.0","","102.28","","","","","","Snow,Fog"
"-123.18","49.19","VANCOUVER INTL A","1108395","2022-01-08 13:00","2022","01","08","13:00","1.3","","0.8","","96","","","","6","","14","","12.9","","102.27","","","","","","Rain"
"-123.18","49.19","VANCOUVER INTL A","1108395","2022-01-08 14:00","2022","01","08","14:00","1.8","","1.0","","95","","","","6","","13","","12.9","","102.29","","","","","","Rain"
"-123.18","49.19","VANCOUVER INTL A","1108395","2022-01-08 15:00","2022","01","08","15:00","2.2","","1.4","","94","","","","6","","21","","12.9","","102.32","","","","","","Rain"
"-123.18","49.19","VANCOUVER INTL A","1108395","2022-01-08 16:00","2022","01","08","16:00","2.1","","1.4","","95","","","","6","","22","","12.9","","102.36","","","","","","Rain"
"-123.18","49.19","VANCOUVER INTL A","1108395","2022-01-08 17:00","2022","01","08","17:00","2.1","","1.4","","95","","","","5","","18","","12.9","","102.39","","","","","","Rain"
"-123.18","49.19","VANCOUVER INTL A","1108395","2022-01-08 18:00","2022","01","08","18:00","2.4","","1.6","","95","","","","6","","20","","12.9","","102.42","","","","","","Rain"
"-123.18","49.19","VANCOUVER INTL A","1108395","2022-01-08 19:00","2022","01","08","19:00","2.8","","1.9","","94","","","","5","","18","","19.3","","102.47","","","","","","Cloudy"
"-123.18","49.19","VANCOUVER INTL A","1108395","2022-01-08 20:00","2022","01","08","20:00","2.6","","2.0","","96","","","","7","","16","","19.3","","102.49","","","","","","Rain Showers"
"-123.18","49.19","VANCOUVER INTL A","1108395","2022-01-08 21:00","2022","01","08","21:00","2.9","","2.3","","96","","","","7","","17","","19.3","","102.53","","","","","","NA"
"-123.18","49.19","VANCOUVER INTL A","1108395","2022-01-08 22:00","2022","01","08","22:00","3.4","","2.4","","93","","","","6","","13","","19.3","","102.58","","","","","","Cloudy"
"-123.18","49.19","VANCOUVER INTL A","1108395","2022-01-08 23:00","2022","01","08","23:00","3.5","","2.4","","92","","","","6","","13","","19.3","","102.61","","","","","","NA"
"-123.18","49.19","VANCOUVER INTL A","1108395","2022-01-09 00:00","2022","01","09","00:00","3.5","","2.4","","93","","","","4","","11","","19.3","","102.66","","","","","","NA"
"-123.18","49.19","VANCOUVER INTL A","1108395","2022-01-09 01:00","2022","01","09","01:00","3.6","","2.6","","93","","","","5","","10","","19.3","","102.66","","","","","","Cloudy"
"-123.18","49.19","VANCOUVER INTL A","1108395","2022-01-09 02:00","2022","01","09","02:00","2.5","","1.6","","94","","","","8","","10","","24.1","","102.67","","","","","","NA"
"-123.18","49.19","VANCOUVER INTL A","1108395","2022-01-09 03:00","2022","01","09","03:00","3.5","","2.2","","91","","","","7","","14","","24.1","","102.67","","","","","","NA"
"-123.18","49.19","VANCOUVER INTL A","1108395","2022-01-09 04:00","2022","01","09","04:00","1.5","","1.0","","96","","","","9","","10","","32.2","","102.64","","","","","","Mainly Clear"
"-123.18","49.19","VANCOUVER INTL A","1108395","2022-01-09 05:00","2022","01","09","05:00","0.3","","0.0","","97","","","","36","","1","","24.1","","102.65","","","","","","NA"
"-123.18","49.19","VANCOUVER INTL A","1108395","2022-01-09 06:00","2022","01","09","06:00","0.5","","0.3","","98","","","","36","","1","","24.1","","102.65","","","","","","NA"
"-123.18","49.19","VANCOUVER INTL A","1108395","2022-01-09 07:00","2022","01","09","07:00","-0.1","","-0.4","","98","","","","36","","4","","1.0","","102.66","","","","-1","","Fog"
"-123.18","49.19","VANCOUVER INTL A","1108395","2022-01-09 08:00","2022","01","09","08:00","-0.2","","-0.3","","99","","","","36","","2","","4.0","","102.67","","","","-1","","Fog"
"-123.18","49.19","VANCOUVER INTL A","1108395","2022-01-09 09:00","2022","01","09","09:00","-0.4","","-0.5","","99","","","","32","","4","","40.2","","102.71","","","","-2","","NA"
"-123.18","49.19","VANCOUVER INTL A","1108395","2022-01-09 10:00","2022","01","09","10:00","2.3","","2.1","","99","","","","26","","5","","40.2","","102.74","","","","","","Mainly Clear"
"-123.18","49.19","VANCOUVER INTL A","1108395","2022-01-09 11:00","2022","01","09","11:00","4.0","","3.0","","93","","","","19","","5","","40.2","","102.72","","","","","","NA"
"-123.18","49.19","VANCOUVER INTL A","1108395","2022-01-09 12:00","2022","01","09","12:00","5.4","","3.1","","85","","","","16","","4","","40.2","","102.64","","","","","","NA"
"-123.18","49.19","VANCOUVER INTL A","1108395","2022-01-09 13:00","2022","01","09","13:00","5.7","","3.3","","84","","","","24","","6","","40.2","","102.57","","","","","","Mainly Clear"
"-123.18","49.19","VANCOUVER INTL A","1108395","2022-01-09 14:00","2022","01","09","14:00","6.0","","3.6","","85","","","","29","","10","","40.2","","102.51","","","","","","NA"
"-123.18","49.19","VANCOUVER INTL A","1108395","2022-01-09 15:00","2022","01","09","15:00","5.5","","3.1","","85","","","","25","","15","","40.2","","102.49","","","","","","NA"
"-123.18","49.19","VANCOUVER INTL A","1108395","2022-01-09 16:00","2022","01","09","16:00","4.2","","2.9","","91","","","","17","","8","","40.2","","102.49","","","","","","Mainly Clear"
"-123.18","49.19","VANCOUVER INTL A","1108395","2022-01-09 17:00","2022","01","09","17:00","3.4","","1.7","","89","","","","13","","5","","40.2","","102.53","","","","","","NA"
"-123.18","49.19","VANCOUVER INTL A","1108395","2022-01-09 18:00","2022","01","09","18:00","2.2","","1.0","","92","","","","8","","9","","32.2","","102.49","","","","","","NA"
"-123.18","49.19","VANCOUVER INTL A","1108395","2022-01-09 19:00","2022","01","09","19:00","4.3","","3.0","","92","","","","8","","8","","32.2","","102.49","","","","","","Mainly Clear"
"-123.18","49.19","VANCOUVER INTL A","1108395","2022-01-09 20:00","2022","01","09","20:00","2.5","","1.9","","96","","","","8","","12","","32.2","","102.52","","","","","","NA"
"-123.18","49.19","VANCOUVER INTL A","1108395","2022-01-09 21:00","2022","01","09","21:00","1.1","","0.7","","98","","","","36","","3","","32.2","","102.57","","","","","","NA"
"-123.18","49.19","VANCOUVER INTL A","1108395","2022-01-09 22:00","2022","01","09","22:00","1.9","","1.8","","99","","","","9","","9","","32.2","","102.54","","","","","","Clear"
"-123.18","49.19","VANCOUVER INTL A","1108395","2022-01-09 23:00","2022","01","09","23:00","0.8","","0.5","","98","","","","36","","5","","32.2","","102.56","","","","","","NA"
"-123.18","49.19","VANCOUVER INTL A","1108395","2022-01-10 00:00","2022","01","10","00:00","0.6","","0.4","","98","","","","11","","10","","32.2","","102.53","","","","","","NA"
"-123.18","49.19","VANCOUVER INTL A","1108395","2022-01-10 01:00","2022","01","10","01:00","0.2","","-0.1","","98","","","","36","","2","","32.2","","102.56","","","","","","Mainly Clear"
"-123.18","49.19","VANCOUVER INTL A","1108395","2022-01-10 02:00","2022","01","10","02:00","0.5","","0.2","","98","","","","13","","5","","32.2","","102.55","","","","","","NA"
"-123.18","49.19","VANCOUVER INTL A","1108395","2022-01-10 03:00","2022","01","10","03:00","0.6","","0.4","","99","","","","8","","6","","32.2","","102.53","","","","","","NA"
"-123.18","49.19","VANCOUVER INTL A","1108395","2022-01-10 04:00","2022","01","10","04:00","0.6","","0.3","","98","","","","10","","18","","32.2","","102.42","","","","","","Mostly Cloudy"
"-123.18","49.19","VANCOUVER INTL A","1108395","2022-01-10 05:00","2022","01","10","05:00","1.2","","0.8","","97","","","","10","","21","","32.2","","102.30","","","","","","NA"
"-123.18","49.19","VANCOUVER INTL A","1108395","2022-01-10 06:00","2022","01","10","06:00","1.1","","0.6","","96","","","","9","","10","","32.2","","102.29","","","","","","NA"
"-123.18","49.19","VANCOUVER INTL A","1108395","2022-01-10 07:00","2022","01","10","07:00","2.4","","1.1","","91","","","","7","","10","","32.2","","102.33","","","","","","Cloudy"
"-123.18","49.19","VANCOUVER INTL A","1108395","2022-01-10 08:00","2022","01","10","08:00","1.9","","1.1","","94","","","","28","","5","","24.1","","102.56","","","","","","Rain Showers"
"-123.18","49.19","VANCOUVER INTL A","1108395","2022-01-10 09:00","2022","01","10","09:00","3.4","","1.7","","89","","","","9","","10","","24.1","","102.58","","","","","","Drizzle"
"-123.18","49.19","VANCOUVER INTL A","1108395","2022-01-10 10:00","2022","01","10","10:00","5.0","","2.5","","84","","","","9","","28","","16.1","","102.62","","","","","","Rain"
"-123.18","49.19","VANCOUVER INTL A","1108395","2022-01-10 11:00","2022","01","10","11:00","5.2","","4.4","","94","","","","8","","21","","12.9","","102.64","","","","","","Rain"
"-123.18","49.19","VANCOUVER INTL A","1108395","2022-01-10 12:00","2022","01","10","12:00","6.2","","5.2","","93","","","","8","","21","","12.9","","102.59","","","","","","Rain"
"-123.18","49.19","VANCOUVER INTL A","1108395","2022-01-10 13:00","2022","01","10","13:00","6.5","","5.7","","95","","","","8","","19","","12.9","","102.57","","","","","","Rain"
"-123.18","49.19","VANCOUVER INTL A","1108395","2022-01-10 14:00","2022","01","10","14:00","6.5","","5.9","","95","","","","6","","18","","14.5","","102.59","","","","","","NA"
"-123.18","49.19","VANCOUVER INTL A","1108395","2022-01-10 15:00","2022","01","10","15:00","6.8","","6.0","","95","","","","7","","16","","16.1","","102.61","","","","","","Rain"
"-123.18","49.19","VANCOUVER INTL A","1108395","2022-01-10 16:00","2022","01","10","16:00","7.0","","5.9","","93","","","","7","","16","","16.1","","102.63","","","","","","Rain"
"-123.18","49.19","VANCOUVER INTL A","1108395","2022-01-10 17:00","2022","01","10","17:00","7.0","","6.1","","94","","","","6","","18","","24.1","","102.59","","","","","","Rain"
"-123.18","49.19","VANCOUVER INTL A","1108395","2022-01-10 18:00","2022","01","10","18:00","7.1","","5.9","","92","","","","7","","14","","32.2","","102.53","","","","","","NA"
"-123.18","49.19","VANCOUVER INTL A","1108395","2022-01-10 19:00","2022","01","10","19:00","7.5","","6.2","","91","","","","6","","19","","24.1","","102.36","","","","","","Rain"
"-123.18","49.19","VANCOUVER INTL A","1108395","2022-01-10 20:00","2022","01","10","20:00","7.4","","6.2","","92","","","","6","","20","","32.2","","102.24","","","","","","NA"
"-123.18","49.19","VANCOUVER INTL A","1108395","2022-01-10 21:00","2022","01","10","21:00","8.2","","6.1","","86","","","","9","","17","","32.2","","102.19","","","","","","NA"
"-123.18","49.19","VANCOUVER INTL A","1108395","2022-01-10 22:00","2022","01","10","22:00","7.5","","5.7","","88","","","","9","","14","","32.2","","102.17","","","","","","Cloudy"
"-123.18","49.19","VANCOUVER INTL A","1108395","2022-01-10 23:00","2022","01","10","23:00","7.2","","6.5","","95","","","","8","","16","","19.3","","102.15","","","","","","Moderate Rain"
"-123.18","49.19","VANCOUVER INTL A","1108395","2022-01-11 00:00","2022","01","11","00:00","7.6","","6.9","","95","","","","9","","26","","24.1","","102.01","","","","","","Rain"
"-123.18","49.19","VANCOUVER INTL A","1108395","2022-01-11 01:00","2022","01","11","01:00","7.8","","6.8","","94","","","","10","","23","","32.2","","101.93","","","","","","Cloudy"
"-123.18","49.19","VANCOUVER INTL A","1108395","2022-01-11 02:00","2022","01","11","02:00","7.8","","7.1","","95","","","","9","","22","","32.2","","101.97","","","","","","NA"
"-123.18","49.19","VANCOUVER INTL A","1108395","2022-01-11 03:00","2022","01","11","03:00","7.7","","7.0","","95","","","","10","","19","","32.2","","101.96","","","","","","NA"
"-123.18","49.19","VANCOUVER INTL A","1108395","2022-01-11 04:00","2022","01","11","04:00","8.0","","7.4","","96","","","","10","","27","","32.2","","101.91","","","","","","Cloudy"
"-123.18","49.19","VANCOUVER INTL A","1108395","2022-01-11 05:00","2022","01","11","05:00","8.7","","7.5","","92","","","","11","","28","","32.2","","101.95","","","","","","NA"
"-123.18","49.19","VANCOUVER INTL A","1108395","2022-01-11 06:00","2022","01","11","06:00","8.6","","7.5","","93","","","","12","","26","","32.2","","101.95","","","","","","NA"
"-123.18","49.19","VANCOUVER INTL A","1108395","2022-01-11 07:00","2022","01","11","07:00","8.4","","7.5","","94","","","","11","","23","","32.2","","102.00","","","","","","Cloudy"
"-123.18","49.19","VANCOUVER INTL A","1108395","2022-01-11 08:00","2022","01","11","08:00","8.2","","7.4","","95","","","","12","","22","","32.2","","102.06","","","","","","NA"
"-123.18","49.19","VANCOUVER INTL A","1108395","2022-01-11 09:00","2022","01","11","09:00","8.7","","7.9","","95","","","","13","","24","","32.2","","102.16","","","","","","NA"
"-123.18","49.19","VANCOUVER INTL A","1108395","2022-01-11 10:00","2022","01","11","10:00","9.2","","8.3","","94","","","","12","","18","","32.2","","102.19","","","","","","Cloudy"
"-123.18","49.19","VANCOUVER INTL A","1108395","2022-01-11 11:00","2022","01","11","11:00","9.5","","8.7","","94","","","","10","","20","","32.2","","102.19","","","","","","NA"
"-123.18","49.19","VANCOUVER INTL A","1108395","2022-01-11 12:00","2022","01","11","12:00","9.7","","8.7","","93","","","","10","","14","","32.2","","102.12","","","","","","NA"
"-123.18","49.19","VANCOUVER INTL A","1108395","2022-01-11 13:00","2022","01","11","13:00","9.3","","9.0","","98","","","","8","","14","","12.9","","102.03","","","","","","Rain"
"-123.18","49.19","VANCOUVER INTL A","1108395","2022-01-11 14:00","2022","01","11","14:00","9.4","","9.2","","98","","","","10","","14","","4.8","","101.95","","","","","","Moderate Rain,Fog"
"-123.18","49.19","VANCOUVER INTL A","1108395","2022-01-11 15:00","2022","01","11","15:00","9.4","","9.2","","99","","","","9","","18","","6.4","","101.84","","","","","","Moderate Rain,Fog"
"-123.18","49.19","VANCOUVER INTL A","1108395","2022-01-11 16:00","2022","01","11","16:00","9.3","","9.2","","99","","","","10","","21","","6.4","","101.74","","","","","","Rain,Fog"
"-123.18","49.19","VANCOUVER INTL A","1108395","2022-01-11 17:00","2022","01","11","17:00","9.5","","9.4","","99","","","","8","","18","","12.9","","101.65","","","","","","Rain"
"-123.18","49.19","VANCOUVER INTL A","1108395","2022-01-11 18:00","2022","01","11","18:00","9.4","","9.3","","99","","","","9","","19","","12.9","","101.63","","","","","","Rain"
"-123.18","49.19","VANCOUVER INTL A","1108395","2022-01-11 19:00","2022","01","11","19:00","9.4","","9.2","","99","","","","11","","24","","12.9","","101.61","","","","","","Rain"
"-123.18","49.19","VANCOUVER INTL A","1108395","2022-01-11 20:00","2022","01","11","20:00","9.5","","9.2","","98","","","","11","","21","","16.1","","101.63","","","","","","Rain"
"-123.18","49.19","VANCOUVER INTL A","1108395","2022-01-11 21:00","2022","01","11","21:00","9.5","","9.2","","98","","","","11","","22","","24.1","","101.66","","","","","","NA"
"-123.18","49.19","VANCOUVER INTL A","1108395","2022-01-11 22:00","2022","01","11","22:00","9.5","","9.1","","98","","","","11","","21","","32.2","","101.70","","","","","","Cloudy"
"-123.18","49.19","VANCOUVER INTL A","1108395","2022-01-11 23:00","2022","01","11","23:00","9.3","","9.1","","98","","","","10","","19","","24.1","","101.75","","","","","","NA"
"-123.18","49.19","VANCOUVER INTL A","1108395","2022-01-12 00:00","2022","01","12","00:00","9.5","","9.2","","98","","","","10","","17","","24.1","","101.81","","","","","","NA"
"-123.18","49.19","VANCOUVER INTL A","1108395","2022-01-12 01:00","2022","01","12","01:00","9.6","","9.4","","99","","","","11","","18","","12.9","","101.82","","","","","","Rain"
"-123.18","49.19","VANCOUVER INTL A","1108395","2022-01-12 02:00","2022","01","12","02:00","9.6","","9.4","","99","","","","11","","17","","12.9","","101.91","","","","","","Rain"
"-123.18","49.19","VANCOUVER INTL A","1108395","2022-01-12 03:00","2022","01","12","03:00","9.2","","9.0","","99","","","","9","","18","","12.9","","101.92","","","","","","Rain"
"-123.18","49.19","VANCOUVER INTL A","1108395","2022-01-12 04:00","2022","01","12","04:00","9.0","","8.9","","99","","","","8","","14","","9.7","","101.87","","","","","","Rain,Fog"
"-123.18","49.19","VANCOUVER INTL A","1108395","2022-01-12 05:00","2022","01","12","05:00","9.0","","8.9","","99","","","","7","","14","","9.7","","101.81","","","","","","Rain,Fog"
"-123.18","49.19","VANCOUVER INTL A","1108395","2022-01-12 06:00","2022","01","12","06:00","9.7","","9.5","","99","","","","9","","14","","12.9","","101.80","","","","","","Rain"
"-123.18","49.19","VANCOUVER INTL A","1108395","2022-01-12 07:00","2022","01","12","07:00","9.5","","9.4","","99","","","","9","","16","","11.3","","101.80","","","","","","Moderate Rain"
"-123.18","49.19","VANCOUVER INTL A","1108395","2022-01-12 08:00","2022","01","12","08:00","9.6","","9.4","","99","","","","6","","17","","8.1","","101.73","","","","","","Moderate Rain,Fog"
"-123.18","49.19","VANCOUVER INTL A","1108395","2022-01-12 09:00","2022","01","12","09:00","9.8","","9.6","","99","","","","7","","17","","8.1","","101.73","","","","","","Moderate Rain"
"-123.18","49.19","VANCOUVER INTL A","1108395","2022-01-12 10:00","2022","01","12","10:00","9.8","","9.6","","99","","","","6","","12","","6.4","","101.75","","","","","","Moderate Rain,Fog"
"-123.18","49.19","VANCOUVER INTL A","1108395","2022-01-12 11:00","2022","01","12","11:00","9.6","","9.3","","99","","","","8","","20","","8.1","","101.77","","","","","","Rain,Fog"
"-123.18","49.19","VANCOUVER INTL A","1108395","2022-01-12 12:00","2022","01","12","12:00","10.1","","9.9","","98","","","","8","","19","","9.7","","101.69","","","","","","Moderate Rain,Fog"
"-123.18","49.19","VANCOUVER INTL A","1108395","2022-01-12 13:00","2022","01","12","13:00","10.3","","10.0","","98","","","","10","","23","","8.1","","101.62","","","","","","Rain,Fog"
"-123.18","49.19","VANCOUVER INTL A","1108395","2022-01-12 14:00","2022","01","12","14:00","10.3","","10.0","","98","","","","10","","22","","6.4","","101.61","","","","","","Rain,Fog"
"-123.18","49.19","VANCOUVER INTL A","1108395","2022-01-12 15:00","2022","01","12","15:00","10.3","","10.1","","99","","","","9","","21","","8.1","","101.61","","","","","","Rain,Fog"
"-123.18","49.19","VANCOUVER INTL A","1108395","2022-01-12 16:00","2022","01","12","16:00","10.2","","10.0","","99","","","","9","","22","","24.1","","101.64","","","","","","Cloudy"
"-123.18","49.19","VANCOUVER INTL A","1108395","2022-01-12 17:00","2022","01","12","17:00","10.7","","10.2","","97","","","","9","","18","","24.1","","101.66","","","","","","NA"
"-123.18","49.19","VANCOUVER INTL A","1108395","2022-01-12 18:00","2022","01","12","18:00","11.1","","9.9","","92","","","","7","","14","","24.1","","101.68","","","","","","NA"
"-123.18","49.19","VANCOUVER INTL A","1108395","2022-01-12 19:00","2022","01","12","19:00","11.3","","9.7","","90","","","","6","","9","","32.2","","101.65","","","","","","Mostly Cloudy"
"-123.18","49.19","VANCOUVER INTL A","1108395","2022-01-12 20:00","2022","01","12","20:00","10.8","","9.3","","90","","","","6","","11","","32.2","","101.63","","","","","","NA"
"-123.18","49.19","VANCOUVER INTL A","1108395","2022-01-12 21:00","2022","01","12","21:00","10.3","","8.8","","90","","","","5","","11","","32.2","","101.59","","","","","","NA"
"-123.18","49.19","VANCOUVER INTL A","1108395","2022-01-12 22:00","2022","01","12","22:00","8.9","","8.2","","95","","","","10","","11","","32.2","","101.60","","","","","","Mostly Cloudy"
"-123.18","49.19","VANCOUVER INTL A","1108395","2022-01-12 23:00","2022","01","12","23:00","9.0","","8.4","","95","","","","11","","6","","32.2","","101.67","","","","","","NA"
"-123.18","49.19","VANCOUVER INTL A","1108395","2022-01-13 00:00","2022","01","13","00:00","9.1","","8.2","","94","","","","7","","17","","32.2","","101.70","","","","","","NA"
"-123.18","49.19","VANCOUVER INTL A","1108395","2022-01-13 01:00","2022","01","13","01:00","8.9","","7.8","","93","","","","36","","3","","24.1","","101.65","","","","","","Rain"
"-123.18","49.19","VANCOUVER INTL A","1108395","2022-01-13 02:00","2022","01","13","02:00","8.5","","7.9","","96","","","","8","","7","","24.1","","101.66","","","","","","Rain"
"-123.18","49.19","VANCOUVER INTL A","1108395","2022-01-13 03:00","2022","01","13","03:00","8.0","","7.3","","95","","","","8","","11","","32.2","","101.63","","","","","","NA"
"-123.18","49.19","VANCOUVER INTL A","1108395","2022-01-13 04:00","2022","01","13","04:00","8.3","","7.3","","94","","","","9","","16","","32.2","","101.69","","","","","","Cloudy"
"-123.18","49.19","VANCOUVER INTL A","1108395","2022-01-13 05:00","2022","01","13","05:00","8.3","","7.4","","94","","","","8","","9","","32.2","","101.69","","","","","","NA"
"-123.18","49.19","VANCOUVER INTL A","1108395","2022-01-13 06:00","2022","01","13","06:00","9.6","","7.8","","88","","","","36","","2","","32.2","","101.73","","","","","","NA"
"-123.18","49.19","VANCOUVER INTL A","1108395","2022-01-13 07:00","2022","01","13","07:00","7.8","","7.2","","96","","","","25","","13","","24.1","","101.79","","","","","","Cloudy"
"-123.18","49.19","VANCOUVER INTL A","1108395","2022-01-13 08:00","2022","01","13","08:00","6.7","","6.2","","97","","","","16","","4","","32.2","","101.82","","","","","","NA"
"-123.18","49.19","VANCOUVER INTL A","1108395","2022-01-13 09:00","2022","01","13","09:00","8.7","","7.7","","94","","","","11","","14","","48.3","","101.92","","","","","","NA"
"-123.18","49.19","VANCOUVER INTL A","1108395","2022-01-13 10:00","2022","01","13","10:00","8.7","","7.8","","94","","","","9","","10","","48.3","","102.01","","","","","","Cloudy"
"-123.18","49.19","VANCOUVER INTL A","1108395","2022-01-13 11:00","2022","01","13","11:00","9.6","","8.2","","91","","","","36","","2","","48.3","","102.14","","","","","","NA"
"-123.18","49.19","VANCOUVER INTL A","1108395","2022-01-13 12:00","2022","01","13","12:00","10.6","","8.5","","87","","","","8","","4","","48.3","","102.20","","","","","","NA"
"-123.18","49.19","VANCOUVER INTL A","1108395","2022-01-13 13:00","2022","01","13","13:00","9.9","","7.8","","87","","","","30","","10","","48.3","","102.25","","","","","","Mostly Cloudy"
"-123.18","49.19","VANCOUVER INTL A","1108395","2022-01-13 14:00","2022","01","13","14:00","9.7","","8.0","","89","","","","31","","15","","48.3","","102.34","","","","","","NA"
"-123.18","49.19","VANCOUVER INTL A","1108395","2022-01-13 15:00","2022","01","13","15:00","8.1","","7.0","","93","","","","31","","14","","40.2","","102.45","","","","","","NA"
"-123.18","49.19","VANCOUVER INTL A","1108395","2022-01-13 16:00","2022","01","13","16:00","7.6","","6.9","","95","","","","28","","6","","48.3","","102.52","","","","","","Mainly Clear"
"-123.18","49.19","VANCOUVER INTL A","1108395","2022-01-13 17:00","2022","01","13","17:00","5.5","","5.2","","99","","","","29","","16","","48.3","","102.62","","","","","","NA"
"-123.18","49.19","VANCOUVER INTL A","1108395","2022-01-13 18:00","2022","01","13","18:00","5.5","","5.3","","99","","","","31","","12","","24.1","","102.66","","","","","","NA"
"-123.18","49.19","VANCOUVER INTL A","1108395","2022-01-13 19:00","2022","01","13","19:00","4.2","","4.1","","99","","","","2","","7","","24.1","","102.73","","","","","","Clear"
"-123.18","49.19","VANCOUVER INTL A","1108395","2022-01-13 20:00","2022","01","13","20:00","6.2","","6.1","","99","","","","7","","6","","24.1","","102.77","","","","","","NA"
"-123.18","49.19","VANCOUVER INTL A","1108395","2022-01-13 21:00","2022","01","13","21:00","4.3","","4.0","","98","","","","7","","8","","24.1","","102.84","","","","","","NA"
"-123.18","49.19","VANCOUVER INTL A","1108395","2022-01-13 22:00","2022","01","13","22:00","5.3","","5.2","","99","","","","21","","9","","24.1","","102.90","","","","","","Mostly Cloudy"
"-123.18","49.19","VANCOUVER INTL A","1108395","2022-01-13 23:00","2022","01","13","23:00","5.7","","5.5","","99","","","","6","","4","","24.1","","102.97","","","","","","NA"
"-123.18","49.19","VANCOUVER INTL A","1108395","2022-01-14 00:00","2022","01","14","00:00","5.8","","5.7","","99","","","","27","","4","","24.1","","103.01","","","","","","NA"
"-123.18","49.19","VANCOUVER INTL A","1108395","2022-01-14 01:00","2022","01","14","01:00","5.6","","5.4","","99","","","","36","","2","","24.1","","103.09","","","","","","Cloudy"
"-123.18","49.19","VANCOUVER INTL A","1108395","2022-01-14 02:00","2022","01","14","02:00","6.1","","6.0","","99","","","","2","","9","","24.1","","103.15","","","","","","NA"
"-123.18","49.19","VANCOUVER INTL A","1108395","2022-01-14 03:00","2022","01","14","03:00","6.7","","6.6","","99","","","","9","","8","","24.1","","103.19","","","","","","NA"
"-123.18","49.19","VANCOUVER INTL A","1108395","2022-01-14 04:00","2022","01","14","04:00","7.3","","7.0","","98","","","","7","","11","","24.1","","103.18","","","","","","Cloudy"
"-123.18","49.19","VANCOUVER INTL A","1108395","2022-01-14 05:00","2022","01","14","05:00","6.7","","6.4","","98","","","","7","","4","","19.3","","103.21","","","","","","NA"
"-123.18","49.19","VANCOUVER INTL A","1108395","2022-01-14 06:00","2022","01","14","06:00","6.8","","6.5","","98","","","","10","","14","","19.3","","103.20","","","","","","NA"
"-123.18","49.19","VANCOUVER INTL A","1108395","2022-01-14 07:00","2022","01","14","07:00","7.2","","6.5","","96","","","","9","","14","","24.1","","103.24","","","","","","Cloudy"
"-123.18","49.19","VANCOUVER INTL A","1108395","2022-01-14 08:00","2022","01","14","08:00","6.8","","6.3","","96","","","","10","","14","","32.2","","103.20","","","","","","NA"
"-123.18","49.19","VANCOUVER INTL A","1108395","2022-01-14 09:00","2022","01","14","09:00","7.2","","6.4","","94","","","","13","","9","","32.2","","103.22","","","","","","NA"
"-123.18","49.19","VANCOUVER INTL A","1108395","2022-01-14 10:00","2022","01","14","10:00","7.6","","6.5","","93","","","","8","","9","","48.3","","103.22","","","","","","Cloudy"
"-123.18","49.19","VANCOUVER INTL A","1108395","2022-01-14 11:00","2022","01","14","11:00","9.4","","7.3","","87","","","","7","","11","","48.3","","103.15","","","","","","NA"
"-123.18","49.19","VANCOUVER INTL A","1108395","2022-01-14 12:00","2022","01","14","12:00","6.8","","6.2","","96","","","","22","","8","","48.3","","103.11","","","","","","NA"
"-123.18","49.19","VANCOUVER INTL A","1108395","2022-01-14 13:00","2022","01","14","13:00","7.0","","6.5","","97","","","","27","","11","","48.3","","103.12","","","","","","Cloudy"
"-123.18","49.19","VANCOUVER INTL A","1108395","2022-01-14 14:00","2022","01","14","14:00","8.4","","6.9","","90","","","","8","","6","","48.3","","103.04","","","","","","NA"
"-123.18","49.19","VANCOUVER INTL A","1108395","2022-01-14 15:00","2022","01","14","15:00","9.3","","7.4","","87","","","","12","","6","","48.3","","102.99","","","","","","NA"
"-123.18","49.19","VANCOUVER INTL A","1108395","2022-01-14 16:00","2022","01","14","16:00","5.7","","5.3","","98","","","","25","","9","","48.3","","103.00","","","","","","Cloudy"
"-123.18","49.19","VANCOUVER INTL A","1108395","2022-01-14 17:00","2022","01","14","17:00","6.0","","5.7","","98","","","","36","","2","","32.2","","102.96","","","","","","NA"
"-123.18","49.19","VANCOUVER INTL A","1108395","2022-01-14 18:00","2022","01","14","18:00","6.2","","5.5","","96","","","","4","","6","","24.1","","102.90","","","","","","NA"
"-123.18","49.19","VANCOUVER INTL A","1108395","2022-01-14 19:00","2022","01","14","19:00","7.5","","6.8","","95","","","","11","","8","","24.1","","102.85","","","","","","Cloudy"
"-123.18","49.19","VANCOUVER INTL A","1108395","2022-01-14 20:00","2022","01","14","20:00","6.7","","6.2","","96","","","","17","","4","","24.1","","102.85","","","","","","NA"
"-123.18","49.19","VANCOUVER INTL A","1108395","2022-01-14 21:00","2022","01","14","21:00","6.2","","5.7","","96","","","","36","","3","","24.1","","102.84","","","","","","NA"
"-123.18","49.19","VANCOUVER INTL A","1108395","2022-01-14 22:00","2022","01","14","22:00","6.0","","5.5","","96","","","","26","","3","","24.1","","102.87","","","","","","Cloudy"
"-123.18","49.19","VANCOUVER INTL A","1108395","2022-01-14 23:00","2022","01","14","23:00","6.6","","6.2","","97","","","","8","","6","","19.3","","102.80","","","","","","Rain"
"-123.18","49.19","VANCOUVER INTL A","1108395","2022-01-15 00:00","2022","01","15","00:00","6.8","","6.3","","97","","","","10","","7","","24.1","","102.78","","","","","","NA"
"-123.18","49.19","VANCOUVER INTL A","1108395","2022-01-15 01:00","2022","01","15","01:00","6.2","","5.8","","98","","","","13","","7","","24.1","","102.80","","","","","","Cloudy"
"-123.18","49.19","VANCOUVER INTL A","1108395","2022-01-15 02:00","2022","01","15","02:00","5.8","","5.6","","98","","","","19","","3","","24.1","","102.82","","","","","","NA"
"-123.18","49.19","VANCOUVER INTL A","1108395","2022-01-15 03:00","2022","01","15","03:00","6.0","","5.8","","99","","","","9","","5","","19.3","","102.78","","","","","","Rain"
"-123.18","49.19","VANCOUVER INTL A","1108395","2022-01-15 04:00","2022","01","15","04:00","5.6","","5.4","","99","","","","9","","8","","19.3","","102.74","","","","","","Cloudy"
"-123.18","49.19","VANCOUVER INTL A","1108395","2022-01-15 05:00","2022","01","15","05:00","4.8","","4.6","","99","","","","9","","9","","24.1","","102.66","","","","","","NA"
"-123.18","49.19","VANCOUVER INTL A","1108395","2022-01-15 06:00","2022","01","15","06:00","3.3","","3.1","","99","","","","10","","9","","19.3","","102.67","","","","","","NA"
"-123.18","49.19","VANCOUVER INTL A","1108395","2022-01-15 07:00","2022","01","15","07:00","5.6","","5.5","","99","","","","11","","5","","24.1","","102.73","","","","","","Cloudy"
"-123.18","49.19","VANCOUVER INTL A","1108395","2022-01-15 08:00","2022","01","15","08:00","5.5","","5.4","","99","","","","14","","8","","6.4","","102.75","","","","","","Fog"
"-123.18","49.19","VANCOUVER INTL A","1108395","2022-01-15 09:00","2022","01","15","09:00","5.9","","5.8","","99","","","","11","","13","","0.6","","102.79","","","","","","Fog"
"-123.18","49.19","VANCOUVER INTL A","1108395","2022-01-15 10:00","2022","01","15","10:00","6.0","","6.0","","99","","","","9","","9","","0.6","","102.82","","","","","","Fog"
"-123.18","49.19","VANCOUVER INTL A","1108395","2022-01-15 11:00","2022","01","15","11:00","6.3","","6.2","","99","","","","10","","5","","0.8","","102.85","","","","","","Fog"
"-123.18","49.19","VANCOUVER INTL A","1108395","2022-01-15 12:00","2022","01","15","12:00","6.5","","6.5","","100","","","","13","","4","","3.2","","102.82","","","","","","Fog"
"-123.18","49.19","VANCOUVER INTL A","1108395","2022-01-15 13:00","2022","01","15","13:00","6.3","","6.2","","99","","","","23","","4","","0.4","","102.80","","","","","","Fog"
"-123.18","49.19","VANCOUVER INTL A","1108395","2022-01-15 14:00","2022","01","15","14:00","6.0","","6.0","","100","","","","28","","6","","0.2","","102.77","","","","","","Drizzle,Fog"
"-123.18","49.19","VANCOUVER INTL A","1108395","2022-01-15 15:00","2022","01","15","15:00","6.0","","6.0","","100","","","","28","","9","","0.2","","102.77","","","","","","Drizzle,Fog"
"-123.18","49.19","VANCOUVER INTL A","1108395","2022-01-15 16:00","2022","01","15","16:00","5.9","","5.8","","100","","","","29","","4","","2.4","","102.76","","","","","","Drizzle,Fog"
"-123.18","49.19","VANCOUVER INTL A","1108395","2022-01-15 17:00","2022","01","15","17:00","5.8","","5.7","","100","","","","28","","8","","3.2","","102.76","","","","","","Fog"
"-123.18","49.19","VANCOUVER INTL A","1108395","2022-01-15 18:00","2022","01","15","18:00","5.6","","5.5","","100","","","","29","","5","","4.8","","102.77","","","","","","Fog"
"-123.18","49.19","VANCOUVER INTL A","1108395","2022-01-15 19:00","2022","01","15","19:00","5.6","","5.5","","100","","","","29","","7","","12.9","","102.80","","","","","","Cloudy"
"-123.18","49.19","VANCOUVER INTL A","1108395","2022-01-15 20:00","2022","01","15","20:00","5.7","","5.7","","100","","","","28","","4","","16.1","","102.78","","","","","","NA"
"-123.18","49.19","VANCOUVER INTL A","1108395","2022-01-15 21:00","2022","01","15","21:00","5.6","","5.5","","99","","","","30","","3","","16.1","","102.76","","","","","","NA"
"-123.18","49.19","VANCOUVER INTL A","1108395","2022-01-15 22:00","2022","01","15","22:00","5.5","","5.5","","99","","","","32","","7","","12.9","","102.72","","","","","","Cloudy"
"-123.18","49.19","VANCOUVER INTL A","1108395","2022-01-15 23:00","2022","01","15","23:00","5.2","","5.1","","99","","","","21","","4","","12.9","","102.71","","","","","","NA"
"-123.18","49.19","VANCOUVER INTL A","1108395","2022-01-16 00:00","2022","01","16","00:00","5.2","","5.1","","99","","","","36","","3","","12.9","","102.76","","","","","","NA"
"-123.18","49.19","VANCOUVER INTL A","1108395","2022-01-16 01:00","2022","01","16","01:00","5.1","","5.0","","100","","","","22","","4","","12.9","","102.71","","","","","","Cloudy"
"-123.18","49.19","VANCOUVER INTL A","1108395","2022-01-16 02:00","2022","01","16","02:00","5.3","","5.3","","100","","","","19","","3","","4.8","","102.66","","","","","","Fog"
"-123.18","49.19","VANCOUVER INTL A","1108395","2022-01-16 03:00","2022","01","16","03:00","5.3","","5.2","","100","","","","22","","4","","1.6","","102.64","","","","","","Fog"
"-123.18","49.19","VANCOUVER INTL A","1108395","2022-01-16 04:00","2022","01","16","04:00","5.0","","5.0","","100","","","","21","","3","","1.6","","102.59","","","","","","Fog"
"-123.18","49.19","VANCOUVER INTL A","1108395","2022-01-16 05:00","2022","01","16","05:00","5.0","","5.0","","100","","","","0","","1","","2.4","","102.58","","","","","","Fog"
"-123.18","49.19","VANCOUVER INTL A","1108395","2022-01-16 06:00","2022","01","16","06:00","5.2","","5.2","","100","","","","36","","2","","0.8","","102.53","","","","","","Drizzle,Fog"
"-123.18","49.19","VANCOUVER INTL A","1108395","2022-01-16 07:00","2022","01","16","07:00","5.2","","5.1","","100","","","","22","","7","","0.8","","102.51","","","","","","Fog"
"-123.18","49.19","VANCOUVER INTL A","1108395","2022-01-16 08:00","2022","01","16","08:00","5.0","","4.9","","100","","","","20","","8","","0.6","","102.45","","","","","","Fog"
"-123.18","49.19","VANCOUVER INTL A","1108395","2022-01-16 09:00","2022","01","16","09:00","5.3","","5.3","","100","","","","22","","3","","0.8","","102.43","","","","","","Fog"
"-123.18","49.19","VANCOUVER INTL A","1108395","2022-01-16 10:00","2022","01","16","10:00","5.5","","5.4","","100","","","","36","","2","","1.2","","102.42","","","","","","Fog"
"-123.18","49.19","VANCOUVER INTL A","1108395","2022-01-16 11:00","2022","01","16","11:00","5.6","","5.5","","100","","","","36","","3","","1.2","","102.38","","","","","","Fog"
"-123.18","49.19","VANCOUVER INTL A","1108395","2022-01-16 12:00","2022","01","16","12:00","5.8","","5.7","","100","","","","20","","10","","2.4","","102.33","","","","","","Fog"
"-123.18","49.19","VANCOUVER INTL A","1108395","2022-01-16 13:00","2022","01","16","13:00","6.2","","6.1","","100","","","","9","","9","","8.1","","102.24","","","","","","Fog"
"-123.18","49.19","VANCOUVER INTL A","1108395","2022-01-16 14:00","2022","01","16","14:00","6.3","","6.0","","97","","","","36","","1","","16.1","","102.21","","","","","","NA"
"-123.18","49.19","VANCOUVER INTL A","1108395","2022-01-16 15:00","2022","01","16","15:00","5.4","","5.1","","98","","","","22","","8","","16.1","","102.17","","","","","","NA"
"-123.18","49.19","VANCOUVER INTL A","1108395","2022-01-16 16:00","2022","01","16","16:00","4.9","","4.7","","99","","","","26","","5","","12.9","","102.14","","","","","","Mostly Cloudy"
"-123.18","49.19","VANCOUVER INTL A","1108395","2022-01-16 17:00","2022","01","16","17:00","4.9","","4.8","","99","","","","24","","5","","3.6","","102.14","","","","","","Fog"
"-123.18","49.19","VANCOUVER INTL A","1108395","2022-01-16 18:00","2022","01","16","18:00","5.0","","4.8","","99","","","","30","","5","","6.4","","102.12","","","","","","Fog"
"-123.18","49.19","VANCOUVER INTL A","1108395","2022-01-16 19:00","2022","01","16","19:00","5.0","","4.9","","99","","","","16","","3","","12.9","","102.02","","","","","","Cloudy"
"-123.18","49.19","VANCOUVER INTL A","1108395","2022-01-16 20:00","2022","01","16","20:00","4.8","","4.6","","99","","","","1","","4","","16.1","","101.98","","","","","","NA"
"-123.18","49.19","VANCOUVER INTL A","1108395","2022-01-16 21:00","2022","01","16","21:00","5.6","","5.2","","98","","","","36","","3","","12.9","","101.97","","","","","","NA"
"-123.18","49.19","VANCOUVER INTL A","1108395","2022-01-16 22:00","2022","01","16","22:00","5.4","","5.0","","97","","","","6","","7","","12.9","","101.94","","","","","","Cloudy"
"-123.18","49.19","VANCOUVER INTL A","1108395","2022-01-16 23:00","2022","01","16","23:00","5.2","","4.9","","98","","","","11","","11","","12.9","","101.91","","","","","","NA"
"-123.18","49.19","VANCOUVER INTL A","1108395","2022-01-17 00:00","2022","01","17","00:00","5.0","","4.8","","99","","","","9","","10","","4.8","","101.89","","","","","","Fog"
"-123.18","49.19","VANCOUVER INTL A","1108395","2022-01-17 01:00","2022","01","17","01:00","5.0","","4.9","","99","","","","11","","14","","4.8","","101.82","","","","","","Fog"
"-123.18","49.19","VANCOUVER INTL A","1108395","2022-01-17 02:00","2022","01","17","02:00","4.9","","4.8","","99","","","","12","","9","","2.4","","101.77","","","","","","Fog"
"-123.18","49.19","VANCOUVER INTL A","1108395","2022-01-17 03:00","2022","01","17","03:00","4.9","","4.8","","99","","","","10","","10","","1.0","","101.75","","","","","","Fog"
"-123.18","49.19","VANCOUVER INTL A","1108395","2022-01-17 04:00","2022","01","17","04:00","4.6","","4.6","","99","","","","9","","10","","4.8","","101.70","","","","","","Fog"
"-123.18","49.19","VANCOUVER INTL A","1108395","2022-01-17 05:00","2022","01","17","05:00","4.4","","4.3","","100","","","","9","","12","","4.8","","101.63","","","","","","Fog"
"-123.18","49.19","VANCOUVER INTL A","1108395","2022-01-17 06:00","2022","01","17","06:00","4.4","","4.3","","100","","","","12","","12","","24.1","","101.63","","","","","","NA"
"-123.18","49.19","VANCOUVER INTL A","1108395","2022-01-17 07:00","2022","01","17","07:00","4.6","","4.5","","100","","","","11","","12","","24.1","","101.60","","","","","","Cloudy"
"-123.18","49.19","VANCOUVER INTL A","1108395","2022-01-17 08:00","2022","01","17","08:00","4.8","","4.7","","99","","","","9","","8","","24.1","","101.61","","","","","","NA"
"-123.18","49.19","VANCOUVER INTL A","1108395","2022-01-17 09:00","2022","01","17","09:00","5.1","","4.8","","97","","","","10","","14","","40.2","","101.62","","","","","","NA"
"-123.18","49.19","VANCOUVER INTL A","1108395","2022-01-17 10:00","2022","01","17","10:00","5.7","","4.4","","91","","","","11","","19","","40.2","","101.65","","","","","","Mostly Cloudy"
"-123.18","49.19","VANCOUVER INTL A","1108395","2022-01-17 11:00","2022","01","17","11:00","6.3","","4.9","","91","","","","10","","22","","32.2","","101.63","","","","","","NA"
"-123.18","49.19","VANCOUVER INTL A","1108395","2022-01-17 12:00","2022","01","17","12:00","6.7","","5.0","","89","","","","9","","20","","32.2","","101.66","","","","","","NA"
"-123.18","49.19","VANCOUVER INTL A","1108395","2022-01-17 13:00","2022","01","17","13:00","6.9","","4.6","","85","","","","11","","19","","32.2","","101.53","","","","","","Cloudy"
"-123.18","49.19","VANCOUVER INTL A","1108395","2022-01-17 14:00","2022","01","17","14:00","7.0","","4.1","","81","","","","10","","14","","40.2","","101.50","","","","","","NA"
"-123.18","49.19","VANCOUVER INTL A","1108395","2022-01-17 15:00","2022","01","17","15:00","7.0","","4.9","","86","","","","11","","14","","40.2","","101.54","","","","","","NA"
"-123.18","49.19","VANCOUVER INTL A","1108395","2022-01-17 16:00","2022","01","17","16:00","6.8","","4.9","","87","","","","11","","17","","24.1","","101.50","","","","","","Cloudy"
"-123.18","49.19","VANCOUVER INTL A","1108395","2022-01-17 17:00","2022","01","17","17:00","6.3","","5.4","","94","","","","11","","19","","12.9","","101.51","","","","","","Rain"
"-123.18","49.19","VANCOUVER INTL A","1108395","2022-01-17 18:00","2022","01","17","18:00","6.0","","5.7","","98","","","","9","","18","","12.9","","101.50","","","","","","Rain"
"-123.18","49.19","VANCOUVER INTL A","1108395","2022-01-17 19:00","2022","01","17","19:00","6.0","","5.8","","98","","","","9","","15","","12.9","","101.52","","","","","","Drizzle"
"-123.18","49.19","VANCOUVER INTL A","1108395","2022-01-17 20:00","2022","01","17","20:00","5.9","","5.7","","99","","","","10","","15","","9.7","","101.50","","","","","","Rain,Drizzle,Fog"
"-123.18","49.19","VANCOUVER INTL A","1108395","2022-01-17 21:00","2022","01","17","21:00","6.0","","5.8","","99","","","","9","","10","","9.7","","101.50","","","","","","Rain,Fog"
"-123.18","49.19","VANCOUVER INTL A","1108395","2022-01-17 22:00","2022","01","17","22:00","6.0","","5.9","","99","","","","8","","9","","12.9","","101.49","","","","","","Rain"
"-123.18","49.19","VANCOUVER INTL A","1108395","2022-01-17 23:00","2022","01","17","23:00","6.2","","6.0","","99","","","","7","","5","","6.4","","101.52","","","","","","Rain,Fog"
"-123.18","49.19","VANCOUVER INTL A","1108395","2022-01-18 00:00","2022","01","18","00:00","6.2","","6.0","","99","","","","7","","8","","12.9","","101.53","","","","","","Rain"
"-123.18","49.19","VANCOUVER INTL A","1108395","2022-01-18 01:00","2022","01","18","01:00","6.0","","5.9","","99","","","","10","","7","","9.7","","101.54","","","","","","Rain,Fog"
"-123.18","49.19","VANCOUVER INTL A","1108395","2022-01-18 02:00","2022","01","18","02:00","6.0","","5.9","","99","","","","9","","6","","9.7","","101.56","","","","","","Rain,Fog"
"-123.18","49.19","VANCOUVER INTL A","1108395","2022-01-18 03:00","2022","01","18","03:00","5.9","","5.8","","99","","","","8","","6","","12.9","","101.58","","","","","","Rain"
"-123.18","49.19","VANCOUVER INTL A","1108395","2022-01-18 04:00","2022","01","18","04:00","5.8","","5.8","","100","","","","9","","5","","12.9","","101.57","","","","","","Rain"
"-123.18","49.19","VANCOUVER INTL A","1108395","2022-01-18 05:00","2022","01","18","05:00","5.8","","5.7","","100","","","","28","","7","","16.1","","101.65","","","","","","NA"
"-123.18","49.19","VANCOUVER INTL A","1108395","2022-01-18 06:00","2022","01","18","06:00","5.6","","5.6","","100","","","","33","","5","","16.1","","101.69","","","","","","Rain"
"-123.18","49.19","VANCOUVER INTL A","1108395","2022-01-18 07:00","2022","01","18","07:00","5.9","","5.8","","100","","","","32","","4","","16.1","","101.73","","","","","","Drizzle"
"-123.18","49.19","VANCOUVER INTL A","1108395","2022-01-18 08:00","2022","01","18","08:00","5.7","","5.7","","100","","","","29","","4","","4.0","","101.78","","","","","","Drizzle,Fog"
"-123.18","49.19","VANCOUVER INTL A","1108395","2022-01-18 09:00","2022","01","18","09:00","6.1","","6.0","","100","","","","28","","3","","2.0","","101.84","","","","","","Drizzle,Fog"
"-123.18","49.19","VANCOUVER INTL A","1108395","2022-01-18 10:00","2022","01","18","10:00","6.3","","6.3","","100","","","","30","","4","","2.0","","101.89","","","","","","Drizzle,Fog"
"-123.18","49.19","VANCOUVER INTL A","1108395","2022-01-18 11:00","2022","01","18","11:00","6.9","","6.8","","100","","","","36","","1","","2.0","","101.91","","","","","","Drizzle,Fog"
"-123.18","49.19","VANCOUVER INTL A","1108395","2022-01-18 12:00","2022","01","18","12:00","6.7","","6.6","","100","","","","25","","5","","9.7","","101.94","","","","","","Fog"
"-123.18","49.19","VANCOUVER INTL A","1108395","2022-01-18 13:00","2022","01","18","13:00","6.8","","6.8","","100","","","","29","","3","","1.6","","101.94","","","","","","Drizzle,Fog"
"-123.18","49.19","VANCOUVER INTL A","1108395","2022-01-18 14:00","2022","01","18","14:00","6.5","","6.4","","99","","","","28","","8","","1.6","","101.99","","","","","","Drizzle,Fog"
"-123.18","49.19","VANCOUVER INTL A","1108395","2022-01-18 15:00","2022","01","18","15:00","6.8","","6.7","","100","","","","33","","6","","4.0","","102.02","","","","","","Fog"
"-123.18","49.19","VANCOUVER INTL A","1108395","2022-01-18 16:00","2022","01","18","16:00","5.9","","5.8","","99","","","","22","","7","","2.0","","102.08","","","","","","Drizzle,Fog"
"-123.18","49.19","VANCOUVER INTL A","1108395","2022-01-18 17:00","2022","01","18","17:00","5.8","","5.7","","100","","","","23","","5","","2.0","","102.12","","","","","","Drizzle,Fog"
"-123.18","49.19","VANCOUVER INTL A","1108395","2022-01-18 18:00","2022","01","18","18:00","5.8","","5.8","","100","","","","33","","3","","9.7","","102.15","","","","","","Drizzle,Fog"
"-123.18","49.19","VANCOUVER INTL A","1108395","2022-01-18 19:00","2022","01","18","19:00","5.8","","5.7","","100","","","","36","","1","","4.8","","102.19","","","","","","Drizzle,Fog"
"-123.18","49.19","VANCOUVER INTL A","1108395","2022-01-18 20:00","2022","01","18","20:00","6.2","","6.2","","100","","","","36","","3","","4.0","","102.22","","","","","","Fog"
"-123.18","49.19","VANCOUVER INTL A","1108395","2022-01-18 21:00","2022","01","18","21:00","6.7","","6.7","","100","","","","10","","10","","4.8","","102.25","","","","","","Fog"
"-123.18","49.19","VANCOUVER INTL A","1108395","2022-01-18 22:00","2022","01","18","22:00","6.8","","6.7","","100","","","","9","","9","","4.8","","102.28","","","","","","Fog"
"-123.18","49.19","VANCOUVER INTL A","1108395","2022-01-18 23:00","2022","01","18","23:00","6.8","","6.8","","100","","","","10","","8","","4.0","","102.32","","","","","","Drizzle,Fog"
"-123.18","49.19","VANCOUVER INTL A","1108395","2022-01-19 00:00","2022","01","19","00:00","6.9","","6.9","","100","","","","8","","8","","16.1","","102.32","","","","","","NA"
"-123.18","49.19","VANCOUVER INTL A","1108395","2022-01-19 01:00","2022","01","19","01:00","7.1","","7.0","","100","","","","7","","10","","24.1","","102.39","","","","","","Cloudy"
"-123.18","49.19","VANCOUVER INTL A","1108395","2022-01-19 02:00","2022","01","19","02:00","7.0","","6.9","","99","","","","8","","9","","24.1","","102.44","","","","","","NA"
"-123.18","49.19","VANCOUVER INTL A","1108395","2022-01-19 03:00","2022","01","19","03:00","6.9","","6.8","","99","","","","8","","7","","24.1","","102.45","","","","","","Rain"
"-123.18","49.19","VANCOUVER INTL A","1108395","2022-01-19 04:00","2022","01","19","04:00","6.8","","6.6","","99","","","","8","","7","","24.1","","102.47","","","","","","Cloudy"
"-123.18","49.19","VANCOUVER INTL A","1108395","2022-01-19 05:00","2022","01","19","05:00","6.9","","6.7","","99","","","","7","","8","","24.1","","102.47","","","","","","NA"
"-123.18","49.19","VANCOUVER INTL A","1108395","2022-01-19 06:00","2022","01","19","06:00","6.9","","6.7","","98","","","","9","","8","","24.1","","102.51","","","","","","NA"
"-123.18","49.19","VANCOUVER INTL A","1108395","2022-01-19 07:00","2022","01","19","07:00","6.7","","6.5","","99","","","","10","","8","","24.1","","102.52","","","","","","Cloudy"
"-123.18","49.19","VANCOUVER INTL A","1108395","2022-01-19 08:00","2022","01","19","08:00","6.6","","6.5","","99","","","","10","","8","","24.1","","102.55","","","","","","Rain"
"-123.18","49.19","VANCOUVER INTL A","1108395","2022-01-19 09:00","2022","01","19","09:00","7.0","","6.7","","98","","","","10","","12","","24.1","","102.58","","","","","","NA"
"-123.18","49.19","VANCOUVER INTL A","1108395","2022-01-19 10:00","2022","01","19","10:00","7.7","","7.2","","97","","","","4","","7","","24.1","","102.59","","","","","","Cloudy"
"-123.18","49.19","VANCOUVER INTL A","1108395","2022-01-19 11:00","2022","01","19","11:00","8.3","","7.4","","94","","","","7","","12","","24.1","","102.61","","","","","","NA"
"-123.18","49.19","VANCOUVER INTL A","1108395","2022-01-19 12:00","2022","01","19","12:00","8.7","","7.5","","92","","","","7","","13","","24.1","","102.54","","","","","","NA"
"-123.18","49.19","VANCOUVER INTL A","1108395","2022-01-19 13:00","2022","01","19","13:00","9.4","","7.5","","88","","","","8","","11","","32.2","","102.51","","","","","","Cloudy"
"-123.18","49.19","VANCOUVER INTL A","1108395","2022-01-19 14:00","2022","01","19","14:00","9.3","","8.1","","92","","","","9","","11","","32.2","","102.45","","","","","","NA"
"-123.18","49.19","VANCOUVER INTL A","1108395","2022-01-19 15:00","2022","01","19","15:00","9.5","","7.6","","87","","","","7","","4","","32.2","","102.49","","","","","","NA"
"-123.18","49.19","VANCOUVER INTL A","1108395","2022-01-19 16:00","2022","01","19","16:00","9.2","","6.9","","85","","","","5","","10","","24.1","","102.46","","","","","","Rain"
"-123.18","49.19","VANCOUVER INTL A","1108395","2022-01-19 17:00","2022","01","19","17:00","8.4","","7.0","","91","","","","5","","10","","24.1","","102.44","","","","","","Rain"
"-123.18","49.19","VANCOUVER INTL A","1108395","2022-01-19 18:00","2022","01","19","18:00","8.0","","7.2","","95","","","","10","","13","","24.1","","102.42","","","","","","Rain"
"-123.18","49.19","VANCOUVER INTL A","1108395","2022-01-19 19:00","2022","01","19","19:00","7.7","","7.4","","98","","","","9","","10","","20.9","","102.43","","","","","","Rain"
"-123.18","49.19","VANCOUVER INTL A","1108395","2022-01-19 20:00","2022","01","19","20:00","7.4","","7.2","","99","","","","8","","10","","24.1","","102.38","","","","","","Rain"
"-123.18","49.19","VANCOUVER INTL A","1108395","2022-01-19 21:00","2022","01","19","21:00","7.3","","7.0","","98","","","","6","","16","","19.3","","102.35","","","","","","Rain"
"-123.18","49.19","VANCOUVER INTL A","1108395","2022-01-19 22:00","2022","01","19","22:00","7.3","","6.8","","97","","","","8","","19","","19.3","","102.29","","","","","","Rain"
"-123.18","49.19","VANCOUVER INTL A","1108395","2022-01-19 23:00","2022","01","19","23:00","7.3","","7.0","","98","","","","8","","9","","19.3","","102.24","","","","","","Rain"
"-123.18","49.19","VANCOUVER INTL A","1108395","2022-01-20 00:00","2022","01","20","00:00","6.9","","6.8","","99","","","","9","","11","","9.7","","102.16","","","","","","Rain,Fog"
"-123.18","49.19","VANCOUVER INTL A","1108395","2022-01-20 01:00","2022","01","20","01:00","6.7","","6.5","","99","","","","9","","17","","11.3","","102.06","","","","","","Moderate Rain"
"-123.18","49.19","VANCOUVER INTL A","1108395","2022-01-20 02:00","2022","01","20","02:00","6.7","","6.6","","99","","","","9","","14","","9.7","","102.02","","","","","","Rain,Fog"
"-123.18","49.19","VANCOUVER INTL A","1108395","2022-01-20 03:00","2022","01","20","03:00","7.0","","6.9","","99","","","","9","","12","","11.3","","101.90","","","","","","Rain"
"-123.18","49.19","VANCOUVER INTL A","1108395","2022-01-20 04:00","2022","01","20","04:00","7.5","","7.3","","99","","","","10","","14","","12.9","","101.88","","","","","","Cloudy"
"-123.18","49.19","VANCOUVER INTL A","1108395","2022-01-20 05:00","2022","01","20","05:00","7.6","","7.5","","99","","","","8","","13","","12.9","","101.81","","","","","","Rain"
"-123.18","49.19","VANCOUVER INTL A","1108395","2022-01-20 06:00","2022","01","20","06:00","8.0","","7.9","","99","","","","8","","14","","16.1","","101.73","","","","","","NA"
"-123.18","49.19","VANCOUVER INTL A","1108395","2022-01-20 07:00","2022","01","20","07:00","8.5","","8.4","","99","","","","5","","12","","24.1","","101.75","","","","","","Cloudy"
"-123.18","49.19","VANCOUVER INTL A","1108395","2022-01-20 08:00","2022","01","20","08:00","7.7","","7.3","","98","","","","11","","9","","32.2","","101.79","","","","","","NA"
"-123.18","49.19","VANCOUVER INTL A","1108395","2022-01-20 09:00","2022","01","20","09:00","8.3","","8.2","","99","","","","12","","7","","32.2","","101.88","","","","","","NA"
"-123.18","49.19","VANCOUVER INTL A","1108395","2022-01-20 10:00","2022","01","20","10:00","9.5","","8.7","","95","","","","9","","5","","48.3","","101.91","","","","","","Mostly Cloudy"
"-123.18","49.19","VANCOUVER INTL A","1108395","2022-01-20 11:00","2022","01","20","11:00","10.1","","8.4","","89","","","","17","","9","","48.3","","101.97","","","","","","NA"
"-123.18","49.19","VANCOUVER INTL A","1108395","2022-01-20 12:00","2022","01","20","12:00","10.8","","7.9","","82","","","","22","","5","","48.3","","102.02","","","","","","NA"
"-123.18","49.19","VANCOUVER INTL A","1108395","2022-01-20 13:00","2022","01","20","13:00","9.2","","8.1","","93","","","","22","","9","","48.3","","102.02","","","","","","Mostly Cloudy"
"-123.18","49.19","VANCOUVER INTL A","1108395","2022-01-20 14:00","2022","01","20","14:00","7.6","","6.9","","95","","","","24","","13","","48.3","","102.11","","","","","","NA"
"-123.18","49.19","VANCOUVER INTL A","1108395","2022-01-20 15:00","2022","01","20","15:00","8.8","","6.6","","86","","","","27","","25","","40.2","","102.24","","","","","","NA"
"-123.18","49.19","VANCOUVER INTL A","1108395","2022-01-20 16:00","2022","01","20","16:00","7.6","","6.4","","92","","","","28","","24","","48.3","","102.31","","","","","","Mainly Clear"
"-123.18","49.19","VANCOUVER INTL A","1108395","2022-01-20 17:00","2022","01","20","17:00","7.1","","6.2","","94","","","","27","","31","","48.3","","102.36","","","","","","NA"
"-123.18","49.19","VANCOUVER INTL A","1108395","2022-01-20 18:00","2022","01","20","18:00","7.2","","5.7","","91","","","","27","","35","","24.1","","102.45","","","","","","NA"
"-123.18","49.19","VANCOUVER INTL A","1108395","2022-01-20 19:00","2022","01","20","19:00","6.8","","5.6","","92","","","","26","","29","","24.1","","102.57","","","","","","Mainly Clear"
"-123.18","49.19","VANCOUVER INTL A","1108395","2022-01-20 20:00","2022","01","20","20:00","6.8","","5.5","","91","","","","26","","39","","24.1","","102.64","","","","","","NA"
"-123.18","49.19","VANCOUVER INTL A","1108395","2022-01-20 21:00","2022","01","20","21:00","6.5","","5.1","","91","","","","28","","23","","24.1","","102.78","","","","","","NA"
"-123.18","49.19","VANCOUVER INTL A","1108395","2022-01-20 22:00","2022","01","20","22:00","6.1","","5.1","","93","","","","28","","23","","24.1","","102.91","","","","","","Mainly Clear"
"-123.18","49.19","VANCOUVER INTL A","1108395","2022-01-20 23:00","2022","01","20","23:00","5.8","","5.3","","97","","","","29","","19","","24.1","","103.08","","","","","","NA"
"-123.18","49.19","VANCOUVER INTL A","1108395","2022-01-21 00:00","2022","01","21","00:00","5.5","","4.7","","95","","","","28","","16","","24.1","","103.13","","","","","","NA"
"-123.18","49.19","VANCOUVER INTL A","1108395","2022-01-21 01:00","2022","01","21","01:00","4.2","","3.9","","98","","","","28","","14","","24.1","","103.26","","","","","","Mainly Clear"
"-123.18","49.19","VANCOUVER INTL A","1108395","2022-01-21 02:00","2022","01","21","02:00","4.4","","4.2","","98","","","","35","","7","","24.1","","103.37","","","","","","NA"
"-123.18","49.19","VANCOUVER INTL A","1108395","2022-01-21 03:00","2022","01","21","03:00","3.2","","3.0","","99","","","","33","","8","","24.1","","103.44","","","","","","NA"
"-123.18","49.19","VANCOUVER INTL A","1108395","2022-01-21 04:00","2022","01","21","04:00","3.1","","3.0","","99","","","","32","","8","","24.1","","103.46","","","","","","Mostly Cloudy"
"-123.18","49.19","VANCOUVER INTL A","1108395","2022-01-21 05:00","2022","01","21","05:00","3.3","","3.2","","99","","","","","","0","","24.1","","103.45","","","","","","NA"
"-123.18","49.19","VANCOUVER INTL A","1108395","2022-01-21 06:00","2022","01","21","06:00","3.2","","3.0","","99","","","","2","","3","","24.1","","103.51","","","","","","NA"
"-123.18","49.19","VANCOUVER INTL A","1108395","2022-01-21 07:00","2022","01","21","07:00","3.9","","3.8","","100","","","","36","","3","","24.1","","103.59","","","","","","Cloudy"
"-123.18","49.19","VANCOUVER INTL A","1108395","2022-01-21 08:00","2022","01","21","08:00","5.0","","4.9","","99","","","","4","","5","","24.1","","103.66","","","","","","NA"
"-123.18","49.19","VANCOUVER INTL A","1108395","2022-01-21 09:00","2022","01","21","09:00","5.5","","5.3","","99","","","","15","","5","","24.1","","103.68","","","","","","NA"
"-123.18","49.19","VANCOUVER INTL A","1108395","2022-01-21 10:00","2022","01","21","10:00","6.2","","5.8","","97","","","","36","","2","","32.2","","103.79","","","","","","Cloudy"
"-123.18","49.19","VANCOUVER INTL A","1108395","2022-01-21 11:00","2022","01","21","11:00","6.3","","5.8","","97","","","","22","","4","","24.1","","103.80","","","","","","NA"
"-123.18","49.19","VANCOUVER INTL A","1108395","2022-01-21 12:00","2022","01","21","12:00","6.7","","5.5","","92","","","","13","","8","","32.2","","103.78","","","","","","NA"
"-123.18","49.19","VANCOUVER INTL A","1108395","2022-01-21 13:00","2022","01","21","13:00","6.4","","5.7","","95","","","","19","","6","","32.2","","103.75","","","","","","Cloudy"
"-123.18","49.19","VANCOUVER INTL A","1108395","2022-01-21 14:00","2022","01","21","14:00","7.1","","5.5","","90","","","","22","","8","","40.2","","103.74","","","","","","NA"
"-123.18","49.19","VANCOUVER INTL A","1108395","2022-01-21 15:00","2022","01","21","15:00","7.0","","5.1","","88","","","","22","","5","","40.2","","103.75","","","","","","NA"
"-123.18","49.19","VANCOUVER INTL A","1108395","2022-01-21 16:00","2022","01","21","16:00","5.3","","4.5","","95","","","","28","","8","","32.2","","103.76","","","","","","Mostly Cloudy"
"-123.18","49.19","VANCOUVER INTL A","1108395","2022-01-21 17:00","2022","01","21","17:00","4.6","","4.3","","98","","","","25","","9","","32.2","","103.79","","","","","","NA"
"-123.18","49.19","VANCOUVER INTL A","1108395","2022-01-21 18:00","2022","01","21","18:00","4.6","","4.3","","98","","","","36","","3","","24.1","","103.77","","","","","","NA"
"-123.18","49.19","VANCOUVER INTL A","1108395","2022-01-21 19:00","2022","01","21","19:00","4.9","","4.6","","98","","","","36","","2","","24.1","","103.75","","","","","","Mostly Cloudy"
"-123.18","49.19","VANCOUVER INTL A","1108395","2022-01-21 20:00","2022","01","21","20:00","4.2","","4.0","","99","","","","36","","1","","24.1","","103.73","","","","","","NA"
"-123.18","49.19","VANCOUVER INTL A","1108395","2022-01-21 21:00","2022","01","21","21:00","2.7","","2.5","","99","","","","32","","4","","24.1","","103.70","","","","","","NA"
"-123.18","49.19","VANCOUVER INTL A","1108395","2022-01-21 22:00","2022","01","21","22:00","2.7","","2.5","","99","","","","33","","8","","24.1","","103.72","","","","","","Mainly Clear"
"-123.18","49.19","VANCOUVER INTL A","1108395","2022-01-21 23:00","2022","01","21","23:00","3.3","","3.2","","100","","","","32","","6","","24.1","","103.72","","","","","","NA"
"-123.18","49.19","VANCOUVER INTL A","1108395","2022-01-22 00:00","2022","01","22","00:00","4.4","","4.3","","99","","","","30","","3","","24.1","","103.70","","","","","","NA"
"-123.18","49.19","VANCOUVER INTL A","1108395","2022-01-22 01:00","2022","01","22","01:00","3.4","","3.3","","99","","","","26","","6","","24.1","","103.68","","","","","","Mostly Cloudy"
"-123.18","49.19","VANCOUVER INTL A","1108395","2022-01-22 02:00","2022","01","22","02:00","2.5","","2.5","","100","","","","36","","2","","24.1","","103.68","","","","","","NA"
"-123.18","49.19","VANCOUVER INTL A","1108395","2022-01-22 03:00","2022","01","22","03:00","2.5","","2.4","","99","","","","26","","3","","24.1","","103.66","","","","","","NA"
"-123.18","49.19","VANCOUVER INTL A","1108395","2022-01-22 04:00","2022","01","22","04:00","2.8","","2.7","","100","","","","27","","11","","11.3","","103.65","","","","","","Mostly Cloudy"
"-123.18","49.19","VANCOUVER INTL A","1108395","2022-01-22 05:00","2022","01","22","05:00","2.5","","2.4","","100","","","","34","","6","","16.1","","103.63","","","","","","NA"
"-123.18","49.19","VANCOUVER INTL A","1108395","2022-01-22 06:00","2022","01","22","06:00","3.2","","3.2","","100","","","","27","","7","","19.3","","103.57","","","","","","NA"
"-123.18","49.19","VANCOUVER INTL A","1108395","2022-01-22 07:00","2022","01","22","07:00","2.8","","2.7","","100","","","","32","","3","","24.1","","103.56","","","","","","Mostly Cloudy"
"-123.18","49.19","VANCOUVER INTL A","1108395","2022-01-22 08:00","2022","01","22","08:00","2.5","","2.4","","100","","","","36","","2","","24.1","","103.51","","","","","","NA"
"-123.18","49.19","VANCOUVER INTL A","1108395","2022-01-22 09:00","2022","01","22","09:00","3.5","","3.4","","100","","","","8","","5","","32.2","","103.56","","","","","","NA"
"-123.18","49.19","VANCOUVER INTL A","1108395","2022-01-22 10:00","2022","01","22","10:00","4.6","","4.6","","100","","","","7","","5","","24.1","","103.57","","","","","","Mostly Cloudy"
"-123.18","49.19","VANCOUVER INTL A","1108395","2022-01-22 11:00","2022","01","22","11:00","5.6","","5.5","","99","","","","12","","4","","40.2","","103.57","","","","","","NA"
"-123.18","49.19","VANCOUVER INTL A","1108395","2022-01-22 12:00","2022","01","22","12:00","6.5","","5.1","","91","","","","26","","8","","40.2","","103.51","","","","","","NA"
"-123.18","49.19","VANCOUVER INTL A","1108395","2022-01-22 13:00","2022","01","22","13:00","6.7","","4.3","","85","","","","28","","12","","40.2","","103.46","","","","","","Mainly Clear"
"-123.18","49.19","VANCOUVER INTL A","1108395","2022-01-22 14:00","2022","01","22","14:00","6.7","","5.1","","89","","","","28","","15","","40.2","","103.40","","","","","","NA"
"-123.18","49.19","VANCOUVER INTL A","1108395","2022-01-22 15:00","2022","01","22","15:00","6.4","","4.7","","89","","","","29","","18","","40.2","","103.39","","","","","","NA"
"-123.18","49.19","VANCOUVER INTL A","1108395","2022-01-22 16:00","2022","01","22","16:00","5.5","","4.2","","92","","","","30","","17","","40.2","","103.35","","","","","","Mostly Cloudy"
"-123.18","49.19","VANCOUVER INTL A","1108395","2022-01-22 17:00","2022","01","22","17:00","4.6","","3.5","","93","","","","30","","17","","40.2","","103.32","","","","","","NA"
"-123.18","49.19","VANCOUVER INTL A","1108395","2022-01-22 18:00","2022","01","22","18:00","4.5","","3.7","","95","","","","30","","19","","32.2","","103.31","","","","","","NA"
"-123.18","49.19","VANCOUVER INTL A","1108395","2022-01-22 19:00","2022","01","22","19:00","4.3","","3.7","","96","","","","30","","15","","32.2","","103.27","","","","","","Mainly Clear"
"-123.18","49.19","VANCOUVER INTL A","1108395","2022-01-22 20:00","2022","01","22","20:00","4.4","","4.0","","97","","","","30","","14","","32.2","","103.22","","","","","","NA"
"-123.18","49.19","VANCOUVER INTL A","1108395","2022-01-22 21:00","2022","01","22","21:00","3.7","","3.5","","98","","","","30","","12","","32.2","","103.19","","","","","","NA"
"-123.18","49.19","VANCOUVER INTL A","1108395","2022-01-22 22:00","2022","01","22","22:00","2.4","","2.2","","99","","","","32","","7","","32.2","","103.18","","","","","","Mainly Clear"
"-123.18","49.19","VANCOUVER INTL A","1108395","2022-01-22 23:00","2022","01","22","23:00","1.5","","1.4","","99","","","","35","","7","","32.2","","103.19","","","","","","NA"
"-123.18","49.19","VANCOUVER INTL A","1108395","2022-01-23 00:00","2022","01","23","00:00","1.0","","0.8","","99","","","","31","","4","","32.2","","103.17","","","","","","NA"
"-123.18","49.19","VANCOUVER INTL A","1108395","2022-01-23 01:00","2022","01","23","01:00","2.6","","2.5","","100","","","","30","","17","","32.2","","103.15","","","","","","Mostly Cloudy"
"-123.18","49.19","VANCOUVER INTL A","1108395","2022-01-23 02:00","2022","01","23","02:00","3.1","","3.0","","99","","","","31","","13","","32.2","","103.12","","","","","","NA"
"-123.18","49.19","VANCOUVER INTL A","1108395","2022-01-23 03:00","2022","01","23","03:00","3.5","","3.4","","99","","","","31","","12","","32.2","","103.09","","","","","","NA"
"-123.18","49.19","VANCOUVER INTL A","1108395","2022-01-23 04:00","2022","01","23","04:00","3.5","","3.3","","99","","","","29","","7","","32.2","","103.06","","","","","","Cloudy"
"-123.18","49.19","VANCOUVER INTL A","1108395","2022-01-23 05:00","2022","01","23","05:00","3.4","","3.2","","99","","","","33","","10","","32.2","","103.02","","","","","","NA"
"-123.18","49.19","VANCOUVER INTL A","1108395","2022-01-23 06:00","2022","01","23","06:00","3.2","","3.1","","99","","","","34","","7","","16.1","","103.02","","","","","","NA"
"-123.18","49.19","VANCOUVER INTL A","1108395","2022-01-23 07:00","2022","01","23","07:00","2.9","","2.8","","99","","","","34","","5","","2.0","","103.03","","","","","","Fog"
"-123.18","49.19","VANCOUVER INTL A","1108395","2022-01-23 08:00","2022","01","23","08:00","2.9","","2.8","","99","","","","1","","4","","0.6","","103.03","","","","","","Fog"
"-123.18","49.19","VANCOUVER INTL A","1108395","2022-01-23 09:00","2022","01","23","09:00","2.9","","2.8","","99","","","","36","","4","","4.0","","103.03","","","","","","Fog"
"-123.18","49.19","VANCOUVER INTL A","1108395","2022-01-23 10:00","2022","01","23","10:00","2.8","","2.8","","99","","","","34","","8","","1.2","","103.02","","","","","","Fog"
"-123.18","49.19","VANCOUVER INTL A","1108395","2022-01-23 11:00","2022","01","23","11:00","2.9","","2.8","","99","","","","30","","7","","1.2","","103.00","","","","","","Fog"
"-123.18","49.19","VANCOUVER INTL A","1108395","2022-01-23 12:00","2022","01","23","12:00","2.6","","2.5","","99","","","","36","","6","","2.0","","102.90","","","","","","Fog"
"-123.18","49.19","VANCOUVER INTL A","1108395","2022-01-23 13:00","2022","01","23","13:00","3.2","","3.1","","99","","","","6","","5","","4.8","","102.87","","","","","","Fog"
"-123.18","49.19","VANCOUVER INTL A","1108395","2022-01-23 14:00","2022","01","23","14:00","3.5","","3.1","","97","","","","21","","4","","4.8","","102.81","","","","","","Fog"
"-123.18","49.19","VANCOUVER INTL A","1108395","2022-01-23 15:00","2022","01","23","15:00","3.4","","3.0","","97","","","","30","","14","","6.4","","102.82","","","","","","Fog"
"-123.18","49.19","VANCOUVER INTL A","1108395","2022-01-23 16:00","2022","01","23","16:00","4.0","","3.5","","97","","","","30","","15","","12.9","","102.77","","","","","","Cloudy"
"-123.18","49.19","VANCOUVER INTL A","1108395","2022-01-23 17:00","2022","01","23","17:00","4.2","","3.5","","96","","","","30","","7","","24.1","","102.76","","","","","","NA"
"-123.18","49.19","VANCOUVER INTL A","1108395","2022-01-23 18:00","2022","01","23","18:00","4.0","","3.4","","95","","","","35","","7","","24.1","","102.72","","","","","","NA"
"-123.18","49.19","VANCOUVER INTL A","1108395","2022-01-23 19:00","2022","01","23","19:00","4.0","","3.4","","96","","","","0","","1","","24.1","","102.70","","","","","","Cloudy"
"-123.18","49.19","VANCOUVER INTL A","1108395","2022-01-23 20:00","2022","01","23","20:00","4.1","","3.5","","96","","","","21","","8","","24.1","","102.67","","","","","","NA"
"-123.18","49.19","VANCOUVER INTL A","1108395","2022-01-23 21:00","2022","01","23","21:00","4.2","","3.5","","95","","","","10","","7","","24.1","","102.68","","","","","","NA"
"-123.18","49.19","VANCOUVER INTL A","1108395","2022-01-23 22:00","2022","01","23","22:00","4.2","","3.5","","96","","","","14","","3","","24.1","","102.66","","","","","","Cloudy"
"-123.18","49.19","VANCOUVER INTL A","1108395","2022-01-23 23:00","2022","01","23","23:00","4.1","","3.3","","95","","","","6","","4","","24.1","","102.65","","","","","","NA"
"-123.18","49.19","VANCOUVER INTL A","1108395","2022-01-24 00:00","2022","01","24","00:00","3.8","","3.2","","95","","","","10","","4","","19.3","","102.66","","","","","","NA"
"-123.18","49.19","VANCOUVER INTL A","1108395","2022-01-24 01:00","2022","01","24","01:00","3.4","","3.0","","97","","","","5","","4","","16.1","","102.63","","","","","","Cloudy"
"-123.18","49.19","VANCOUVER INTL A","1108395","2022-01-24 02:00","2022","01","24","02:00","3.2","","2.9","","98","","","","9","","9","","12.9","","102.57","","","","","","NA"
"-123.18","49.19","VANCOUVER INTL A","1108395","2022-01-24 03:00","2022","01","24","03:00","2.9","","2.6","","98","","","","4","","4","","4.8","","102.62","","","","","","Fog"
"-123.18","49.19","VANCOUVER INTL A","1108395","2022-01-24 04:00","2022","01","24","04:00","2.7","","2.5","","99","","","","36","","2","","2.8","","102.60","","","","","","Fog"
"-123.18","49.19","VANCOUVER INTL A","1108395","2022-01-24 05:00","2022","01","24","05:00","2.5","","2.3","","99","","","","33","","8","","0.8","","102.54","","","","","","Fog"
"-123.18","49.19","VANCOUVER INTL A","1108395","2022-01-24 06:00","2022","01","24","06:00","2.4","","2.3","","99","","","","30","","3","","0.8","","102.49","","","","","","Fog"
"-123.18","49.19","VANCOUVER INTL A","1108395","2022-01-24 07:00","2022","01","24","07:00","2.3","","2.2","","99","","","","13","","4","","0.8","","102.51","","","","","","Fog"
"-123.18","49.19","VANCOUVER INTL A","1108395","2022-01-24 08:00","2022","01","24","08:00","2.3","","2.2","","99","","","","5","","5","","2.0","","102.57","","","","","","Fog"
"-123.18","49.19","VANCOUVER INTL A","1108395","2022-01-24 09:00","2022","01","24","09:00","2.5","","2.4","","99","","","","13","","7","","3.2","","102.65","","","","","","Fog"
"-123.18","49.19","VANCOUVER INTL A","1108395","2022-01-24 10:00","2022","01","24","10:00","2.5","","2.4","","99","","","","12","","8","","6.4","","102.71","","","","","","Fog"
"-123.18","49.19","VANCOUVER INTL A","1108395","2022-01-24 11:00","2022","01","24","11:00","2.9","","2.5","","97","","","","36","","1","","9.7","","102.72","","","","","","Fog"
"-123.18","49.19","VANCOUVER INTL A","1108395","2022-01-24 12:00","2022","01","24","12:00","3.1","","2.8","","97","","","","31","","8","","4.0","","102.71","","","","","","Fog"
"-123.18","49.19","VANCOUVER INTL A","1108395","2022-01-24 13:00","2022","01","24","13:00","2.9","","2.5","","97","","","","32","","7","","4.0","","102.68","","","","","","Fog"
"-123.18","49.19","VANCOUVER INTL A","1108395","2022-01-24 14:00","2022","01","24","14:00","2.8","","2.4","","97","","","","29","","12","","12.9","","102.69","","","","","","NA"
"-123.18","49.19","VANCOUVER INTL A","1108395","2022-01-24 15:00","2022","01","24","15:00","3.0","","2.6","","97","","","","30","","14","","12.9","","102.65","","","","","","NA"
"-123.18","49.19","VANCOUVER INTL A","1108395","2022-01-24 16:00","2022","01","24","16:00","3.2","","2.6","","96","","","","33","","8","","12.9","","102.65","","","","","","Cloudy"
"-123.18","49.19","VANCOUVER INTL A","1108395","2022-01-24 17:00","2022","01","24","17:00","3.2","","2.6","","96","","","","32","","9","","12.9","","102.67","","","","","","NA"
"-123.18","49.19","VANCOUVER INTL A","1108395","2022-01-24 18:00","2022","01","24","18:00","3.2","","2.8","","97","","","","33","","8","","12.9","","102.71","","","","","","NA"
"-123.18","49.19","VANCOUVER INTL A","1108395","2022-01-24 19:00","2022","01","24","19:00","3.2","","2.7","","97","","","","34","","10","","24.1","","102.71","","","","","","Cloudy"
"-123.18","49.19","VANCOUVER INTL A","1108395","2022-01-24 20:00","2022","01","24","20:00","3.1","","2.7","","97","","","","36","","4","","19.3","","102.74","","","","","","NA"
"-123.18","49.19","VANCOUVER INTL A","1108395","2022-01-24 21:00","2022","01","24","21:00","2.6","","2.3","","98","","","","34","","5","","9.7","","102.76","","","","","","Fog"
"-123.18","49.19","VANCOUVER INTL A","1108395","2022-01-24 22:00","2022","01","24","22:00","2.4","","2.2","","99","","","","31","","8","","4.8","","102.78","","","","","","Fog"
"-123.18","49.19","VANCOUVER INTL A","1108395","2022-01-24 23:00","2022","01","24","23:00","2.1","","1.9","","99","","","","1","","8","","1.2","","102.77","","","","","","Fog"
"-123.18","49.19","VANCOUVER INTL A","1108395","2022-01-25 00:00","2022","01","25","00:00","1.9","","1.8","","99","","","","34","","5","","0.4","","102.80","","","","","","Fog"
"-123.18","49.19","VANCOUVER INTL A","1108395","2022-01-25 01:00","2022","01","25","01:00","1.9","","1.8","","99","","","","32","","8","","16.1","","102.82","","","","","","Cloudy"
"-123.18","49.19","VANCOUVER INTL A","1108395","2022-01-25 02:00","2022","01","25","02:00","2.2","","1.9","","98","","","","32","","5","","24.1","","102.82","","","","","","NA"
"-123.18","49.19","VANCOUVER INTL A","1108395","2022-01-25 03:00","2022","01","25","03:00","2.4","","2.0","","98","","","","34","","4","","24.1","","102.82","","","","","","NA"
"-123.18","49.19","VANCOUVER INTL A","1108395","2022-01-25 04:00","2022","01","25","04:00","2.0","","1.6","","97","","","","4","","4","","24.1","","102.82","","","","","","Cloudy"
"-123.18","49.19","VANCOUVER INTL A","1108395","2022-01-25 05:00","2022","01","25","05:00","1.9","","1.4","","96","","","","4","","7","","24.1","","102.80","","","","","","NA"
"-123.18","49.19","VANCOUVER INTL A","1108395","2022-01-25 06:00","2022","01","25","06:00","1.6","","1.2","","97","","","","10","","5","","24.1","","102.80","","","","","","NA"
"-123.18","49.19","VANCOUVER INTL A","1108395","2022-01-25 07:00","2022","01","25","07:00","1.6","","1.2","","98","","","","3","","5","","12.9","","102.82","","","","","","Cloudy"
"-123.18","49.19","VANCOUVER INTL A","1108395","2022-01-25 08:00","2022","01","25","08:00","1.3","","1.0","","98","","","","12","","5","","9.7","","102.81","","","","","","Fog"
"-123.18","49.19","VANCOUVER INTL A","1108395","2022-01-25 09:00","2022","01","25","09:00","1.5","","1.2","","98","","","","35","","5","","4.0","","102.83","","","","","","Fog"
"-123.18","49.19","VANCOUVER INTL A","1108395","2022-01-25 10:00","2022","01","25","10:00","1.8","","1.6","","98","","","","36","","2","","3.2","","102.83","","","","","","Fog"
"-123.18","49.19","VANCOUVER INTL A","1108395","2022-01-25 11:00","2022","01","25","11:00","2.0","","1.5","","97","","","","27","","5","","3.6","","102.83","","","","","","Fog"
"-123.18","49.19","VANCOUVER INTL A","1108395","2022-01-25 12:00","2022","01","25","12:00","2.3","","1.1","","92","","","","30","","9","","12.9","","102.78","","","","","","NA"
"-123.18","49.19","VANCOUVER INTL A","1108395","2022-01-25 13:00","2022","01","25","13:00","2.5","","1.1","","91","","","","31","","9","","24.1","","102.68","","","","","","Mostly Cloudy"
"-123.18","49.19","VANCOUVER INTL A","1108395","2022-01-25 14:00","2022","01","25","14:00","2.7","","1.6","","92","","","","28","","9","","32.2","","102.63","","","","","","NA"
"-123.18","49.19","VANCOUVER INTL A","1108395","2022-01-25 15:00","2022","01","25","15:00","2.5","","1.3","","92","","","","29","","8","","32.2","","102.57","","","","","","NA"
"-123.18","49.19","VANCOUVER INTL A","1108395","2022-01-25 16:00","2022","01","25","16:00","2.4","","1.4","","93","","","","30","","13","","24.1","","102.56","","","","","","Mostly Cloudy"
"-123.18","49.19","VANCOUVER INTL A","1108395","2022-01-25 17:00","2022","01","25","17:00","2.5","","1.6","","94","","","","31","","11","","24.1","","102.53","","","","","","NA"
"-123.18","49.19","VANCOUVER INTL A","1108395","2022-01-25 18:00","2022","01","25","18:00","2.9","","2.0","","94","","","","31","","11","","24.1","","102.49","","","","","","NA"
"-123.18","49.19","VANCOUVER INTL A","1108395","2022-01-25 19:00","2022","01","25","19:00","2.9","","2.1","","94","","","","30","","14","","24.1","","102.46","","","","","","Cloudy"
"-123.18","49.19","VANCOUVER INTL A","1108395","2022-01-25 20:00","2022","01","25","20:00","2.9","","2.2","","96","","","","29","","12","","24.1","","102.48","","","","","","NA"
"-123.18","49.19","VANCOUVER INTL A","1108395","2022-01-25 21:00","2022","01","25","21:00","2.8","","2.2","","96","","","","36","","5","","24.1","","102.46","","","","","","NA"
"-123.18","49.19","VANCOUVER INTL A","1108395","2022-01-25 22:00","2022","01","25","22:00","2.7","","2.1","","96","","","","36","","1","","24.1","","102.42","","","","","","Cloudy"
"-123.18","49.19","VANCOUVER INTL A","1108395","2022-01-25 23:00","2022","01","25","23:00","2.3","","1.7","","96","","","","35","","4","","24.1","","102.44","","","","","","NA"
"-123.18","49.19","VANCOUVER INTL A","1108395","2022-01-26 00:00","2022","01","26","00:00","2.2","","1.7","","97","","","","35","","5","","19.3","","102.49","","","","","","NA"
"-123.18","49.19","VANCOUVER INTL A","1108395","2022-01-26 01:00","2022","01","26","01:00","2.3","","1.8","","97","","","","1","","8","","19.3","","102.53","","","","","","Cloudy"
"-123.18","49.19","VANCOUVER INTL A","1108395","2022-01-26 02:00","2022","01","26","02:00","2.4","","1.8","","96","","","","4","","9","","19.3","","102.50","","","","","","NA"
"-123.18","49.19","VANCOUVER INTL A","1108395","2022-01-26 03:00","2022","01","26","03:00","2.2","","1.6","","96","","","","36","","4","","19.3","","102.50","","","","","","NA"
"-123.18","49.19","VANCOUVER INTL A","1108395","2022-01-26 04:00","2022","01","26","04:00","1.6","","1.1","","97","","","","28","","5","","19.3","","102.52","","","","","","Cloudy"
"-123.18","49.19","VANCOUVER INTL A","1108395","2022-01-26 05:00","2022","01","26","05:00","1.6","","1.3","","98","","","","30","","4","","12.9","","102.53","","","","","","NA"
"-123.18","49.19","VANCOUVER INTL A","1108395","2022-01-26 06:00","2022","01","26","06:00","1.6","","1.4","","98","","","","30","","12","","12.9","","102.58","","","","","","NA"
"-123.18","49.19","VANCOUVER INTL A","1108395","2022-01-26 07:00","2022","01","26","07:00","1.8","","1.4","","98","","","","32","","8","","20.9","","102.57","","","","","","Cloudy"
"-123.18","49.19","VANCOUVER INTL A","1108395","2022-01-26 08:00","2022","01","26","08:00","1.4","","1.1","","98","","","","30","","9","","20.9","","102.63","","","","","","NA"
"-123.18","49.19","VANCOUVER INTL A","1108395","2022-01-26 09:00","2022","01","26","09:00","1.4","","1.0","","97","","","","28","","5","","24.1","","102.64","","","","","","NA"
"-123.18","49.19","VANCOUVER INTL A","1108395","2022-01-26 10:00","2022","01","26","10:00","1.5","","1.0","","96","","","","27","","7","","20.9","","102.70","","","","","","Cloudy"
"-123.18","49.19","VANCOUVER INTL A","1108395","2022-01-26 11:00","2022","01","26","11:00","2.1","","1.3","","94","","","","30","","8","","24.1","","102.74","","","","","","NA"
"-123.18","49.19","VANCOUVER INTL A","1108395","2022-01-26 12:00","2022","01","26","12:00","2.7","","1.7","","93","","","","29","","10","","24.1","","102.73","","","","","","NA"
"-123.18","49.19","VANCOUVER INTL A","1108395","2022-01-26 13:00","2022","01","26","13:00","3.2","","2.2","","93","","","","29","","10","","32.2","","102.69","","","","","","Cloudy"
"-123.18","49.19","VANCOUVER INTL A","1108395","2022-01-26 14:00","2022","01","26","14:00","2.8","","1.8","","93","","","","25","","6","","32.2","","102.62","","","","","","NA"
"-123.18","49.19","VANCOUVER INTL A","1108395","2022-01-26 15:00","2022","01","26","15:00","3.1","","2.3","","94","","","","29","","5","","32.2","","102.64","","","","","","NA"
"-123.18","49.19","VANCOUVER INTL A","1108395","2022-01-26 16:00","2022","01","26","16:00","2.5","","1.8","","95","","","","27","","4","","32.2","","102.63","","","","","","Mostly Cloudy"
"-123.18","49.19","VANCOUVER INTL A","1108395","2022-01-26 17:00","2022","01","26","17:00","2.2","","1.8","","98","","","","28","","9","","24.1","","102.68","","","","","","NA"
"-123.18","49.19","VANCOUVER INTL A","1108395","2022-01-26 18:00","2022","01","26","18:00","2.4","","2.1","","98","","","","28","","7","","24.1","","102.72","","","","","","NA"
"-123.18","49.19","VANCOUVER INTL A","1108395","2022-01-26 19:00","2022","01","26","19:00","2.6","","2.2","","98","","","","28","","7","","24.1","","102.75","","","","","","Cloudy"
"-123.18","49.19","VANCOUVER INTL A","1108395","2022-01-26 20:00","2022","01","26","20:00","2.7","","2.4","","98","","","","31","","8","","19.3","","102.78","","","","","","NA"
"-123.18","49.19","VANCOUVER INTL A","1108395","2022-01-26 21:00","2022","01","26","21:00","2.6","","2.3","","98","","","","27","","10","","19.3","","102.81","","","","","","NA"
"-123.18","49.19","VANCOUVER INTL A","1108395","2022-01-26 22:00","2022","01","26","22:00","2.3","","2.1","","98","","","","36","","2","","16.1","","102.87","","","","","","Cloudy"
"-123.18","49.19","VANCOUVER INTL A","1108395","2022-01-26 23:00","2022","01","26","23:00","2.1","","1.9","","99","","","","36","","2","","6.4","","102.88","","","","","","Fog"
"-123.18","49.19","VANCOUVER INTL A","1108395","2022-01-27 00:00","2022","01","27","00:00","2.0","","1.8","","99","","","","26","","5","","1.2","","102.93","","","","","","Fog"
"-123.18","49.19","VANCOUVER INTL A","1108395","2022-01-27 01:00","2022","01","27","01:00","1.6","","1.5","","99","","","","34","","4","","0.4","","102.91","","","","","","Fog"
"-123.18","49.19","VANCOUVER INTL A","1108395","2022-01-27 02:00","2022","01","27","02:00","1.7","","1.6","","99","","","","31","","5","","0.4","","102.94","","","","","","Fog"
"-123.18","49.19","VANCOUVER INTL A","1108395","2022-01-27 03:00","2022","01","27","03:00","1.9","","1.8","","99","","","","36","","2","","0.8","","102.93","","","","","","Fog"
"-123.18","49.19","VANCOUVER INTL A","1108395","2022-01-27 04:00","2022","01","27","04:00","2.0","","1.9","","99","","","","29","","5","","9.7","","102.93","","","","","","Fog"
"-123.18","49.19","VANCOUVER INTL A","1108395","2022-01-27 05:00","2022","01","27","05:00","1.9","","1.8","","99","","","","27","","5","","11.3","","102.95","","","","","","NA"
"-123.18","49.19","VANCOUVER INTL A","1108395","2022-01-27 06:00","2022","01","27","06:00","1.9","","1.5","","97","","","","27","","3","","12.9","","102.96","","","","","","NA"
"-123.18","49.19","VANCOUVER INTL A","1108395","2022-01-27 07:00","2022","01","27","07:00","1.9","","1.4","","97","","","","34","","6","","20.9","","103.00","","","","","","Cloudy"
"-123.18","49.19","VANCOUVER INTL A","1108395","2022-01-27 08:00","2022","01","27","08:00","1.4","","1.0","","97","","","","1","","8","","12.9","","102.99","","","","","","NA"
"-123.18","49.19","VANCOUVER INTL A","1108395","2022-01-27 09:00","2022","01","27","09:00","1.4","","1.1","","98","","","","34","","5","","4.8","","103.00","","","","","","Fog"
"-123.18","49.19","VANCOUVER INTL A","1108395","2022-01-27 10:00","2022","01","27","10:00","1.4","","1.1","","98","","","","35","","3","","4.8","","103.05","","","","","","Fog"
"-123.18","49.19","VANCOUVER INTL A","1108395","2022-01-27 11:00","2022","01","27","11:00","1.8","","1.4","","97","","","","35","","5","","24.1","","103.06","","","","","","NA"
"-123.18","49.19","VANCOUVER INTL A","1108395","2022-01-27 12:00","2022","01","27","12:00","3.5","","2.0","","90","","","","26","","8","","48.3","","103.02","","","","","","NA"
"-123.18","49.19","VANCOUVER INTL A","1108395","2022-01-27 13:00","2022","01","27","13:00","4.2","","2.4","","88","","","","28","","9","","48.3","","102.95","","","","","","Mainly Clear"
"-123.18","49.19","VANCOUVER INTL A","1108395","2022-01-27 14:00","2022","01","27","14:00","4.1","","2.3","","88","","","","28","","8","","48.3","","102.90","","","","","","NA"
"-123.18","49.19","VANCOUVER INTL A","1108395","2022-01-27 15:00","2022","01","27","15:00","3.9","","2.6","","91","","","","29","","8","","48.3","","102.86","","","","","","NA"
"-123.18","49.19","VANCOUVER INTL A","1108395","2022-01-27 16:00","2022","01","27","16:00","3.9","","2.6","","91","","","","31","","7","","48.3","","102.82","","","","","","Clear"
"-123.18","49.19","VANCOUVER INTL A","1108395","2022-01-27 17:00","2022","01","27","17:00","2.5","","1.6","","94","","","","30","","5","","48.3","","102.78","","","","","","NA"
"-123.18","49.19","VANCOUVER INTL A","1108395","2022-01-27 18:00","2022","01","27","18:00","0.6","","0.2","","97","","","","29","","11","","32.2","","102.79","","","","","","NA"
"-123.18","49.19","VANCOUVER INTL A","1108395","2022-01-27 19:00","2022","01","27","19:00","1.5","","1.4","","99","","","","24","","9","","0.2","","102.77","","","","","","Fog"
"-123.18","49.19","VANCOUVER INTL A","1108395","2022-01-27 20:00","2022","01","27","20:00","0.5","","0.4","","99","","","","31","","6","","24.1","","102.78","","","","","","NA"
"-123.18","49.19","VANCOUVER INTL A","1108395","2022-01-27 21:00","2022","01","27","21:00","0.4","","0.3","","99","","","","28","","9","","12.9","","102.79","","","","","","NA"
"-123.18","49.19","VANCOUVER INTL A","1108395","2022-01-27 22:00","2022","01","27","22:00","1.4","","1.3","","99","","","","0","","1","","0.2","","102.81","","","","","","Fog"
"-123.18","49.19","VANCOUVER INTL A","1108395","2022-01-27 23:00","2022","01","27","23:00","1.4","","1.3","","99","","","","33","","6","","0.4","","102.84","","","","","","Fog"
"-123.18","49.19","VANCOUVER INTL A","1108395","2022-01-28 00:00","2022","01","28","00:00","0.5","","0.4","","99","","","","12","","9","","0.2","","102.80","","","","","","Fog"
"-123.18","49.19","VANCOUVER INTL A","1108395","2022-01-28 01:00","2022","01","28","01:00","0.3","","0.2","","99","","","","10","","7","","0.4","","102.80","","","","","","Fog"
"-123.18","49.19","VANCOUVER INTL A","1108395","2022-01-28 02:00","2022","01","28","02:00","-0.3","","-0.4","","99","","","","8","","7","","0.2","","102.78","","","","-3","","Freezing Fog"
"-123.18","49.19","VANCOUVER INTL A","1108395","2022-01-28 03:00","2022","01","28","03:00","-0.7","","-0.8","","99","","","","36","","2","","0.4","","102.83","","","","-1","","Freezing Fog"
"-123.18","49.19","VANCOUVER INTL A","1108395","2022-01-28 04:00","2022","01","28","04:00","-1.1","","-1.2","","99","","","","9","","9","","0.2","","102.77","","","","-4","","Freezing Fog"
"-123.18","49.19","VANCOUVER INTL A","1108395","2022-01-28 05:00","2022","01","28","05:00","-1.7","","-1.8","","99","","","","36","","3","","11.3","","102.76","","","","-3","","NA"
"-123.18","49.19","VANCOUVER INTL A","1108395","2022-01-28 06:00","2022","01","28","06:00","-1.7","","-1.9","","99","","","","10","","5","","24.1","","102.70","","","","-4","","NA"
"-123.18","49.19","VANCOUVER INTL A","1108395","2022-01-28 07:00","2022","01","28","07:00","-1.5","","-1.6","","99","","","","10","","9","","24.1","","102.66","","","","-5","","Mainly Clear"
"-123.18","49.19","VANCOUVER INTL A","1108395","2022-01-28 08:00","2022","01","28","08:00","-1.7","","-1.8","","99","","","","35","","6","","48.3","","102.66","","","","-4","","NA"
"-123.18","49.19","VANCOUVER INTL A","1108395","2022-01-28 09:00","2022","01","28","09:00","-0.2","","-0.3","","99","","","","11","","5","","48.3","","102.66","","","","-2","","NA"
"-123.18","49.19","VANCOUVER INTL A","1108395","2022-01-28 10:00","2022","01","28","10:00","0.8","","0.6","","99","","","","36","","2","","48.3","","102.67","","","","","","Mostly Cloudy"
"-123.18","49.19","VANCOUVER INTL A","1108395","2022-01-28 11:00","2022","01","28","11:00","3.8","","1.9","","87","","","","11","","3","","48.3","","102.68","","","","","","NA"
"-123.18","49.19","VANCOUVER INTL A","1108395","2022-01-28 12:00","2022","01","28","12:00","5.8","","1.4","","73","","","","12","","5","","48.3","","102.62","","","","","","NA"
"-123.18","49.19","VANCOUVER INTL A","1108395","2022-01-28 13:00","2022","01","28","13:00","6.1","","1.5","","72","","","","24","","7","","48.3","","102.59","","","","","","Mostly Cloudy"
"-123.18","49.19","VANCOUVER INTL A","1108395","2022-01-28 14:00","2022","01","28","14:00","6.7","","0.7","","66","","","","16","","5","","48.3","","102.54","","","","","","NA"
"-123.18","49.19","VANCOUVER INTL A","1108395","2022-01-28 15:00","2022","01","28","15:00","7.8","","0.2","","59","","","","11","","14","","48.3","","102.47","","","","","","NA"
"-123.18","49.19","VANCOUVER INTL A","1108395","2022-01-28 16:00","2022","01","28","16:00","7.0","","0.2","","62","","","","13","","12","","48.3","","102.46","","","","","","Cloudy"
"-123.18","49.19","VANCOUVER INTL A","1108395","2022-01-28 17:00","2022","01","28","17:00","5.1","","-1.3","","63","","","","13","","13","","48.3","","102.46","","","","","","NA"
"-123.18","49.19","VANCOUVER INTL A","1108395","2022-01-28 18:00","2022","01","28","18:00","4.1","","-0.2","","74","","","","9","","8","","32.2","","102.47","","","","","","NA"
"-123.18","49.19","VANCOUVER INTL A","1108395","2022-01-28 19:00","2022","01","28","19:00","2.6","","0.2","","84","","","","11","","11","","24.1","","102.46","","","","","","Mainly Clear"
"-123.18","49.19","VANCOUVER INTL A","1108395","2022-01-28 20:00","2022","01","28","20:00","2.6","","-0.2","","82","","","","36","","3","","24.1","","102.50","","","","","","NA"
"-123.18","49.19","VANCOUVER INTL A","1108395","2022-01-28 21:00","2022","01","28","21:00","1.1","","-1.0","","86","","","","10","","16","","24.1","","102.47","","","","","","NA"
"-123.18","49.19","VANCOUVER INTL A","1108395","2022-01-28 22:00","2022","01","28","22:00","1.9","","-0.5","","84","","","","9","","17","","24.1","","102.46","","","","","","Mainly Clear"
"-123.18","49.19","VANCOUVER INTL A","1108395","2022-01-28 23:00","2022","01","28","23:00","1.5","","-0.1","","89","","","","10","","14","","24.1","","102.44","","","","","","NA"
"-123.18","49.19","VANCOUVER INTL A","1108395","2022-01-29 00:00","2022","01","29","00:00","0.8","","-1.0","","88","","","","10","","15","","24.1","","102.46","","","","","","NA"
"-123.18","49.19","VANCOUVER INTL A","1108395","2022-01-29 01:00","2022","01","29","01:00","1.9","","-0.7","","83","","","","11","","9","","24.1","","102.45","","","","","","Mainly Clear"
"-123.18","49.19","VANCOUVER INTL A","1108395","2022-01-29 02:00","2022","01","29","02:00","1.5","","-0.6","","86","","","","9","","6","","24.1","","102.42","","","","","","NA"
"-123.18","49.19","VANCOUVER INTL A","1108395","2022-01-29 03:00","2022","01","29","03:00","0.4","","-0.8","","91","","","","4","","5","","24.1","","102.40","","","","","","NA"
"-123.18","49.19","VANCOUVER INTL A","1108395","2022-01-29 04:00","2022","01","29","04:00","0.2","","-1.4","","89","","","","36","","2","","24.1","","102.41","","","","","","Mostly Cloudy"
"-123.18","49.19","VANCOUVER INTL A","1108395","2022-01-29 05:00","2022","01","29","05:00","0.8","","-0.8","","89","","","","10","","8","","24.1","","102.37","","","","","","NA"
"-123.18","49.19","VANCOUVER INTL A","1108395","2022-01-29 06:00","2022","01","29","06:00","0.2","","-0.9","","93","","","","10","","13","","24.1","","102.34","","","","","","NA"
"-123.18","49.19","VANCOUVER INTL A","1108395","2022-01-29 07:00","2022","01","29","07:00","1.2","","-0.4","","89","","","","11","","9","","24.1","","102.34","","","","","","Mostly Cloudy"
"-123.18","49.19","VANCOUVER INTL A","1108395","2022-01-29 08:00","2022","01","29","08:00","0.7","","-0.5","","91","","","","9","","10","","48.3","","102.36","","","","","","NA"
"-123.18","49.19","VANCOUVER INTL A","1108395","2022-01-29 09:00","2022","01","29","09:00","2.1","","-0.3","","84","","","","8","","7","","48.3","","102.41","","","","","","NA"
"-123.18","49.19","VANCOUVER INTL A","1108395","2022-01-29 10:00","2022","01","29","10:00","3.1","","0.0","","80","","","","11","","12","","48.3","","102.39","","","","","","Cloudy"
"-123.18","49.19","VANCOUVER INTL A","1108395","2022-01-29 11:00","2022","01","29","11:00","4.6","","-0.4","","70","","","","10","","10","","48.3","","102.39","","","","","","NA"
"-123.18","49.19","VANCOUVER INTL A","1108395","2022-01-29 12:00","2022","01","29","12:00","5.5","","0.3","","69","","","","11","","7","","48.3","","102.35","","","","","","NA"
"-123.18","49.19","VANCOUVER INTL A","1108395","2022-01-29 13:00","2022","01","29","13:00","6.2","","0.0","","65","","","","11","","11","","48.3","","102.30","","","","","","Cloudy"
"-123.18","49.19","VANCOUVER INTL A","1108395","2022-01-29 14:00","2022","01","29","14:00","6.7","","0.3","","63","","","","13","","10","","48.3","","102.26","","","","","","NA"
"-123.18","49.19","VANCOUVER INTL A","1108395","2022-01-29 15:00","2022","01","29","15:00","6.8","","1.4","","68","","","","10","","10","","48.3","","102.23","","","","","","NA"
"-123.18","49.19","VANCOUVER INTL A","1108395","2022-01-29 16:00","2022","01","29","16:00","5.5","","2.7","","82","","","","26","","13","","32.2","","102.26","","","","","","Cloudy"
"-123.18","49.19","VANCOUVER INTL A","1108395","2022-01-29 17:00","2022","01","29","17:00","4.5","","2.9","","89","","","","18","","3","","24.1","","102.23","","","","","","Rain"
"-123.18","49.19","VANCOUVER INTL A","1108395","2022-01-29 18:00","2022","01","29","18:00","4.6","","2.1","","84","","","","14","","4","","24.1","","102.24","","","","","","Rain"
"-123.18","49.19","VANCOUVER INTL A","1108395","2022-01-29 19:00","2022","01","29","19:00","5.0","","3.5","","90","","","","8","","13","","19.3","","102.22","","","","","","Rain"
"-123.18","49.19","VANCOUVER INTL A","1108395","2022-01-29 20:00","2022","01","29","20:00","5.5","","4.4","","93","","","","7","","17","","19.3","","102.20","","","","","","Rain"
"-123.18","49.19","VANCOUVER INTL A","1108395","2022-01-29 21:00","2022","01","29","21:00","5.6","","4.3","","92","","","","6","","16","","19.3","","102.20","","","","","","Rain"
"-123.18","49.19","VANCOUVER INTL A","1108395","2022-01-29 22:00","2022","01","29","22:00","5.6","","4.5","","93","","","","6","","22","","16.1","","102.17","","","","","","Rain"
"-123.18","49.19","VANCOUVER INTL A","1108395","2022-01-29 23:00","2022","01","29","23:00","5.4","","4.1","","91","","","","6","","21","","19.3","","102.11","","","","","","Rain"
"-123.18","49.19","VANCOUVER INTL A","1108395","2022-01-30 00:00","2022","01","30","00:00","5.3","","4.2","","92","","","","5","","22","","19.3","","102.09","","","","","","Rain"
"-123.18","49.19","VANCOUVER INTL A","1108395","2022-01-30 01:00","2022","01","30","01:00","5.2","","4.0","","92","","","","5","","18","","19.3","","102.04","","","","","","Rain"
"-123.18","49.19","VANCOUVER INTL A","1108395","2022-01-30 02:00","2022","01","30","02:00","5.2","","3.9","","91","","","","8","","12","","24.1","","102.03","","","","","","NA"
"-123.18","49.19","VANCOUVER INTL A","1108395","2022-01-30 03:00","2022","01","30","03:00","5.2","","4.2","","93","","","","8","","16","","24.1","","101.99","","","","","","NA"
"-123.18","49.19","VANCOUVER INTL A","1108395","2022-01-30 04:00","2022","01","30","04:00","5.6","","4.0","","89","","","","6","","16","","24.1","","101.91","","","","","","Cloudy"
"-123.18","49.19","VANCOUVER INTL A","1108395","2022-01-30 05:00","2022","01","30","05:00","5.6","","4.1","","90","","","","5","","16","","24.1","","101.84","","","","","","NA"
"-123.18","49.19","VANCOUVER INTL A","1108395","2022-01-30 06:00","2022","01","30","06:00","5.7","","4.0","","89","","","","6","","21","","24.1","","101.72","","","","","","NA"
"-123.18","49.19","VANCOUVER INTL A","1108395","2022-01-30 07:00","2022","01","30","07:00","6.0","","4.2","","88","","","","7","","15","","24.1","","101.66","","","","","","Mostly Cloudy"
"-123.18","49.19","VANCOUVER INTL A","1108395","2022-01-30 08:00","2022","01","30","08:00","6.4","","4.2","","85","","","","6","","20","","24.1","","101.62","","","","","","NA"
"-123.18","49.19","VANCOUVER INTL A","1108395","2022-01-30 09:00","2022","01","30","09:00","6.6","","4.2","","85","","","","8","","22","","32.2","","101.50","","","","","","NA"
"-123.18","49.19","VANCOUVER INTL A","1108395","2022-01-30 10:00","2022","01","30","10:00","6.2","","5.0","","92","","","","7","","20","","12.9","","101.45","","","","","","Rain"
"-123.18","49.19","VANCOUVER INTL A","1108395","2022-01-30 11:00","2022","01","30","11:00","6.0","","5.2","","95","","","","9","","22","","9.7","","101.38","","","","","","Rain,Fog"
"-123.18","49.19","VANCOUVER INTL A","1108395","2022-01-30 12:00","2022","01","30","12:00","6.4","","5.6","","95","","","","10","","28","","9.7","","101.15","","","","","","Moderate Rain,Fog"
"-123.18","49.19","VANCOUVER INTL A","1108395","2022-01-30 13:00","2022","01","30","13:00","6.3","","5.8","","96","","","","8","","27","","12.9","","100.99","","","","","","Rain"
"-123.18","49.19","VANCOUVER INTL A","1108395","2022-01-30 14:00","2022","01","30","14:00","7.0","","6.6","","97","","","","10","","26","","9.7","","100.78","","","","","","Rain,Fog"
"-123.18","49.19","VANCOUVER INTL A","1108395","2022-01-30 15:00","2022","01","30","15:00","7.3","","6.7","","96","","","","13","","19","","12.9","","100.65","","","","","","Rain"
"-123.18","49.19","VANCOUVER INTL A","1108395","2022-01-30 16:00","2022","01","30","16:00","7.2","","6.7","","96","","","","16","","24","","16.1","","100.60","","","","","","Rain"
"-123.18","49.19","VANCOUVER INTL A","1108395","2022-01-30 17:00","2022","01","30","17:00","7.3","","5.5","","88","","","","19","","32","","32.2","","100.60","","","","","","NA"
"-123.18","49.19","VANCOUVER INTL A","1108395","2022-01-30 18:00","2022","01","30","18:00","5.9","","4.6","","91","","","","26","","39","","24.1","","100.72","","","","","","Rain"
"-123.18","49.19","VANCOUVER INTL A","1108395","2022-01-30 19:00","2022","01","30","19:00","5.7","","3.4","","85","","","","27","","38","","24.1","","100.85","","","","","","Cloudy"
"-123.18","49.19","VANCOUVER INTL A","1108395","2022-01-30 20:00","2022","01","30","20:00","5.2","","3.3","","88","","","","26","","41","","24.1","","101.00","","","","","","NA"
"-123.18","49.19","VANCOUVER INTL A","1108395","2022-01-30 21:00","2022","01","30","21:00","4.6","","3.1","","90","","","","25","","39","","24.1","","101.13","","","","","","NA"
"-123.18","49.19","VANCOUVER INTL A","1108395","2022-01-30 22:00","2022","01","30","22:00","4.8","","3.0","","88","","","","26","","35","","24.1","","101.22","","","","","","Cloudy"
"-123.18","49.19","VANCOUVER INTL A","1108395","2022-01-30 23:00","2022","01","30","23:00","4.5","","1.7","","82","","","","27","","31","","32.2","","101.29","","","","","","NA"
"-123.18","49.19","VANCOUVER INTL A","1108395","2022-01-31 00:00","2022","01","31","00:00","4.6","","1.3","","79","","","","28","","29","","32.2","","101.42","","","","","","NA"
"-123.18","49.19","VANCOUVER INTL A","1108395","2022-01-31 01:00","2022","01","31","01:00","3.8","","1.0","","82","","","","28","","30","","32.2","","101.50","","","","","","Mainly Clear"
"-123.18","49.19","VANCOUVER INTL A","1108395","2022-01-31 02:00","2022","01","31","02:00","4.2","","0.5","","77","","","","27","","34","","32.2","","101.61","","","","","","NA"
"-123.18","49.19","VANCOUVER INTL A","1108395","2022-01-31 03:00","2022","01","31","03:00","4.4","","-0.1","","72","","","","27","","39","","32.2","","101.66","","","","","","NA"
"-123.18","49.19","VANCOUVER INTL A","1108395","2022-01-31 04:00","2022","01","31","04:00","4.0","","0.6","","79","","","","28","","31","","32.2","","101.76","","","","","","Clear"
"-123.18","49.19","VANCOUVER INTL A","1108395","2022-01-31 05:00","2022","01","31","05:00","4.1","","0.9","","80","","","","26","","25","","32.2","","101.86","","","","","","NA"
"-123.18","49.19","VANCOUVER INTL A","1108395","2022-01-31 06:00","2022","01","31","06:00","4.8","","1.0","","76","","","","23","","23","","32.2","","101.94","","","","","","NA"
"-123.18","49.19","VANCOUVER INTL A","1108395","2022-01-31 07:00","2022","01","31","07:00","4.6","","1.9","","83","","","","21","","22","","32.2","","101.98","","","","","","Mostly Cloudy"
"-123.18","49.19","VANCOUVER INTL A","1108395","2022-01-31 08:00","2022","01","31","08:00","4.5","","0.9","","78","","","","22","","19","","40.2","","102.04","","","","","","NA"
"-123.18","49.19","VANCOUVER INTL A","1108395","2022-01-31 09:00","2022","01","31","09:00","5.0","","1.6","","78","","","","21","","11","","40.2","","102.10","","","","","","NA"
"-123.18","49.19","VANCOUVER INTL A","1108395","2022-01-31 10:00","2022","01","31","10:00","6.1","","1.7","","73","","","","23","","8","","40.2","","102.18","","","","","","Mainly Clear"
"-123.18","49.19","VANCOUVER INTL A","1108395","2022-01-31 11:00","2022","01","31","11:00","6.8","","2.4","","74","","","","29","","11","","40.2","","102.28","","","","","","NA"
"-123.18","49.19","VANCOUVER INTL A","1108395","2022-01-31 12:00","2022","01","31","12:00","6.5","","3.3","","80","","","","21","","10","","40.2","","102.33","","","","","","NA"
"-123.18","49.19","VANCOUVER INTL A","1108395","2022-01-31 13:00","2022","01","31","13:00","6.8","","3.0","","76","","","","27","","25","","40.2","","102.33","","","","","","Mainly Clear"
"-123.18","49.19","VANCOUVER INTL A","1108395","2022-01-31 14:00","2022","01","31","14:00","6.7","","2.8","","76","","","","27","","31","","40.2","","102.35","","","","","","NA"
"-123.18","49.19","VANCOUVER INTL A","1108395","2022-01-31 15:00","2022","01","31","15:00","6.5","","3.3","","80","","","","27","","27","","40.2","","102.37","","","","","","NA"
"-123.18","49.19","VANCOUVER INTL A","1108395","2022-01-31 16:00","2022","01","31","16:00","5.9","","3.1","","82","","","","27","","31","","40.2","","102.41","","","","","","Mainly Clear"
"-123.18","49.19","VANCOUVER INTL A","1108395","2022-01-31 17:00","2022","01","31","17:00","5.1","","2.9","","86","","","","27","","25","","40.2","","102.48","","","","","","NA"
"-123.18","49.19","VANCOUVER INTL A","1108395","2022-01-31 18:00","2022","01","31","18:00","4.8","","2.3","","84","","","","27","","23","","40.2","","102.50","","","","","","NA"
"-123.18","49.19","VANCOUVER INTL A","1108395","2022-01-31 19:00","2022","01","31","19:00","4.8","","2.0","","82","","","","27","","31","","32.2","","102.52","","","","","","Clear"
"-123.18","49.19","VANCOUVER INTL A","1108395","2022-01-31 20:00","2022","01","31","20:00","4.6","","2.0","","83","","","","26","","29","","32.2","","102.52","","","","","","NA"
"-123.18","49.19","VANCOUVER INTL A","1108395","2022-01-31 21:00","2022","01","31","21:00","4.3","","2.2","","86","","","","26","","28","","32.2","","102.52","","","","","","NA"
"-123.18","49.19","VANCOUVER INTL A","1108395","2022-01-31 22:00","2022","01","31","22:00","4.2","","1.9","","85","","","","26","","30","","32.2","","102.56","","","","","","Mainly Clear"
"-123.18","49.19","VANCOUVER INTL A","1108395","2022-01-31 23:00","2022","01","31","23:00","4.6","","2.3","","85","","","","27","","19","","32.2","","102.62","","","","","","NA"
